<?xml version="1.0" encoding="UTF-8"?>
<gpx xmlns="http://www.topografix.com/GPX/1/1" xmlns:xsi="http://www.w3.org/2001/XMLSchema-instance" xsi:schemaLocation="http://www.topografix.com/GPX/1/1 http://www.topografix.com/GPX/1/1/gpx.xsd" version="1.1" creator="tmb2027 build-gpx (BRouter hiking-mountain)">
  <metadata>
    <name>TMB 2027 Day 3 · La Balme → Col du Bonhomme → Col des Fours → Refuge des Mottets</name>
    <desc>라 발므 → 콜 뒤 보놈 → 콜 데 푸르 → 모테 · 경유 3지점 · 참고용 산길 경로. 실제 길 찾기는 공식 지도·현장 표지 우선.</desc>
    <copyright author="OpenStreetMap contributors"><license>https://www.openstreetmap.org/copyright</license></copyright>
    <link href="https://brouter.de/"><text>Routing: BRouter hiking-mountain</text></link>
    <time>2026-09-18T00:00:00Z</time>
  </metadata>
  <wpt lat="45.751" lon="6.729"><ele>1706</ele><name>Refuge de la Balme</name><type>lodging</type></wpt>
  <wpt lat="45.724" lon="6.716"><ele>2329</ele><name>Col du Bonhomme</name><type>pass</type></wpt>
  <wpt lat="45.718" lon="6.724"><ele>2479</ele><name>Col de la Croix du Bonhomme</name><type>pass</type></wpt>
  <wpt lat="45.713" lon="6.74"><ele>2665</ele><name>Col des Fours</name><type>pass</type></wpt>
  <wpt lat="45.729" lon="6.79"><ele>1870</ele><name>Refuge des Mottets</name><type>lodging</type></wpt>
  <trk>
    <name>TMB 2027 Day 3 · La Balme → Col du Bonhomme → Col des Fours → Refuge des Mottets</name>
    <trkseg>
   <trkpt lon="6.725989" lat="45.752796"><ele>2132.25</ele></trkpt>
   <trkpt lon="6.725628" lat="45.752548"><ele>2123.0</ele></trkpt>
   <trkpt lon="6.725261" lat="45.752025"><ele>2109.25</ele></trkpt>
   <trkpt lon="6.725089" lat="45.751836"><ele>2105.5</ele></trkpt>
   <trkpt lon="6.724780" lat="45.751660"><ele>2097.75</ele></trkpt>
   <trkpt lon="6.724556" lat="45.751580"><ele>2089.0</ele></trkpt>
   <trkpt lon="6.724434" lat="45.751512"><ele>2084.75</ele></trkpt>
   <trkpt lon="6.724204" lat="45.751123"><ele>2075.5</ele></trkpt>
   <trkpt lon="6.724121" lat="45.751170"><ele>2072.5</ele></trkpt>
   <trkpt lon="6.724051" lat="45.751064"><ele>2070.0</ele></trkpt>
   <trkpt lon="6.723904" lat="45.751138"><ele>2065.25</ele></trkpt>
   <trkpt lon="6.723803" lat="45.751087"><ele>2062.5</ele></trkpt>
   <trkpt lon="6.723660" lat="45.751155"><ele>2058.5</ele></trkpt>
   <trkpt lon="6.723539" lat="45.751156"><ele>2055.5</ele></trkpt>
   <trkpt lon="6.723422" lat="45.751189"><ele>2052.25</ele></trkpt>
   <trkpt lon="6.723306" lat="45.751280"><ele>2047.5</ele></trkpt>
   <trkpt lon="6.723383" lat="45.751432"><ele>2046.0</ele></trkpt>
   <trkpt lon="6.722980" lat="45.751488"><ele>2037.75</ele></trkpt>
   <trkpt lon="6.722821" lat="45.751500"><ele>2035.75</ele></trkpt>
   <trkpt lon="6.722366" lat="45.751535"><ele>2028.0</ele></trkpt>
   <trkpt lon="6.721991" lat="45.751500"><ele>2021.75</ele></trkpt>
   <trkpt lon="6.721570" lat="45.751445"><ele>2014.75</ele></trkpt>
   <trkpt lon="6.721079" lat="45.751462"><ele>2006.0</ele></trkpt>
   <trkpt lon="6.720576" lat="45.751406"><ele>1997.25</ele></trkpt>
   <trkpt lon="6.720166" lat="45.751313"><ele>1988.25</ele></trkpt>
   <trkpt lon="6.719887" lat="45.751204"><ele>1981.75</ele></trkpt>
   <trkpt lon="6.719698" lat="45.751224"><ele>1979.25</ele></trkpt>
   <trkpt lon="6.719503" lat="45.751228"><ele>1978.0</ele></trkpt>
   <trkpt lon="6.719116" lat="45.751159"><ele>1973.25</ele></trkpt>
   <trkpt lon="6.718693" lat="45.751029"><ele>1968.0</ele></trkpt>
   <trkpt lon="6.718396" lat="45.751001"><ele>1965.0</ele></trkpt>
   <trkpt lon="6.718153" lat="45.750903"><ele>1961.0</ele></trkpt>
   <trkpt lon="6.717946" lat="45.750892"><ele>1959.25</ele></trkpt>
   <trkpt lon="6.717575" lat="45.750795"><ele>1955.25</ele></trkpt>
   <trkpt lon="6.717177" lat="45.750600"><ele>1950.75</ele></trkpt>
   <trkpt lon="6.716611" lat="45.750476"><ele>1945.0</ele></trkpt>
   <trkpt lon="6.716282" lat="45.750299"><ele>1941.5</ele></trkpt>
   <trkpt lon="6.716104" lat="45.750327"><ele>1941.0</ele></trkpt>
   <trkpt lon="6.715904" lat="45.750252"><ele>1938.5</ele></trkpt>
   <trkpt lon="6.715756" lat="45.750275"><ele>1937.0</ele></trkpt>
   <trkpt lon="6.715381" lat="45.750246"><ele>1933.5</ele></trkpt>
   <trkpt lon="6.715171" lat="45.750185"><ele>1931.75</ele></trkpt>
   <trkpt lon="6.715133" lat="45.750197"><ele>1931.5</ele></trkpt>
   <trkpt lon="6.715096" lat="45.750263"><ele>1931.0</ele></trkpt>
   <trkpt lon="6.714962" lat="45.750330"><ele>1929.5</ele></trkpt>
   <trkpt lon="6.714783" lat="45.750393"><ele>1927.75</ele></trkpt>
   <trkpt lon="6.714532" lat="45.750367"><ele>1925.75</ele></trkpt>
   <trkpt lon="6.714284" lat="45.750388"><ele>1924.0</ele></trkpt>
   <trkpt lon="6.714076" lat="45.750431"><ele>1922.5</ele></trkpt>
   <trkpt lon="6.713585" lat="45.750429"><ele>1918.25</ele></trkpt>
   <trkpt lon="6.713219" lat="45.750372"><ele>1915.75</ele></trkpt>
   <trkpt lon="6.712789" lat="45.750407"><ele>1914.0</ele></trkpt>
   <trkpt lon="6.712702" lat="45.750402"><ele>1913.75</ele></trkpt>
   <trkpt lon="6.712512" lat="45.750390"><ele>1913.25</ele></trkpt>
   <trkpt lon="6.712175" lat="45.750265"><ele>1911.75</ele></trkpt>
   <trkpt lon="6.711877" lat="45.750197"><ele>1911.5</ele></trkpt>
   <trkpt lon="6.711770" lat="45.750138"><ele>1912.25</ele></trkpt>
   <trkpt lon="6.711725" lat="45.750084"><ele>1913.25</ele></trkpt>
   <trkpt lon="6.711624" lat="45.750047"><ele>1914.25</ele></trkpt>
   <trkpt lon="6.711438" lat="45.750092"><ele>1913.75</ele></trkpt>
   <trkpt lon="6.711537" lat="45.750020"><ele>1915.25</ele></trkpt>
   <trkpt lon="6.711682" lat="45.749951"><ele>1916.5</ele></trkpt>
   <trkpt lon="6.711830" lat="45.749870"><ele>1917.75</ele></trkpt>
   <trkpt lon="6.711889" lat="45.749846"><ele>1918.0</ele></trkpt>
   <trkpt lon="6.712020" lat="45.749806"><ele>1917.5</ele></trkpt>
   <trkpt lon="6.712057" lat="45.749785"><ele>1917.5</ele></trkpt>
   <trkpt lon="6.712111" lat="45.749731"><ele>1917.75</ele></trkpt>
   <trkpt lon="6.712199" lat="45.749612"><ele>1919.25</ele></trkpt>
   <trkpt lon="6.712270" lat="45.749555"><ele>1919.5</ele></trkpt>
   <trkpt lon="6.712321" lat="45.749529"><ele>1919.75</ele></trkpt>
   <trkpt lon="6.712451" lat="45.749486"><ele>1919.0</ele></trkpt>
   <trkpt lon="6.712612" lat="45.749451"><ele>1918.75</ele></trkpt>
   <trkpt lon="6.712804" lat="45.749399"><ele>1919.5</ele></trkpt>
   <trkpt lon="6.713213" lat="45.749239"><ele>1921.5</ele></trkpt>
   <trkpt lon="6.713253" lat="45.749217"><ele>1921.5</ele></trkpt>
   <trkpt lon="6.713503" lat="45.749037"><ele>1923.5</ele></trkpt>
   <trkpt lon="6.713786" lat="45.748875"><ele>1924.75</ele></trkpt>
   <trkpt lon="6.714025" lat="45.748706"><ele>1925.25</ele></trkpt>
   <trkpt lon="6.714149" lat="45.748608"><ele>1925.0</ele></trkpt>
   <trkpt lon="6.714216" lat="45.748537"><ele>1925.5</ele></trkpt>
   <trkpt lon="6.714261" lat="45.748451"><ele>1926.0</ele></trkpt>
   <trkpt lon="6.714291" lat="45.748296"><ele>1927.5</ele></trkpt>
   <trkpt lon="6.714310" lat="45.748239"><ele>1928.0</ele></trkpt>
   <trkpt lon="6.714347" lat="45.748175"><ele>1928.5</ele></trkpt>
   <trkpt lon="6.714523" lat="45.747933"><ele>1929.75</ele></trkpt>
   <trkpt lon="6.714542" lat="45.747891"><ele>1930.0</ele></trkpt>
   <trkpt lon="6.714544" lat="45.747852"><ele>1930.5</ele></trkpt>
   <trkpt lon="6.714562" lat="45.747821"><ele>1930.75</ele></trkpt>
   <trkpt lon="6.714598" lat="45.747804"><ele>1930.5</ele></trkpt>
   <trkpt lon="6.714642" lat="45.747795"><ele>1930.25</ele></trkpt>
   <trkpt lon="6.714698" lat="45.747768"><ele>1930.25</ele></trkpt>
   <trkpt lon="6.714741" lat="45.747739"><ele>1930.75</ele></trkpt>
   <trkpt lon="6.714787" lat="45.747682"><ele>1932.25</ele></trkpt>
   <trkpt lon="6.714868" lat="45.747679"><ele>1933.5</ele></trkpt>
   <trkpt lon="6.714892" lat="45.747730"><ele>1933.5</ele></trkpt>
   <trkpt lon="6.714909" lat="45.747739"><ele>1933.5</ele></trkpt>
   <trkpt lon="6.714963" lat="45.747738"><ele>1934.5</ele></trkpt>
   <trkpt lon="6.714979" lat="45.747724"><ele>1935.0</ele></trkpt>
   <trkpt lon="6.714997" lat="45.747699"><ele>1935.5</ele></trkpt>
   <trkpt lon="6.715001" lat="45.747675"><ele>1935.75</ele></trkpt>
   <trkpt lon="6.714986" lat="45.747649"><ele>1935.5</ele></trkpt>
   <trkpt lon="6.715006" lat="45.747650"><ele>1936.0</ele></trkpt>
   <trkpt lon="6.715018" lat="45.747642"><ele>1936.25</ele></trkpt>
   <trkpt lon="6.715021" lat="45.747603"><ele>1936.5</ele></trkpt>
   <trkpt lon="6.715091" lat="45.747558"><ele>1937.75</ele></trkpt>
   <trkpt lon="6.715160" lat="45.747472"><ele>1939.25</ele></trkpt>
   <trkpt lon="6.715185" lat="45.747417"><ele>1939.75</ele></trkpt>
   <trkpt lon="6.715185" lat="45.747362"><ele>1940.0</ele></trkpt>
   <trkpt lon="6.715205" lat="45.747330"><ele>1940.5</ele></trkpt>
   <trkpt lon="6.715250" lat="45.747288"><ele>1941.25</ele></trkpt>
   <trkpt lon="6.715291" lat="45.747227"><ele>1942.0</ele></trkpt>
   <trkpt lon="6.715358" lat="45.747217"><ele>1942.75</ele></trkpt>
   <trkpt lon="6.715407" lat="45.747180"><ele>1943.5</ele></trkpt>
   <trkpt lon="6.715431" lat="45.747173"><ele>1943.75</ele></trkpt>
   <trkpt lon="6.715520" lat="45.747172"><ele>1944.75</ele></trkpt>
   <trkpt lon="6.715811" lat="45.747059"><ele>1949.75</ele></trkpt>
   <trkpt lon="6.715897" lat="45.747056"><ele>1950.75</ele></trkpt>
   <trkpt lon="6.715935" lat="45.747043"><ele>1951.25</ele></trkpt>
   <trkpt lon="6.715984" lat="45.747011"><ele>1952.0</ele></trkpt>
   <trkpt lon="6.716066" lat="45.746993"><ele>1953.0</ele></trkpt>
   <trkpt lon="6.716128" lat="45.746955"><ele>1954.0</ele></trkpt>
   <trkpt lon="6.716207" lat="45.746922"><ele>1955.25</ele></trkpt>
   <trkpt lon="6.716335" lat="45.746910"><ele>1956.75</ele></trkpt>
   <trkpt lon="6.716412" lat="45.746915"><ele>1957.5</ele></trkpt>
   <trkpt lon="6.716458" lat="45.746911"><ele>1957.75</ele></trkpt>
   <trkpt lon="6.716507" lat="45.746899"><ele>1958.25</ele></trkpt>
   <trkpt lon="6.716567" lat="45.746863"><ele>1959.25</ele></trkpt>
   <trkpt lon="6.716642" lat="45.746849"><ele>1960.25</ele></trkpt>
   <trkpt lon="6.716723" lat="45.746797"><ele>1961.75</ele></trkpt>
   <trkpt lon="6.716769" lat="45.746756"><ele>1963.0</ele></trkpt>
   <trkpt lon="6.716901" lat="45.746710"><ele>1964.75</ele></trkpt>
   <trkpt lon="6.716984" lat="45.746701"><ele>1965.25</ele></trkpt>
   <trkpt lon="6.717133" lat="45.746661"><ele>1966.75</ele></trkpt>
   <trkpt lon="6.717235" lat="45.746582"><ele>1969.75</ele></trkpt>
   <trkpt lon="6.717300" lat="45.746554"><ele>1971.25</ele></trkpt>
   <trkpt lon="6.717363" lat="45.746556"><ele>1971.75</ele></trkpt>
   <trkpt lon="6.717449" lat="45.746583"><ele>1971.75</ele></trkpt>
   <trkpt lon="6.717588" lat="45.746579"><ele>1973.5</ele></trkpt>
   <trkpt lon="6.717718" lat="45.746606"><ele>1974.25</ele></trkpt>
   <trkpt lon="6.717825" lat="45.746647"><ele>1974.0</ele></trkpt>
   <trkpt lon="6.717964" lat="45.746643"><ele>1975.75</ele></trkpt>
   <trkpt lon="6.718044" lat="45.746656"><ele>1976.0</ele></trkpt>
   <trkpt lon="6.718088" lat="45.746657"><ele>1976.5</ele></trkpt>
   <trkpt lon="6.718114" lat="45.746650"><ele>1976.75</ele></trkpt>
   <trkpt lon="6.718171" lat="45.746619"><ele>1978.25</ele></trkpt>
   <trkpt lon="6.718180" lat="45.746605"><ele>1978.75</ele></trkpt>
   <trkpt lon="6.718171" lat="45.746593"><ele>1979.0</ele></trkpt>
   <trkpt lon="6.718063" lat="45.746576"><ele>1978.75</ele></trkpt>
   <trkpt lon="6.717993" lat="45.746540"><ele>1979.25</ele></trkpt>
   <trkpt lon="6.717967" lat="45.746520"><ele>1979.75</ele></trkpt>
   <trkpt lon="6.717954" lat="45.746487"><ele>1980.5</ele></trkpt>
   <trkpt lon="6.717890" lat="45.746407"><ele>1982.5</ele></trkpt>
   <trkpt lon="6.717785" lat="45.746352"><ele>1983.75</ele></trkpt>
   <trkpt lon="6.717685" lat="45.746284"><ele>1985.5</ele></trkpt>
   <trkpt lon="6.717609" lat="45.746213"><ele>1987.75</ele></trkpt>
   <trkpt lon="6.717561" lat="45.746148"><ele>1990.0</ele></trkpt>
   <trkpt lon="6.717534" lat="45.746141"><ele>1990.0</ele></trkpt>
   <trkpt lon="6.717513" lat="45.746128"><ele>1990.25</ele></trkpt>
   <trkpt lon="6.717497" lat="45.746095"><ele>1991.75</ele></trkpt>
   <trkpt lon="6.717466" lat="45.746072"><ele>1992.5</ele></trkpt>
   <trkpt lon="6.717398" lat="45.746037"><ele>1993.5</ele></trkpt>
   <trkpt lon="6.717354" lat="45.745991"><ele>1995.25</ele></trkpt>
   <trkpt lon="6.717304" lat="45.745948"><ele>1996.5</ele></trkpt>
   <trkpt lon="6.717272" lat="45.745932"><ele>1996.75</ele></trkpt>
   <trkpt lon="6.717245" lat="45.745904"><ele>1997.75</ele></trkpt>
   <trkpt lon="6.717171" lat="45.745800"><ele>2001.75</ele></trkpt>
   <trkpt lon="6.717122" lat="45.745678"><ele>2007.0</ele></trkpt>
   <trkpt lon="6.717026" lat="45.745532"><ele>2012.5</ele></trkpt>
   <trkpt lon="6.717023" lat="45.745515"><ele>2013.25</ele></trkpt>
   <trkpt lon="6.717053" lat="45.745486"><ele>2015.5</ele></trkpt>
   <trkpt lon="6.717000" lat="45.745454"><ele>2016.0</ele></trkpt>
   <trkpt lon="6.717033" lat="45.745415"><ele>2018.75</ele></trkpt>
   <trkpt lon="6.717025" lat="45.745395"><ele>2019.5</ele></trkpt>
   <trkpt lon="6.717031" lat="45.745377"><ele>2020.75</ele></trkpt>
   <trkpt lon="6.717049" lat="45.745362"><ele>2021.75</ele></trkpt>
   <trkpt lon="6.717024" lat="45.745339"><ele>2022.5</ele></trkpt>
   <trkpt lon="6.717018" lat="45.745312"><ele>2023.75</ele></trkpt>
   <trkpt lon="6.716973" lat="45.745303"><ele>2023.25</ele></trkpt>
   <trkpt lon="6.716950" lat="45.745292"><ele>2023.25</ele></trkpt>
   <trkpt lon="6.716941" lat="45.745261"><ele>2025.0</ele></trkpt>
   <trkpt lon="6.716923" lat="45.745256"><ele>2025.5</ele></trkpt>
   <trkpt lon="6.716862" lat="45.745271"><ele>2025.75</ele></trkpt>
   <trkpt lon="6.716768" lat="45.745257"><ele>2028.0</ele></trkpt>
   <trkpt lon="6.716752" lat="45.745250"><ele>2028.5</ele></trkpt>
   <trkpt lon="6.716746" lat="45.745242"><ele>2028.75</ele></trkpt>
   <trkpt lon="6.716787" lat="45.745201"><ele>2030.0</ele></trkpt>
   <trkpt lon="6.716787" lat="45.745170"><ele>2031.5</ele></trkpt>
   <trkpt lon="6.716771" lat="45.745152"><ele>2032.25</ele></trkpt>
   <trkpt lon="6.716747" lat="45.745147"><ele>2032.5</ele></trkpt>
   <trkpt lon="6.716725" lat="45.745130"><ele>2033.5</ele></trkpt>
   <trkpt lon="6.716720" lat="45.745107"><ele>2034.25</ele></trkpt>
   <trkpt lon="6.716693" lat="45.745084"><ele>2035.25</ele></trkpt>
   <trkpt lon="6.716576" lat="45.745010"><ele>2038.5</ele></trkpt>
   <trkpt lon="6.716534" lat="45.744993"><ele>2039.5</ele></trkpt>
   <trkpt lon="6.716456" lat="45.744915"><ele>2041.25</ele></trkpt>
   <trkpt lon="6.716354" lat="45.744880"><ele>2042.5</ele></trkpt>
   <trkpt lon="6.716308" lat="45.744859"><ele>2043.25</ele></trkpt>
   <trkpt lon="6.716239" lat="45.744819"><ele>2044.25</ele></trkpt>
   <trkpt lon="6.716147" lat="45.744785"><ele>2045.25</ele></trkpt>
   <trkpt lon="6.716096" lat="45.744754"><ele>2045.75</ele></trkpt>
   <trkpt lon="6.716025" lat="45.744688"><ele>2047.0</ele></trkpt>
   <trkpt lon="6.716012" lat="45.744661"><ele>2047.5</ele></trkpt>
   <trkpt lon="6.715990" lat="45.744519"><ele>2050.5</ele></trkpt>
   <trkpt lon="6.715974" lat="45.744182"><ele>2058.5</ele></trkpt>
   <trkpt lon="6.715825" lat="45.744006"><ele>2063.25</ele></trkpt>
   <trkpt lon="6.715727" lat="45.743919"><ele>2065.5</ele></trkpt>
   <trkpt lon="6.715595" lat="45.743665"><ele>2069.5</ele></trkpt>
   <trkpt lon="6.715554" lat="45.743185"><ele>2073.0</ele></trkpt>
   <trkpt lon="6.715467" lat="45.742888"><ele>2077.0</ele></trkpt>
   <trkpt lon="6.715373" lat="45.742762"><ele>2078.0</ele></trkpt>
   <trkpt lon="6.715107" lat="45.742613"><ele>2079.25</ele></trkpt>
   <trkpt lon="6.714781" lat="45.742361"><ele>2081.75</ele></trkpt>
   <trkpt lon="6.714591" lat="45.742155"><ele>2084.0</ele></trkpt>
   <trkpt lon="6.714500" lat="45.741948"><ele>2088.0</ele></trkpt>
   <trkpt lon="6.714041" lat="45.741530"><ele>2090.75</ele></trkpt>
   <trkpt lon="6.713794" lat="45.741121"><ele>2097.25</ele></trkpt>
   <trkpt lon="6.713705" lat="45.740902"><ele>2101.0</ele></trkpt>
   <trkpt lon="6.713607" lat="45.740787"><ele>2101.75</ele></trkpt>
   <trkpt lon="6.713602" lat="45.740631"><ele>2105.25</ele></trkpt>
   <trkpt lon="6.713468" lat="45.740558"><ele>2106.25</ele></trkpt>
   <trkpt lon="6.713180" lat="45.740480"><ele>2107.0</ele></trkpt>
   <trkpt lon="6.712795" lat="45.740009"><ele>2114.75</ele></trkpt>
   <trkpt lon="6.712588" lat="45.739876"><ele>2118.0</ele></trkpt>
   <trkpt lon="6.712304" lat="45.739612"><ele>2125.75</ele></trkpt>
   <trkpt lon="6.712249" lat="45.739447"><ele>2128.5</ele></trkpt>
   <trkpt lon="6.712150" lat="45.739432"><ele>2131.0</ele></trkpt>
   <trkpt lon="6.712043" lat="45.739516"><ele>2133.5</ele></trkpt>
   <trkpt lon="6.711968" lat="45.739501"><ele>2136.0</ele></trkpt>
   <trkpt lon="6.711901" lat="45.739355"><ele>2138.75</ele></trkpt>
   <trkpt lon="6.711740" lat="45.739200"><ele>2144.0</ele></trkpt>
   <trkpt lon="6.711386" lat="45.739020"><ele>2151.75</ele></trkpt>
   <trkpt lon="6.710911" lat="45.738734"><ele>2163.5</ele></trkpt>
   <trkpt lon="6.710694" lat="45.738665"><ele>2170.75</ele></trkpt>
   <trkpt lon="6.710525" lat="45.738601"><ele>2176.0</ele></trkpt>
   <trkpt lon="6.710248" lat="45.738466"><ele>2184.5</ele></trkpt>
   <trkpt lon="6.709948" lat="45.738287"><ele>2193.25</ele></trkpt>
   <trkpt lon="6.709975" lat="45.738142"><ele>2192.0</ele></trkpt>
   <trkpt lon="6.709867" lat="45.738096"><ele>2196.75</ele></trkpt>
   <trkpt lon="6.709779" lat="45.738138"><ele>2200.75</ele></trkpt>
   <trkpt lon="6.709679" lat="45.738078"><ele>2204.75</ele></trkpt>
   <trkpt lon="6.709648" lat="45.738011"><ele>2206.5</ele></trkpt>
   <trkpt lon="6.709500" lat="45.737972"><ele>2212.5</ele></trkpt>
   <trkpt lon="6.709488" lat="45.737873"><ele>2214.0</ele></trkpt>
   <trkpt lon="6.709367" lat="45.737883"><ele>2217.0</ele></trkpt>
   <trkpt lon="6.709355" lat="45.737794"><ele>2217.75</ele></trkpt>
   <trkpt lon="6.709241" lat="45.737801"><ele>2220.25</ele></trkpt>
   <trkpt lon="6.709224" lat="45.737723"><ele>2222.0</ele></trkpt>
   <trkpt lon="6.709136" lat="45.737687"><ele>2224.5</ele></trkpt>
   <trkpt lon="6.708790" lat="45.737397"><ele>2235.75</ele></trkpt>
   <trkpt lon="6.708705" lat="45.737378"><ele>2237.75</ele></trkpt>
   <trkpt lon="6.708586" lat="45.737521"><ele>2239.5</ele></trkpt>
   <trkpt lon="6.708468" lat="45.737596"><ele>2243.25</ele></trkpt>
   <trkpt lon="6.708277" lat="45.737865"><ele>2247.0</ele></trkpt>
   <trkpt lon="6.708200" lat="45.737877"><ele>2248.25</ele></trkpt>
   <trkpt lon="6.708124" lat="45.737852"><ele>2250.25</ele></trkpt>
   <trkpt lon="6.707815" lat="45.737672"><ele>2259.25</ele></trkpt>
   <trkpt lon="6.707787" lat="45.737616"><ele>2260.75</ele></trkpt>
   <trkpt lon="6.707833" lat="45.737577"><ele>2260.5</ele></trkpt>
   <trkpt lon="6.707858" lat="45.737527"><ele>2261.0</ele></trkpt>
   <trkpt lon="6.707819" lat="45.737453"><ele>2262.75</ele></trkpt>
   <trkpt lon="6.707670" lat="45.737299"><ele>2267.75</ele></trkpt>
   <trkpt lon="6.707614" lat="45.737199"><ele>2270.75</ele></trkpt>
   <trkpt lon="6.707695" lat="45.737014"><ele>2272.0</ele></trkpt>
   <trkpt lon="6.707721" lat="45.736779"><ele>2276.25</ele></trkpt>
   <trkpt lon="6.707754" lat="45.736646"><ele>2278.0</ele></trkpt>
   <trkpt lon="6.707737" lat="45.736543"><ele>2280.0</ele></trkpt>
   <trkpt lon="6.707350" lat="45.736008"><ele>2302.75</ele></trkpt>
   <trkpt lon="6.707017" lat="45.735755"><ele>2315.5</ele></trkpt>
   <trkpt lon="6.706856" lat="45.735539"><ele>2321.5</ele></trkpt>
   <trkpt lon="6.706772" lat="45.735370"><ele>2326.5</ele></trkpt>
   <trkpt lon="6.706683" lat="45.735143"><ele>2329.75</ele></trkpt>
   <trkpt lon="6.706606" lat="45.735048"><ele>2330.75</ele></trkpt>
   <trkpt lon="6.706605" lat="45.735009"><ele>2330.75</ele></trkpt>
   <trkpt lon="6.706834" lat="45.734870"><ele>2330.75</ele></trkpt>
   <trkpt lon="6.706911" lat="45.734797"><ele>2331.5</ele></trkpt>
   <trkpt lon="6.707032" lat="45.734723"><ele>2334.0</ele></trkpt>
   <trkpt lon="6.707070" lat="45.734674"><ele>2334.0</ele></trkpt>
   <trkpt lon="6.707158" lat="45.734594"><ele>2334.5</ele></trkpt>
   <trkpt lon="6.707213" lat="45.734508"><ele>2334.0</ele></trkpt>
   <trkpt lon="6.707386" lat="45.734399"><ele>2336.5</ele></trkpt>
   <trkpt lon="6.707469" lat="45.734364"><ele>2337.25</ele></trkpt>
   <trkpt lon="6.707604" lat="45.734351"><ele>2339.75</ele></trkpt>
   <trkpt lon="6.707675" lat="45.734335"><ele>2340.5</ele></trkpt>
   <trkpt lon="6.707764" lat="45.734305"><ele>2341.0</ele></trkpt>
   <trkpt lon="6.707824" lat="45.734302"><ele>2343.0</ele></trkpt>
   <trkpt lon="6.707837" lat="45.734285"><ele>2342.75</ele></trkpt>
   <trkpt lon="6.708058" lat="45.734178"><ele>2347.5</ele></trkpt>
   <trkpt lon="6.708125" lat="45.734111"><ele>2347.75</ele></trkpt>
   <trkpt lon="6.708213" lat="45.734077"><ele>2349.75</ele></trkpt>
   <trkpt lon="6.708404" lat="45.733903"><ele>2351.0</ele></trkpt>
   <trkpt lon="6.708440" lat="45.733838"><ele>2352.0</ele></trkpt>
   <trkpt lon="6.708477" lat="45.733719"><ele>2353.25</ele></trkpt>
   <trkpt lon="6.708501" lat="45.733676"><ele>2354.25</ele></trkpt>
   <trkpt lon="6.708529" lat="45.733649"><ele>2355.25</ele></trkpt>
   <trkpt lon="6.708544" lat="45.733570"><ele>2356.25</ele></trkpt>
   <trkpt lon="6.708585" lat="45.733533"><ele>2358.25</ele></trkpt>
   <trkpt lon="6.708635" lat="45.733392"><ele>2361.75</ele></trkpt>
   <trkpt lon="6.708621" lat="45.733360"><ele>2361.25</ele></trkpt>
   <trkpt lon="6.708650" lat="45.733321"><ele>2363.25</ele></trkpt>
   <trkpt lon="6.708644" lat="45.733140"><ele>2368.75</ele></trkpt>
   <trkpt lon="6.708447" lat="45.732938"><ele>2366.5</ele></trkpt>
   <trkpt lon="6.708449" lat="45.732864"><ele>2369.5</ele></trkpt>
   <trkpt lon="6.708356" lat="45.732607"><ele>2375.75</ele></trkpt>
   <trkpt lon="6.708278" lat="45.732452"><ele>2377.5</ele></trkpt>
   <trkpt lon="6.708249" lat="45.732361"><ele>2378.25</ele></trkpt>
   <trkpt lon="6.708286" lat="45.732349"><ele>2379.75</ele></trkpt>
   <trkpt lon="6.708307" lat="45.732263"><ele>2382.25</ele></trkpt>
   <trkpt lon="6.708286" lat="45.732129"><ele>2382.0</ele></trkpt>
   <trkpt lon="6.708356" lat="45.731656"><ele>2385.0</ele></trkpt>
   <trkpt lon="6.708320" lat="45.731589"><ele>2384.75</ele></trkpt>
   <trkpt lon="6.708332" lat="45.731467"><ele>2387.5</ele></trkpt>
   <trkpt lon="6.708508" lat="45.731279"><ele>2393.5</ele></trkpt>
   <trkpt lon="6.708497" lat="45.731005"><ele>2391.75</ele></trkpt>
   <trkpt lon="6.708533" lat="45.730907"><ele>2393.0</ele></trkpt>
   <trkpt lon="6.708672" lat="45.730837"><ele>2397.5</ele></trkpt>
   <trkpt lon="6.708758" lat="45.730831"><ele>2399.5</ele></trkpt>
   <trkpt lon="6.708807" lat="45.730862"><ele>2401.0</ele></trkpt>
   <trkpt lon="6.708842" lat="45.730857"><ele>2401.75</ele></trkpt>
   <trkpt lon="6.708861" lat="45.730783"><ele>2402.0</ele></trkpt>
   <trkpt lon="6.708970" lat="45.730730"><ele>2404.75</ele></trkpt>
   <trkpt lon="6.709004" lat="45.730668"><ele>2405.5</ele></trkpt>
   <trkpt lon="6.709011" lat="45.730593"><ele>2405.5</ele></trkpt>
   <trkpt lon="6.709063" lat="45.730547"><ele>2406.75</ele></trkpt>
   <trkpt lon="6.709021" lat="45.730469"><ele>2405.0</ele></trkpt>
   <trkpt lon="6.709238" lat="45.730108"><ele>2407.5</ele></trkpt>
   <trkpt lon="6.709296" lat="45.730128"><ele>2409.0</ele></trkpt>
   <trkpt lon="6.709356" lat="45.730088"><ele>2410.0</ele></trkpt>
   <trkpt lon="6.709372" lat="45.729946"><ele>2408.75</ele></trkpt>
   <trkpt lon="6.709407" lat="45.729877"><ele>2408.5</ele></trkpt>
   <trkpt lon="6.709713" lat="45.729767"><ele>2412.0</ele></trkpt>
   <trkpt lon="6.709842" lat="45.729642"><ele>2412.5</ele></trkpt>
   <trkpt lon="6.710034" lat="45.729560"><ele>2415.75</ele></trkpt>
   <trkpt lon="6.710155" lat="45.729453"><ele>2415.75</ele></trkpt>
   <trkpt lon="6.710258" lat="45.729406"><ele>2417.75</ele></trkpt>
   <trkpt lon="6.710264" lat="45.729370"><ele>2418.25</ele></trkpt>
   <trkpt lon="6.710222" lat="45.728875"><ele>2417.25</ele></trkpt>
   <trkpt lon="6.710238" lat="45.728807"><ele>2416.0</ele></trkpt>
   <trkpt lon="6.710310" lat="45.728671"><ele>2415.0</ele></trkpt>
   <trkpt lon="6.710247" lat="45.728418"><ele>2408.5</ele></trkpt>
   <trkpt lon="6.710262" lat="45.728345"><ele>2407.5</ele></trkpt>
   <trkpt lon="6.710341" lat="45.728254"><ele>2408.0</ele></trkpt>
   <trkpt lon="6.710345" lat="45.728165"><ele>2406.5</ele></trkpt>
   <trkpt lon="6.710390" lat="45.728086"><ele>2406.5</ele></trkpt>
   <trkpt lon="6.710522" lat="45.728036"><ele>2410.0</ele></trkpt>
   <trkpt lon="6.710760" lat="45.728012"><ele>2415.0</ele></trkpt>
   <trkpt lon="6.710832" lat="45.727921"><ele>2414.5</ele></trkpt>
   <trkpt lon="6.710942" lat="45.727876"><ele>2416.75</ele></trkpt>
   <trkpt lon="6.711083" lat="45.727557"><ele>2416.5</ele></trkpt>
   <trkpt lon="6.711222" lat="45.727420"><ele>2419.5</ele></trkpt>
   <trkpt lon="6.711250" lat="45.727276"><ele>2419.25</ele></trkpt>
   <trkpt lon="6.711314" lat="45.727066"><ele>2417.25</ele></trkpt>
   <trkpt lon="6.711377" lat="45.727016"><ele>2417.75</ele></trkpt>
   <trkpt lon="6.711426" lat="45.726956"><ele>2418.25</ele></trkpt>
   <trkpt lon="6.711491" lat="45.726973"><ele>2420.5</ele></trkpt>
   <trkpt lon="6.711630" lat="45.726914"><ele>2422.75</ele></trkpt>
   <trkpt lon="6.711787" lat="45.726857"><ele>2423.75</ele></trkpt>
   <trkpt lon="6.711882" lat="45.726805"><ele>2423.25</ele></trkpt>
   <trkpt lon="6.712235" lat="45.726697"><ele>2426.25</ele></trkpt>
   <trkpt lon="6.712529" lat="45.726617"><ele>2429.75</ele></trkpt>
   <trkpt lon="6.712541" lat="45.726557"><ele>2429.0</ele></trkpt>
   <trkpt lon="6.712900" lat="45.726387"><ele>2431.5</ele></trkpt>
   <trkpt lon="6.712983" lat="45.726185"><ele>2431.25</ele></trkpt>
   <trkpt lon="6.713063" lat="45.726091"><ele>2432.5</ele></trkpt>
   <trkpt lon="6.713096" lat="45.726034"><ele>2431.75</ele></trkpt>
   <trkpt lon="6.713177" lat="45.725985"><ele>2433.0</ele></trkpt>
   <trkpt lon="6.713233" lat="45.725941"><ele>2433.5</ele></trkpt>
   <trkpt lon="6.713244" lat="45.725944"><ele>2434.0</ele></trkpt>
   <trkpt lon="6.713260" lat="45.725964"><ele>2435.0</ele></trkpt>
   <trkpt lon="6.713291" lat="45.725967"><ele>2436.0</ele></trkpt>
   <trkpt lon="6.713308" lat="45.725960"><ele>2436.25</ele></trkpt>
   <trkpt lon="6.713322" lat="45.725919"><ele>2435.75</ele></trkpt>
   <trkpt lon="6.713343" lat="45.725907"><ele>2436.0</ele></trkpt>
   <trkpt lon="6.713379" lat="45.725901"><ele>2436.5</ele></trkpt>
   <trkpt lon="6.713398" lat="45.725876"><ele>2436.5</ele></trkpt>
   <trkpt lon="6.713397" lat="45.725848"><ele>2435.75</ele></trkpt>
   <trkpt lon="6.713434" lat="45.725821"><ele>2435.75</ele></trkpt>
   <trkpt lon="6.713424" lat="45.725810"><ele>2435.25</ele></trkpt>
   <trkpt lon="6.713424" lat="45.725773"><ele>2434.25</ele></trkpt>
   <trkpt lon="6.713447" lat="45.725701"><ele>2432.75</ele></trkpt>
   <trkpt lon="6.713475" lat="45.725644"><ele>2431.75</ele></trkpt>
   <trkpt lon="6.713607" lat="45.725616"><ele>2434.25</ele></trkpt>
   <trkpt lon="6.713617" lat="45.725598"><ele>2434.0</ele></trkpt>
   <trkpt lon="6.713662" lat="45.725569"><ele>2434.5</ele></trkpt>
   <trkpt lon="6.713662" lat="45.725555"><ele>2434.25</ele></trkpt>
   <trkpt lon="6.713675" lat="45.725543"><ele>2434.25</ele></trkpt>
   <trkpt lon="6.713723" lat="45.725521"><ele>2435.0</ele></trkpt>
   <trkpt lon="6.713765" lat="45.725493"><ele>2435.25</ele></trkpt>
   <trkpt lon="6.713788" lat="45.725491"><ele>2435.75</ele></trkpt>
   <trkpt lon="6.713846" lat="45.725502"><ele>2437.25</ele></trkpt>
   <trkpt lon="6.713878" lat="45.725510"><ele>2438.25</ele></trkpt>
   <trkpt lon="6.713933" lat="45.725539"><ele>2440.0</ele></trkpt>
   <trkpt lon="6.713968" lat="45.725542"><ele>2440.5</ele></trkpt>
   <trkpt lon="6.714161" lat="45.725531"><ele>2443.0</ele></trkpt>
   <trkpt lon="6.714222" lat="45.725518"><ele>2443.25</ele></trkpt>
   <trkpt lon="6.714269" lat="45.725521"><ele>2444.0</ele></trkpt>
   <trkpt lon="6.714392" lat="45.725513"><ele>2445.25</ele></trkpt>
   <trkpt lon="6.714486" lat="45.725492"><ele>2446.5</ele></trkpt>
   <trkpt lon="6.714520" lat="45.725475"><ele>2446.75</ele></trkpt>
   <trkpt lon="6.714523" lat="45.725447"><ele>2446.0</ele></trkpt>
   <trkpt lon="6.714564" lat="45.725411"><ele>2445.75</ele></trkpt>
   <trkpt lon="6.714582" lat="45.725381"><ele>2445.25</ele></trkpt>
   <trkpt lon="6.714625" lat="45.725362"><ele>2445.5</ele></trkpt>
   <trkpt lon="6.714684" lat="45.725364"><ele>2446.5</ele></trkpt>
   <trkpt lon="6.714775" lat="45.725379"><ele>2448.0</ele></trkpt>
   <trkpt lon="6.714865" lat="45.725377"><ele>2449.0</ele></trkpt>
   <trkpt lon="6.715021" lat="45.725387"><ele>2451.0</ele></trkpt>
   <trkpt lon="6.715160" lat="45.725407"><ele>2453.0</ele></trkpt>
   <trkpt lon="6.715363" lat="45.725473"><ele>2458.25</ele></trkpt>
   <trkpt lon="6.715444" lat="45.725511"><ele>2461.0</ele></trkpt>
   <trkpt lon="6.715530" lat="45.725527"><ele>2462.5</ele></trkpt>
   <trkpt lon="6.715597" lat="45.725514"><ele>2463.0</ele></trkpt>
   <trkpt lon="6.715649" lat="45.725507"><ele>2463.75</ele></trkpt>
   <trkpt lon="6.715739" lat="45.725527"><ele>2466.0</ele></trkpt>
   <trkpt lon="6.715838" lat="45.725499"><ele>2467.25</ele></trkpt>
   <trkpt lon="6.716109" lat="45.725444"><ele>2474.0</ele></trkpt>
   <trkpt lon="6.716115" lat="45.725417"><ele>2474.5</ele></trkpt>
   <trkpt lon="6.716103" lat="45.725387"><ele>2474.5</ele></trkpt>
   <trkpt lon="6.716058" lat="45.725330"><ele>2473.5</ele></trkpt>
   <trkpt lon="6.716052" lat="45.725300"><ele>2473.5</ele></trkpt>
   <trkpt lon="6.716068" lat="45.725268"><ele>2474.0</ele></trkpt>
   <trkpt lon="6.716112" lat="45.725151"><ele>2474.5</ele></trkpt>
   <trkpt lon="6.716332" lat="45.725016"><ele>2477.0</ele></trkpt>
   <trkpt lon="6.716227" lat="45.724888"><ele>2475.25</ele></trkpt>
   <trkpt lon="6.716158" lat="45.724685"><ele>2473.25</ele></trkpt>
   <trkpt lon="6.716182" lat="45.724511"><ele>2473.75</ele></trkpt>
   <trkpt lon="6.716343" lat="45.724346"><ele>2476.75</ele></trkpt>
   <trkpt lon="6.716380" lat="45.724148"><ele>2475.75</ele></trkpt>
   <trkpt lon="6.716509" lat="45.723987"><ele>2476.0</ele></trkpt>
   <trkpt lon="6.716852" lat="45.723807"><ele>2472.75</ele></trkpt>
   <trkpt lon="6.717072" lat="45.723537"><ele>2471.0</ele></trkpt>
   <trkpt lon="6.717090" lat="45.723575"><ele>2471.5</ele></trkpt>
   <trkpt lon="6.717096" lat="45.723645"><ele>2472.5</ele></trkpt>
   <trkpt lon="6.717124" lat="45.723748"><ele>2474.0</ele></trkpt>
   <trkpt lon="6.717144" lat="45.723777"><ele>2474.75</ele></trkpt>
   <trkpt lon="6.717171" lat="45.723860"><ele>2476.0</ele></trkpt>
   <trkpt lon="6.717163" lat="45.723943"><ele>2478.0</ele></trkpt>
   <trkpt lon="6.717182" lat="45.724005"><ele>2480.25</ele></trkpt>
   <trkpt lon="6.717170" lat="45.724054"><ele>2481.5</ele></trkpt>
   <trkpt lon="6.717012" lat="45.724200"><ele>2484.0</ele></trkpt>
   <trkpt lon="6.716977" lat="45.724261"><ele>2485.25</ele></trkpt>
   <trkpt lon="6.716974" lat="45.724312"><ele>2487.0</ele></trkpt>
   <trkpt lon="6.716886" lat="45.724406"><ele>2489.0</ele></trkpt>
   <trkpt lon="6.716825" lat="45.724483"><ele>2489.5</ele></trkpt>
   <trkpt lon="6.716846" lat="45.724517"><ele>2490.0</ele></trkpt>
   <trkpt lon="6.716882" lat="45.724543"><ele>2490.5</ele></trkpt>
   <trkpt lon="6.716933" lat="45.724570"><ele>2491.25</ele></trkpt>
   <trkpt lon="6.717007" lat="45.724594"><ele>2492.0</ele></trkpt>
   <trkpt lon="6.717151" lat="45.724621"><ele>2493.75</ele></trkpt>
   <trkpt lon="6.717463" lat="45.724662"><ele>2497.25</ele></trkpt>
   <trkpt lon="6.717527" lat="45.724662"><ele>2498.25</ele></trkpt>
   <trkpt lon="6.717631" lat="45.724687"><ele>2500.25</ele></trkpt>
   <trkpt lon="6.717707" lat="45.724747"><ele>2502.25</ele></trkpt>
   <trkpt lon="6.717757" lat="45.724767"><ele>2503.25</ele></trkpt>
   <trkpt lon="6.717800" lat="45.724791"><ele>2504.0</ele></trkpt>
   <trkpt lon="6.717964" lat="45.724918"><ele>2506.5</ele></trkpt>
   <trkpt lon="6.718075" lat="45.724976"><ele>2508.25</ele></trkpt>
   <trkpt lon="6.718265" lat="45.725112"><ele>2512.25</ele></trkpt>
   <trkpt lon="6.718276" lat="45.725137"><ele>2512.75</ele></trkpt>
   <trkpt lon="6.718270" lat="45.725185"><ele>2513.0</ele></trkpt>
   <trkpt lon="6.718281" lat="45.725215"><ele>2513.5</ele></trkpt>
   <trkpt lon="6.718451" lat="45.725420"><ele>2517.25</ele></trkpt>
   <trkpt lon="6.718547" lat="45.725489"><ele>2519.0</ele></trkpt>
   <trkpt lon="6.718757" lat="45.725582"><ele>2522.25</ele></trkpt>
   <trkpt lon="6.718824" lat="45.725621"><ele>2523.75</ele></trkpt>
   <trkpt lon="6.718866" lat="45.725659"><ele>2525.0</ele></trkpt>
   <trkpt lon="6.718904" lat="45.725759"><ele>2527.25</ele></trkpt>
   <trkpt lon="6.718924" lat="45.725877"><ele>2530.75</ele></trkpt>
   <trkpt lon="6.718956" lat="45.725956"><ele>2534.25</ele></trkpt>
   <trkpt lon="6.719099" lat="45.726215"><ele>2544.0</ele></trkpt>
   <trkpt lon="6.719166" lat="45.726278"><ele>2546.25</ele></trkpt>
   <trkpt lon="6.719479" lat="45.726508"><ele>2550.5</ele></trkpt>
   <trkpt lon="6.719569" lat="45.726560"><ele>2551.25</ele></trkpt>
   <trkpt lon="6.719632" lat="45.726587"><ele>2552.0</ele></trkpt>
   <trkpt lon="6.719738" lat="45.726614"><ele>2553.25</ele></trkpt>
   <trkpt lon="6.719906" lat="45.726679"><ele>2555.5</ele></trkpt>
   <trkpt lon="6.720203" lat="45.726829"><ele>2560.75</ele></trkpt>
   <trkpt lon="6.720707" lat="45.727022"><ele>2569.5</ele></trkpt>
   <trkpt lon="6.721106" lat="45.727416"><ele>2579.0</ele></trkpt>
   <trkpt lon="6.721264" lat="45.727516"><ele>2580.5</ele></trkpt>
   <trkpt lon="6.721330" lat="45.727608"><ele>2581.75</ele></trkpt>
   <trkpt lon="6.721438" lat="45.727723"><ele>2584.5</ele></trkpt>
   <trkpt lon="6.721527" lat="45.727843"><ele>2588.5</ele></trkpt>
   <trkpt lon="6.721487" lat="45.727959"><ele>2589.25</ele></trkpt>
   <trkpt lon="6.721541" lat="45.728240"><ele>2593.25</ele></trkpt>
   <trkpt lon="6.721793" lat="45.728416"><ele>2598.25</ele></trkpt>
   <trkpt lon="6.722066" lat="45.728957"><ele>2612.75</ele></trkpt>
   <trkpt lon="6.722431" lat="45.729439"><ele>2624.0</ele></trkpt>
   <trkpt lon="6.722511" lat="45.729624"><ele>2627.5</ele></trkpt>
   <trkpt lon="6.722533" lat="45.729715"><ele>2628.75</ele></trkpt>
   <trkpt lon="6.722748" lat="45.729895"><ele>2633.5</ele></trkpt>
   <trkpt lon="6.722928" lat="45.730160"><ele>2638.25</ele></trkpt>
   <trkpt lon="6.723124" lat="45.730474"><ele>2643.5</ele></trkpt>
   <trkpt lon="6.723169" lat="45.730570"><ele>2645.5</ele></trkpt>
   <trkpt lon="6.723271" lat="45.730633"><ele>2648.75</ele></trkpt>
   <trkpt lon="6.723377" lat="45.730720"><ele>2651.5</ele></trkpt>
   <trkpt lon="6.723430" lat="45.730817"><ele>2653.0</ele></trkpt>
   <trkpt lon="6.723502" lat="45.730897"><ele>2655.25</ele></trkpt>
   <trkpt lon="6.723820" lat="45.731151"><ele>2662.0</ele></trkpt>
   <trkpt lon="6.723939" lat="45.731233"><ele>2665.25</ele></trkpt>
   <trkpt lon="6.724077" lat="45.731263"><ele>2666.5</ele></trkpt>
   <trkpt lon="6.724358" lat="45.731268"><ele>2663.5</ele></trkpt>
   <trkpt lon="6.724715" lat="45.731195"><ele>2657.0</ele></trkpt>
   <trkpt lon="6.724988" lat="45.731130"><ele>2650.0</ele></trkpt>
   <trkpt lon="6.725194" lat="45.731098"><ele>2644.5</ele></trkpt>
   <trkpt lon="6.725533" lat="45.730934"><ele>2635.0</ele></trkpt>
   <trkpt lon="6.725902" lat="45.730779"><ele>2623.25</ele></trkpt>
   <trkpt lon="6.725964" lat="45.730850"><ele>2620.5</ele></trkpt>
   <trkpt lon="6.726382" lat="45.730654"><ele>2607.5</ele></trkpt>
   <trkpt lon="6.726653" lat="45.730558"><ele>2598.25</ele></trkpt>
   <trkpt lon="6.726824" lat="45.730483"><ele>2592.75</ele></trkpt>
   <trkpt lon="6.727071" lat="45.730583"><ele>2584.25</ele></trkpt>
   <trkpt lon="6.727133" lat="45.730496"><ele>2581.25</ele></trkpt>
   <trkpt lon="6.727268" lat="45.730492"><ele>2576.25</ele></trkpt>
   <trkpt lon="6.727313" lat="45.730367"><ele>2573.0</ele></trkpt>
   <trkpt lon="6.727524" lat="45.730354"><ele>2565.0</ele></trkpt>
   <trkpt lon="6.727935" lat="45.730515"><ele>2552.0</ele></trkpt>
   <trkpt lon="6.728387" lat="45.730101"><ele>2533.75</ele></trkpt>
   <trkpt lon="6.728637" lat="45.730132"><ele>2526.75</ele></trkpt>
   <trkpt lon="6.728884" lat="45.729984"><ele>2519.75</ele></trkpt>
   <trkpt lon="6.728835" lat="45.729844"><ele>2518.0</ele></trkpt>
   <trkpt lon="6.728976" lat="45.729811"><ele>2512.75</ele></trkpt>
   <trkpt lon="6.729094" lat="45.729826"><ele>2509.25</ele></trkpt>
   <trkpt lon="6.729122" lat="45.729740"><ele>2506.75</ele></trkpt>
   <trkpt lon="6.729232" lat="45.729745"><ele>2503.25</ele></trkpt>
   <trkpt lon="6.729260" lat="45.729708"><ele>2501.75</ele></trkpt>
   <trkpt lon="6.729322" lat="45.729723"><ele>2499.75</ele></trkpt>
   <trkpt lon="6.729406" lat="45.729528"><ele>2494.0</ele></trkpt>
   <trkpt lon="6.729624" lat="45.729290"><ele>2484.0</ele></trkpt>
   <trkpt lon="6.729839" lat="45.729135"><ele>2477.0</ele></trkpt>
   <trkpt lon="6.730149" lat="45.729075"><ele>2468.75</ele></trkpt>
   <trkpt lon="6.730351" lat="45.729101"><ele>2462.75</ele></trkpt>
   <trkpt lon="6.730631" lat="45.728942"><ele>2458.5</ele></trkpt>
   <trkpt lon="6.730894" lat="45.728885"><ele>2455.0</ele></trkpt>
   <trkpt lon="6.731167" lat="45.729026"><ele>2446.0</ele></trkpt>
   <trkpt lon="6.731389" lat="45.728953"><ele>2443.0</ele></trkpt>
   <trkpt lon="6.731663" lat="45.728942"><ele>2437.25</ele></trkpt>
   <trkpt lon="6.731809" lat="45.728818"><ele>2437.0</ele></trkpt>
   <trkpt lon="6.731994" lat="45.728837"><ele>2432.75</ele></trkpt>
   <trkpt lon="6.732258" lat="45.728926"><ele>2425.75</ele></trkpt>
   <trkpt lon="6.732485" lat="45.729041"><ele>2420.5</ele></trkpt>
   <trkpt lon="6.732755" lat="45.729071"><ele>2416.0</ele></trkpt>
   <trkpt lon="6.733007" lat="45.729157"><ele>2410.75</ele></trkpt>
   <trkpt lon="6.733339" lat="45.729163"><ele>2406.75</ele></trkpt>
   <trkpt lon="6.733717" lat="45.729312"><ele>2400.75</ele></trkpt>
   <trkpt lon="6.733928" lat="45.729364"><ele>2398.0</ele></trkpt>
   <trkpt lon="6.734067" lat="45.729426"><ele>2397.25</ele></trkpt>
   <trkpt lon="6.734207" lat="45.729380"><ele>2397.5</ele></trkpt>
   <trkpt lon="6.734283" lat="45.729410"><ele>2396.75</ele></trkpt>
   <trkpt lon="6.734507" lat="45.729473"><ele>2394.0</ele></trkpt>
   <trkpt lon="6.734570" lat="45.729554"><ele>2392.5</ele></trkpt>
   <trkpt lon="6.735028" lat="45.729670"><ele>2388.75</ele></trkpt>
   <trkpt lon="6.735078" lat="45.729782"><ele>2388.75</ele></trkpt>
   <trkpt lon="6.735171" lat="45.729811"><ele>2389.5</ele></trkpt>
   <trkpt lon="6.735235" lat="45.729850"><ele>2389.5</ele></trkpt>
   <trkpt lon="6.735349" lat="45.729928"><ele>2388.75</ele></trkpt>
   <trkpt lon="6.735431" lat="45.730001"><ele>2387.5</ele></trkpt>
   <trkpt lon="6.735588" lat="45.730051"><ele>2384.75</ele></trkpt>
   <trkpt lon="6.735703" lat="45.730058"><ele>2381.25</ele></trkpt>
   <trkpt lon="6.735808" lat="45.730020"><ele>2379.75</ele></trkpt>
   <trkpt lon="6.735921" lat="45.729998"><ele>2376.75</ele></trkpt>
   <trkpt lon="6.736097" lat="45.729999"><ele>2370.5</ele></trkpt>
   <trkpt lon="6.736264" lat="45.730024"><ele>2364.5</ele></trkpt>
   <trkpt lon="6.736379" lat="45.730000"><ele>2362.25</ele></trkpt>
   <trkpt lon="6.736525" lat="45.730035"><ele>2357.75</ele></trkpt>
   <trkpt lon="6.736630" lat="45.730014"><ele>2356.25</ele></trkpt>
   <trkpt lon="6.736737" lat="45.730053"><ele>2351.25</ele></trkpt>
   <trkpt lon="6.736810" lat="45.729980"><ele>2350.5</ele></trkpt>
   <trkpt lon="6.736860" lat="45.729895"><ele>2347.0</ele></trkpt>
   <trkpt lon="6.736891" lat="45.729821"><ele>2344.5</ele></trkpt>
   <trkpt lon="6.737007" lat="45.729761"><ele>2337.75</ele></trkpt>
   <trkpt lon="6.737065" lat="45.729812"><ele>2336.25</ele></trkpt>
   <trkpt lon="6.737110" lat="45.729740"><ele>2332.5</ele></trkpt>
   <trkpt lon="6.737350" lat="45.729681"><ele>2323.25</ele></trkpt>
   <trkpt lon="6.737522" lat="45.729596"><ele>2318.75</ele></trkpt>
   <trkpt lon="6.737628" lat="45.729565"><ele>2315.75</ele></trkpt>
   <trkpt lon="6.737707" lat="45.729550"><ele>2313.25</ele></trkpt>
   <trkpt lon="6.737766" lat="45.729561"><ele>2310.75</ele></trkpt>
   <trkpt lon="6.737807" lat="45.729580"><ele>2309.0</ele></trkpt>
   <trkpt lon="6.737867" lat="45.729658"><ele>2305.75</ele></trkpt>
   <trkpt lon="6.738018" lat="45.729778"><ele>2298.5</ele></trkpt>
   <trkpt lon="6.738056" lat="45.729792"><ele>2297.0</ele></trkpt>
   <trkpt lon="6.738162" lat="45.729802"><ele>2294.0</ele></trkpt>
   <trkpt lon="6.738247" lat="45.729843"><ele>2291.0</ele></trkpt>
   <trkpt lon="6.738330" lat="45.729927"><ele>2287.25</ele></trkpt>
   <trkpt lon="6.738349" lat="45.730036"><ele>2284.5</ele></trkpt>
   <trkpt lon="6.738425" lat="45.730102"><ele>2281.25</ele></trkpt>
   <trkpt lon="6.738582" lat="45.730128"><ele>2276.75</ele></trkpt>
   <trkpt lon="6.738696" lat="45.730159"><ele>2273.25</ele></trkpt>
   <trkpt lon="6.738740" lat="45.730249"><ele>2270.5</ele></trkpt>
   <trkpt lon="6.738718" lat="45.730387"><ele>2268.0</ele></trkpt>
   <trkpt lon="6.738664" lat="45.730454"><ele>2267.0</ele></trkpt>
   <trkpt lon="6.738699" lat="45.730517"><ele>2265.25</ele></trkpt>
   <trkpt lon="6.738716" lat="45.730548"><ele>2264.25</ele></trkpt>
   <trkpt lon="6.738852" lat="45.730543"><ele>2263.5</ele></trkpt>
   <trkpt lon="6.738852" lat="45.730582"><ele>2263.5</ele></trkpt>
   <trkpt lon="6.738879" lat="45.730608"><ele>2263.5</ele></trkpt>
   <trkpt lon="6.738871" lat="45.730637"><ele>2264.0</ele></trkpt>
   <trkpt lon="6.738762" lat="45.730676"><ele>2265.5</ele></trkpt>
   <trkpt lon="6.738683" lat="45.730718"><ele>2267.0</ele></trkpt>
   <trkpt lon="6.738681" lat="45.730783"><ele>2268.0</ele></trkpt>
   <trkpt lon="6.738665" lat="45.730869"><ele>2269.5</ele></trkpt>
   <trkpt lon="6.738825" lat="45.731079"><ele>2270.25</ele></trkpt>
   <trkpt lon="6.738973" lat="45.731166"><ele>2269.25</ele></trkpt>
   <trkpt lon="6.739044" lat="45.731219"><ele>2268.75</ele></trkpt>
   <trkpt lon="6.739073" lat="45.731258"><ele>2268.5</ele></trkpt>
   <trkpt lon="6.739058" lat="45.731362"><ele>2268.75</ele></trkpt>
   <trkpt lon="6.739011" lat="45.731417"><ele>2269.25</ele></trkpt>
   <trkpt lon="6.739019" lat="45.731464"><ele>2269.75</ele></trkpt>
   <trkpt lon="6.739024" lat="45.731481"><ele>2269.75</ele></trkpt>
   <trkpt lon="6.739060" lat="45.731508"><ele>2269.5</ele></trkpt>
   <trkpt lon="6.739052" lat="45.731564"><ele>2270.0</ele></trkpt>
   <trkpt lon="6.739032" lat="45.731604"><ele>2270.75</ele></trkpt>
   <trkpt lon="6.739048" lat="45.731648"><ele>2270.75</ele></trkpt>
   <trkpt lon="6.739097" lat="45.731684"><ele>2270.5</ele></trkpt>
   <trkpt lon="6.739152" lat="45.731691"><ele>2269.75</ele></trkpt>
   <trkpt lon="6.739301" lat="45.731800"><ele>2271.0</ele></trkpt>
   <trkpt lon="6.739547" lat="45.732037"><ele>2271.0</ele></trkpt>
   <trkpt lon="6.739821" lat="45.732159"><ele>2264.25</ele></trkpt>
   <trkpt lon="6.740216" lat="45.732193"><ele>2251.75</ele></trkpt>
   <trkpt lon="6.740497" lat="45.732138"><ele>2246.5</ele></trkpt>
   <trkpt lon="6.740576" lat="45.732169"><ele>2244.5</ele></trkpt>
   <trkpt lon="6.740861" lat="45.732324"><ele>2236.75</ele></trkpt>
   <trkpt lon="6.740901" lat="45.732353"><ele>2235.0</ele></trkpt>
   <trkpt lon="6.740874" lat="45.732387"><ele>2234.25</ele></trkpt>
   <trkpt lon="6.740820" lat="45.732397"><ele>2234.75</ele></trkpt>
   <trkpt lon="6.740809" lat="45.732444"><ele>2233.25</ele></trkpt>
   <trkpt lon="6.740708" lat="45.732496"><ele>2232.25</ele></trkpt>
   <trkpt lon="6.740767" lat="45.732567"><ele>2229.0</ele></trkpt>
   <trkpt lon="6.740680" lat="45.732642"><ele>2227.25</ele></trkpt>
   <trkpt lon="6.740693" lat="45.732699"><ele>2224.75</ele></trkpt>
   <trkpt lon="6.740696" lat="45.732778"><ele>2221.75</ele></trkpt>
   <trkpt lon="6.740613" lat="45.732856"><ele>2220.75</ele></trkpt>
   <trkpt lon="6.740588" lat="45.732910"><ele>2219.75</ele></trkpt>
   <trkpt lon="6.740622" lat="45.733013"><ele>2216.0</ele></trkpt>
   <trkpt lon="6.740647" lat="45.733162"><ele>2212.0</ele></trkpt>
   <trkpt lon="6.740729" lat="45.733394"><ele>2205.25</ele></trkpt>
   <trkpt lon="6.740722" lat="45.733494"><ele>2204.0</ele></trkpt>
   <trkpt lon="6.740780" lat="45.733569"><ele>2200.75</ele></trkpt>
   <trkpt lon="6.740773" lat="45.733662"><ele>2200.25</ele></trkpt>
   <trkpt lon="6.740830" lat="45.733698"><ele>2198.0</ele></trkpt>
   <trkpt lon="6.740915" lat="45.733704"><ele>2194.75</ele></trkpt>
   <trkpt lon="6.741004" lat="45.733671"><ele>2191.5</ele></trkpt>
   <trkpt lon="6.741121" lat="45.733613"><ele>2186.5</ele></trkpt>
   <trkpt lon="6.741267" lat="45.733566"><ele>2182.75</ele></trkpt>
   <trkpt lon="6.741576" lat="45.733426"><ele>2176.0</ele></trkpt>
   <trkpt lon="6.741672" lat="45.733436"><ele>2172.5</ele></trkpt>
   <trkpt lon="6.742159" lat="45.733312"><ele>2161.0</ele></trkpt>
   <trkpt lon="6.742306" lat="45.733319"><ele>2156.0</ele></trkpt>
   <trkpt lon="6.742657" lat="45.733269"><ele>2146.5</ele></trkpt>
   <trkpt lon="6.742771" lat="45.733221"><ele>2143.5</ele></trkpt>
   <trkpt lon="6.742953" lat="45.733161"><ele>2139.5</ele></trkpt>
   <trkpt lon="6.743182" lat="45.733119"><ele>2133.5</ele></trkpt>
   <trkpt lon="6.743448" lat="45.733088"><ele>2125.75</ele></trkpt>
   <trkpt lon="6.743564" lat="45.733022"><ele>2123.25</ele></trkpt>
   <trkpt lon="6.743665" lat="45.732995"><ele>2121.25</ele></trkpt>
   <trkpt lon="6.743808" lat="45.732992"><ele>2118.25</ele></trkpt>
   <trkpt lon="6.744175" lat="45.732998"><ele>2108.0</ele></trkpt>
   <trkpt lon="6.744422" lat="45.733009"><ele>2100.75</ele></trkpt>
   <trkpt lon="6.744532" lat="45.733003"><ele>2097.25</ele></trkpt>
   <trkpt lon="6.744696" lat="45.732952"><ele>2093.25</ele></trkpt>
   <trkpt lon="6.744993" lat="45.732937"><ele>2087.5</ele></trkpt>
   <trkpt lon="6.745196" lat="45.732899"><ele>2085.0</ele></trkpt>
   <trkpt lon="6.745435" lat="45.732874"><ele>2080.5</ele></trkpt>
   <trkpt lon="6.745545" lat="45.732807"><ele>2077.5</ele></trkpt>
   <trkpt lon="6.745680" lat="45.732637"><ele>2074.25</ele></trkpt>
   <trkpt lon="6.745784" lat="45.732587"><ele>2071.75</ele></trkpt>
   <trkpt lon="6.745986" lat="45.732555"><ele>2067.25</ele></trkpt>
   <trkpt lon="6.746160" lat="45.732503"><ele>2064.25</ele></trkpt>
   <trkpt lon="6.746440" lat="45.732460"><ele>2058.25</ele></trkpt>
   <trkpt lon="6.746545" lat="45.732407"><ele>2055.0</ele></trkpt>
   <trkpt lon="6.746718" lat="45.732357"><ele>2052.75</ele></trkpt>
   <trkpt lon="6.746819" lat="45.732371"><ele>2052.25</ele></trkpt>
   <trkpt lon="6.746972" lat="45.732416"><ele>2050.75</ele></trkpt>
   <trkpt lon="6.747156" lat="45.732454"><ele>2048.5</ele></trkpt>
   <trkpt lon="6.747580" lat="45.732431"><ele>2043.0</ele></trkpt>
   <trkpt lon="6.747688" lat="45.732399"><ele>2041.25</ele></trkpt>
   <trkpt lon="6.747821" lat="45.732368"><ele>2039.25</ele></trkpt>
   <trkpt lon="6.747964" lat="45.732385"><ele>2038.5</ele></trkpt>
   <trkpt lon="6.748126" lat="45.732372"><ele>2037.5</ele></trkpt>
   <trkpt lon="6.748241" lat="45.732414"><ele>2038.75</ele></trkpt>
   <trkpt lon="6.748366" lat="45.732350"><ele>2036.75</ele></trkpt>
   <trkpt lon="6.748446" lat="45.732157"><ele>2031.5</ele></trkpt>
   <trkpt lon="6.748504" lat="45.732115"><ele>2031.25</ele></trkpt>
   <trkpt lon="6.748599" lat="45.732067"><ele>2030.75</ele></trkpt>
   <trkpt lon="6.748711" lat="45.731994"><ele>2029.75</ele></trkpt>
   <trkpt lon="6.748830" lat="45.731900"><ele>2028.5</ele></trkpt>
   <trkpt lon="6.748843" lat="45.731753"><ele>2026.0</ele></trkpt>
   <trkpt lon="6.748982" lat="45.731576"><ele>2023.0</ele></trkpt>
   <trkpt lon="6.749159" lat="45.731529"><ele>2022.75</ele></trkpt>
   <trkpt lon="6.749307" lat="45.731297"><ele>2019.25</ele></trkpt>
   <trkpt lon="6.749457" lat="45.731193"><ele>2017.25</ele></trkpt>
   <trkpt lon="6.749530" lat="45.731166"><ele>2016.75</ele></trkpt>
   <trkpt lon="6.749600" lat="45.731172"><ele>2017.25</ele></trkpt>
   <trkpt lon="6.749607" lat="45.731135"><ele>2016.25</ele></trkpt>
   <trkpt lon="6.749710" lat="45.731083"><ele>2015.0</ele></trkpt>
   <trkpt lon="6.749818" lat="45.731052"><ele>2015.0</ele></trkpt>
   <trkpt lon="6.749897" lat="45.730986"><ele>2013.75</ele></trkpt>
   <trkpt lon="6.750065" lat="45.730900"><ele>2012.75</ele></trkpt>
   <trkpt lon="6.750201" lat="45.730854"><ele>2012.75</ele></trkpt>
   <trkpt lon="6.750304" lat="45.730784"><ele>2012.0</ele></trkpt>
   <trkpt lon="6.750794" lat="45.730519"><ele>2010.5</ele></trkpt>
   <trkpt lon="6.750902" lat="45.730490"><ele>2010.0</ele></trkpt>
   <trkpt lon="6.751293" lat="45.730429"><ele>2008.5</ele></trkpt>
   <trkpt lon="6.751865" lat="45.730195"><ele>2004.25</ele></trkpt>
   <trkpt lon="6.751975" lat="45.730177"><ele>2004.75</ele></trkpt>
   <trkpt lon="6.752147" lat="45.730113"><ele>2004.75</ele></trkpt>
   <trkpt lon="6.752234" lat="45.730056"><ele>2004.0</ele></trkpt>
   <trkpt lon="6.752732" lat="45.729847"><ele>2003.25</ele></trkpt>
   <trkpt lon="6.752834" lat="45.729833"><ele>2003.0</ele></trkpt>
   <trkpt lon="6.752970" lat="45.729844"><ele>2003.5</ele></trkpt>
   <trkpt lon="6.753118" lat="45.729818"><ele>2002.5</ele></trkpt>
   <trkpt lon="6.753220" lat="45.729792"><ele>2001.75</ele></trkpt>
   <trkpt lon="6.753370" lat="45.729788"><ele>2001.75</ele></trkpt>
   <trkpt lon="6.753728" lat="45.729704"><ele>1997.0</ele></trkpt>
   <trkpt lon="6.753908" lat="45.729711"><ele>1997.5</ele></trkpt>
   <trkpt lon="6.754256" lat="45.729621"><ele>1997.5</ele></trkpt>
   <trkpt lon="6.754324" lat="45.729579"><ele>1996.75</ele></trkpt>
   <trkpt lon="6.754382" lat="45.729532"><ele>1995.5</ele></trkpt>
   <trkpt lon="6.754472" lat="45.729515"><ele>1995.5</ele></trkpt>
   <trkpt lon="6.754567" lat="45.729521"><ele>1995.25</ele></trkpt>
   <trkpt lon="6.754968" lat="45.729629"><ele>1994.25</ele></trkpt>
   <trkpt lon="6.755120" lat="45.729706"><ele>1994.75</ele></trkpt>
   <trkpt lon="6.755389" lat="45.729787"><ele>1994.75</ele></trkpt>
   <trkpt lon="6.755570" lat="45.729800"><ele>1994.5</ele></trkpt>
   <trkpt lon="6.755731" lat="45.729790"><ele>1995.5</ele></trkpt>
   <trkpt lon="6.755742" lat="45.729704"><ele>1992.25</ele></trkpt>
   <trkpt lon="6.755920" lat="45.729619"><ele>1989.5</ele></trkpt>
   <trkpt lon="6.756114" lat="45.729546"><ele>1988.25</ele></trkpt>
   <trkpt lon="6.756141" lat="45.729546"><ele>1988.0</ele></trkpt>
   <trkpt lon="6.756599" lat="45.729359"><ele>1979.75</ele></trkpt>
   <trkpt lon="6.756884" lat="45.729268"><ele>1973.75</ele></trkpt>
   <trkpt lon="6.757206" lat="45.729227"><ele>1968.5</ele></trkpt>
   <trkpt lon="6.757498" lat="45.729236"><ele>1964.75</ele></trkpt>
   <trkpt lon="6.757969" lat="45.729125"><ele>1958.0</ele></trkpt>
   <trkpt lon="6.758606" lat="45.728997"><ele>1947.75</ele></trkpt>
   <trkpt lon="6.758999" lat="45.729006"><ele>1944.25</ele></trkpt>
   <trkpt lon="6.759538" lat="45.729034"><ele>1939.25</ele></trkpt>
   <trkpt lon="6.759861" lat="45.729026"><ele>1936.25</ele></trkpt>
   <trkpt lon="6.760261" lat="45.728982"><ele>1930.25</ele></trkpt>
   <trkpt lon="6.760410" lat="45.728976"><ele>1928.5</ele></trkpt>
   <trkpt lon="6.760557" lat="45.728898"><ele>1925.0</ele></trkpt>
   <trkpt lon="6.760645" lat="45.728822"><ele>1922.5</ele></trkpt>
   <trkpt lon="6.760693" lat="45.728707"><ele>1919.5</ele></trkpt>
   <trkpt lon="6.760733" lat="45.728643"><ele>1918.25</ele></trkpt>
   <trkpt lon="6.760787" lat="45.728622"><ele>1918.0</ele></trkpt>
   <trkpt lon="6.760843" lat="45.728618"><ele>1917.75</ele></trkpt>
   <trkpt lon="6.760950" lat="45.728650"><ele>1916.75</ele></trkpt>
   <trkpt lon="6.761009" lat="45.728684"><ele>1916.5</ele></trkpt>
   <trkpt lon="6.761086" lat="45.728660"><ele>1915.0</ele></trkpt>
   <trkpt lon="6.761256" lat="45.728426"><ele>1909.5</ele></trkpt>
   <trkpt lon="6.761415" lat="45.728285"><ele>1906.75</ele></trkpt>
   <trkpt lon="6.761505" lat="45.728218"><ele>1904.25</ele></trkpt>
   <trkpt lon="6.761536" lat="45.728142"><ele>1902.25</ele></trkpt>
   <trkpt lon="6.761532" lat="45.727989"><ele>1898.5</ele></trkpt>
   <trkpt lon="6.761539" lat="45.727844"><ele>1893.25</ele></trkpt>
   <trkpt lon="6.761563" lat="45.727796"><ele>1891.25</ele></trkpt>
   <trkpt lon="6.761687" lat="45.727756"><ele>1889.0</ele></trkpt>
   <trkpt lon="6.761653" lat="45.727682"><ele>1887.5</ele></trkpt>
   <trkpt lon="6.761747" lat="45.727633"><ele>1884.75</ele></trkpt>
   <trkpt lon="6.761854" lat="45.727643"><ele>1883.0</ele></trkpt>
   <trkpt lon="6.762224" lat="45.727768"><ele>1877.5</ele></trkpt>
   <trkpt lon="6.762452" lat="45.727753"><ele>1871.0</ele></trkpt>
   <trkpt lon="6.762591" lat="45.727773"><ele>1868.75</ele></trkpt>
   <trkpt lon="6.762817" lat="45.727712"><ele>1861.0</ele></trkpt>
   <trkpt lon="6.763040" lat="45.727701"><ele>1856.75</ele></trkpt>
   <trkpt lon="6.763270" lat="45.727650"><ele>1852.5</ele></trkpt>
   <trkpt lon="6.763461" lat="45.727544"><ele>1846.5</ele></trkpt>
   <trkpt lon="6.763549" lat="45.727485"><ele>1844.0</ele></trkpt>
   <trkpt lon="6.763677" lat="45.727467"><ele>1842.5</ele></trkpt>
   <trkpt lon="6.763726" lat="45.727444"><ele>1841.5</ele></trkpt>
   <trkpt lon="6.763792" lat="45.727442"><ele>1841.0</ele></trkpt>
   <trkpt lon="6.763931" lat="45.727450"><ele>1840.25</ele></trkpt>
   <trkpt lon="6.764343" lat="45.727417"><ele>1837.5</ele></trkpt>
   <trkpt lon="6.764515" lat="45.727426"><ele>1836.5</ele></trkpt>
   <trkpt lon="6.764654" lat="45.727443"><ele>1835.0</ele></trkpt>
   <trkpt lon="6.764796" lat="45.727474"><ele>1833.5</ele></trkpt>
   <trkpt lon="6.764927" lat="45.727548"><ele>1833.0</ele></trkpt>
   <trkpt lon="6.765076" lat="45.727654"><ele>1831.25</ele></trkpt>
   <trkpt lon="6.765262" lat="45.727828"><ele>1829.75</ele></trkpt>
   <trkpt lon="6.765701" lat="45.728193"><ele>1825.25</ele></trkpt>
   <trkpt lon="6.765875" lat="45.728306"><ele>1823.0</ele></trkpt>
   <trkpt lon="6.766069" lat="45.728482"><ele>1821.0</ele></trkpt>
   <trkpt lon="6.766127" lat="45.728549"><ele>1820.5</ele></trkpt>
   <trkpt lon="6.766189" lat="45.728569"><ele>1819.75</ele></trkpt>
   <trkpt lon="6.766226" lat="45.728543"><ele>1818.5</ele></trkpt>
   <trkpt lon="6.766231" lat="45.728509"><ele>1818.0</ele></trkpt>
   <trkpt lon="6.766162" lat="45.728406"><ele>1817.25</ele></trkpt>
   <trkpt lon="6.766191" lat="45.728384"><ele>1816.25</ele></trkpt>
   <trkpt lon="6.766291" lat="45.728158"><ele>1810.25</ele></trkpt>
   <trkpt lon="6.766336" lat="45.728075"><ele>1808.0</ele></trkpt>
   <trkpt lon="6.766331" lat="45.728015"><ele>1807.0</ele></trkpt>
   <trkpt lon="6.766380" lat="45.727926"><ele>1804.75</ele></trkpt>
   <trkpt lon="6.766520" lat="45.727991"><ele>1803.75</ele></trkpt>
   <trkpt lon="6.766584" lat="45.728004"><ele>1803.25</ele></trkpt>
   <trkpt lon="6.766648" lat="45.727993"><ele>1802.0</ele></trkpt>
   <trkpt lon="6.766674" lat="45.727956"><ele>1801.0</ele></trkpt>
   <trkpt lon="6.766648" lat="45.727874"><ele>1800.0</ele></trkpt>
   <trkpt lon="6.766604" lat="45.727796"><ele>1799.0</ele></trkpt>
   <trkpt lon="6.766600" lat="45.727725"><ele>1798.5</ele></trkpt>
   <trkpt lon="6.766671" lat="45.727631"><ele>1796.75</ele></trkpt>
   <trkpt lon="6.766876" lat="45.727551"><ele>1793.75</ele></trkpt>
   <trkpt lon="6.766977" lat="45.727610"><ele>1793.0</ele></trkpt>
   <trkpt lon="6.767059" lat="45.727544"><ele>1792.25</ele></trkpt>
   <trkpt lon="6.767106" lat="45.727520"><ele>1791.75</ele></trkpt>
   <trkpt lon="6.767166" lat="45.727488"><ele>1791.25</ele></trkpt>
   <trkpt lon="6.767347" lat="45.727418"><ele>1789.5</ele></trkpt>
   <trkpt lon="6.767377" lat="45.727438"><ele>1789.25</ele></trkpt>
   <trkpt lon="6.767454" lat="45.727445"><ele>1788.5</ele></trkpt>
   <trkpt lon="6.767519" lat="45.727443"><ele>1787.75</ele></trkpt>
   <trkpt lon="6.767561" lat="45.727459"><ele>1787.25</ele></trkpt>
   <trkpt lon="6.767607" lat="45.727468"><ele>1786.5</ele></trkpt>
   <trkpt lon="6.767666" lat="45.727466"><ele>1785.5</ele></trkpt>
   <trkpt lon="6.767793" lat="45.727448"><ele>1783.75</ele></trkpt>
   <trkpt lon="6.768070" lat="45.727393"><ele>1780.0</ele></trkpt>
   <trkpt lon="6.768246" lat="45.727335"><ele>1778.0</ele></trkpt>
   <trkpt lon="6.768474" lat="45.727279"><ele>1776.5</ele></trkpt>
   <trkpt lon="6.768710" lat="45.727244"><ele>1773.75</ele></trkpt>
   <trkpt lon="6.768821" lat="45.727242"><ele>1771.5</ele></trkpt>
   <trkpt lon="6.768962" lat="45.727257"><ele>1771.5</ele></trkpt>
   <trkpt lon="6.769054" lat="45.727270"><ele>1773.5</ele></trkpt>
   <trkpt lon="6.769030" lat="45.727315"><ele>1773.0</ele></trkpt>
   <trkpt lon="6.769043" lat="45.727382"><ele>1773.5</ele></trkpt>
   <trkpt lon="6.769080" lat="45.727445"><ele>1774.25</ele></trkpt>
   <trkpt lon="6.769316" lat="45.727710"><ele>1778.0</ele></trkpt>
   <trkpt lon="6.769458" lat="45.727830"><ele>1779.75</ele></trkpt>
   <trkpt lon="6.769623" lat="45.727942"><ele>1783.5</ele></trkpt>
   <trkpt lon="6.769634" lat="45.727980"><ele>1783.5</ele></trkpt>
   <trkpt lon="6.769592" lat="45.728102"><ele>1782.75</ele></trkpt>
   <trkpt lon="6.769593" lat="45.728171"><ele>1783.25</ele></trkpt>
   <trkpt lon="6.769605" lat="45.728220"><ele>1783.75</ele></trkpt>
   <trkpt lon="6.769651" lat="45.728292"><ele>1785.5</ele></trkpt>
   <trkpt lon="6.769734" lat="45.728384"><ele>1788.5</ele></trkpt>
   <trkpt lon="6.769762" lat="45.728429"><ele>1789.5</ele></trkpt>
   <trkpt lon="6.769791" lat="45.728617"><ele>1791.0</ele></trkpt>
   <trkpt lon="6.769839" lat="45.728701"><ele>1790.75</ele></trkpt>
   <trkpt lon="6.769913" lat="45.728795"><ele>1791.5</ele></trkpt>
   <trkpt lon="6.770163" lat="45.728966"><ele>1795.25</ele></trkpt>
   <trkpt lon="6.770561" lat="45.729210"><ele>1799.75</ele></trkpt>
   <trkpt lon="6.770666" lat="45.729311"><ele>1800.75</ele></trkpt>
   <trkpt lon="6.770724" lat="45.729394"><ele>1801.0</ele></trkpt>
   <trkpt lon="6.770822" lat="45.729496"><ele>1801.25</ele></trkpt>
   <trkpt lon="6.770975" lat="45.729625"><ele>1803.25</ele></trkpt>
   <trkpt lon="6.771097" lat="45.729703"><ele>1804.75</ele></trkpt>
   <trkpt lon="6.771190" lat="45.729748"><ele>1805.75</ele></trkpt>
   <trkpt lon="6.771264" lat="45.729800"><ele>1806.5</ele></trkpt>
   <trkpt lon="6.771333" lat="45.729892"><ele>1807.25</ele></trkpt>
   <trkpt lon="6.771395" lat="45.729953"><ele>1808.0</ele></trkpt>
   <trkpt lon="6.771460" lat="45.729995"><ele>1808.75</ele></trkpt>
   <trkpt lon="6.771561" lat="45.730027"><ele>1808.5</ele></trkpt>
   <trkpt lon="6.771687" lat="45.730036"><ele>1809.5</ele></trkpt>
   <trkpt lon="6.771878" lat="45.730026"><ele>1812.25</ele></trkpt>
   <trkpt lon="6.772017" lat="45.730040"><ele>1813.25</ele></trkpt>
   <trkpt lon="6.772348" lat="45.730032"><ele>1816.75</ele></trkpt>
   <trkpt lon="6.772463" lat="45.730052"><ele>1817.5</ele></trkpt>
   <trkpt lon="6.772556" lat="45.730077"><ele>1818.25</ele></trkpt>
   <trkpt lon="6.772592" lat="45.730094"><ele>1818.5</ele></trkpt>
   <trkpt lon="6.772620" lat="45.730120"><ele>1818.75</ele></trkpt>
   <trkpt lon="6.772689" lat="45.730179"><ele>1818.75</ele></trkpt>
   <trkpt lon="6.772744" lat="45.730214"><ele>1819.25</ele></trkpt>
   <trkpt lon="6.772883" lat="45.730255"><ele>1821.0</ele></trkpt>
   <trkpt lon="6.772932" lat="45.730286"><ele>1821.75</ele></trkpt>
   <trkpt lon="6.772996" lat="45.730353"><ele>1822.75</ele></trkpt>
   <trkpt lon="6.773081" lat="45.730422"><ele>1823.75</ele></trkpt>
   <trkpt lon="6.773276" lat="45.730548"><ele>1825.25</ele></trkpt>
   <trkpt lon="6.773378" lat="45.730697"><ele>1827.0</ele></trkpt>
   <trkpt lon="6.773524" lat="45.730828"><ele>1829.5</ele></trkpt>
   <trkpt lon="6.773626" lat="45.730893"><ele>1830.5</ele></trkpt>
   <trkpt lon="6.773813" lat="45.730989"><ele>1832.0</ele></trkpt>
   <trkpt lon="6.774282" lat="45.731284"><ele>1835.25</ele></trkpt>
   <trkpt lon="6.774459" lat="45.731371"><ele>1837.25</ele></trkpt>
   <trkpt lon="6.774605" lat="45.731472"><ele>1839.25</ele></trkpt>
   <trkpt lon="6.774665" lat="45.731535"><ele>1840.0</ele></trkpt>
   <trkpt lon="6.774809" lat="45.731801"><ele>1842.5</ele></trkpt>
   <trkpt lon="6.774992" lat="45.732112"><ele>1845.75</ele></trkpt>
   <trkpt lon="6.775066" lat="45.732194"><ele>1846.75</ele></trkpt>
   <trkpt lon="6.775561" lat="45.732509"><ele>1852.75</ele></trkpt>
   <trkpt lon="6.775710" lat="45.732596"><ele>1853.25</ele></trkpt>
   <trkpt lon="6.775806" lat="45.732631"><ele>1853.75</ele></trkpt>
   <trkpt lon="6.775941" lat="45.732657"><ele>1855.75</ele></trkpt>
   <trkpt lon="6.776015" lat="45.732663"><ele>1857.0</ele></trkpt>
   <trkpt lon="6.776046" lat="45.732685"><ele>1857.25</ele></trkpt>
   <trkpt lon="6.776070" lat="45.732708"><ele>1857.25</ele></trkpt>
   <trkpt lon="6.776098" lat="45.732758"><ele>1857.0</ele></trkpt>
   <trkpt lon="6.776164" lat="45.732809"><ele>1857.25</ele></trkpt>
   <trkpt lon="6.776516" lat="45.733032"><ele>1859.0</ele></trkpt>
   <trkpt lon="6.776658" lat="45.733130"><ele>1860.0</ele></trkpt>
   <trkpt lon="6.776735" lat="45.733222"><ele>1860.25</ele></trkpt>
   <trkpt lon="6.776790" lat="45.733273"><ele>1860.5</ele></trkpt>
   <trkpt lon="6.776841" lat="45.733309"><ele>1860.75</ele></trkpt>
   <trkpt lon="6.777012" lat="45.733394"><ele>1862.25</ele></trkpt>
   <trkpt lon="6.777134" lat="45.733494"><ele>1863.25</ele></trkpt>
   <trkpt lon="6.777202" lat="45.733602"><ele>1863.5</ele></trkpt>
   <trkpt lon="6.777250" lat="45.733819"><ele>1864.5</ele></trkpt>
   <trkpt lon="6.777330" lat="45.733951"><ele>1866.25</ele></trkpt>
   <trkpt lon="6.777373" lat="45.734053"><ele>1866.75</ele></trkpt>
   <trkpt lon="6.777446" lat="45.734181"><ele>1867.75</ele></trkpt>
   <trkpt lon="6.777467" lat="45.734325"><ele>1867.75</ele></trkpt>
   <trkpt lon="6.777500" lat="45.734373"><ele>1868.25</ele></trkpt>
   <trkpt lon="6.777590" lat="45.734435"><ele>1869.75</ele></trkpt>
   <trkpt lon="6.777643" lat="45.734485"><ele>1870.75</ele></trkpt>
   <trkpt lon="6.777850" lat="45.734818"><ele>1872.25</ele></trkpt>
   <trkpt lon="6.777997" lat="45.734958"><ele>1872.75</ele></trkpt>
   <trkpt lon="6.778023" lat="45.734991"><ele>1872.75</ele></trkpt>
   <trkpt lon="6.778029" lat="45.735011"><ele>1872.25</ele></trkpt>
   <trkpt lon="6.778079" lat="45.735030"><ele>1871.75</ele></trkpt>
   <trkpt lon="6.778141" lat="45.735037"><ele>1871.75</ele></trkpt>
   <trkpt lon="6.778312" lat="45.735040"><ele>1872.25</ele></trkpt>
   <trkpt lon="6.778355" lat="45.735047"><ele>1872.25</ele></trkpt>
   <trkpt lon="6.778424" lat="45.735073"><ele>1871.5</ele></trkpt>
   <trkpt lon="6.778517" lat="45.735079"><ele>1871.75</ele></trkpt>
   <trkpt lon="6.778458" lat="45.735139"><ele>1870.5</ele></trkpt>
   <trkpt lon="6.778491" lat="45.735253"><ele>1869.25</ele></trkpt>
   <trkpt lon="6.778380" lat="45.735369"><ele>1869.0</ele></trkpt>
   <trkpt lon="6.778248" lat="45.735462"><ele>1869.75</ele></trkpt>
   <trkpt lon="6.778210" lat="45.735528"><ele>1871.25</ele></trkpt>
   <trkpt lon="6.778194" lat="45.735567"><ele>1871.75</ele></trkpt>
   <trkpt lon="6.778203" lat="45.735592"><ele>1872.0</ele></trkpt>
   <trkpt lon="6.778199" lat="45.735610"><ele>1871.75</ele></trkpt>
   <trkpt lon="6.778180" lat="45.735639"><ele>1871.5</ele></trkpt>
   <trkpt lon="6.778188" lat="45.735755"><ele>1871.5</ele></trkpt>
   <trkpt lon="6.778205" lat="45.735803"><ele>1871.5</ele></trkpt>
   <trkpt lon="6.778257" lat="45.735824"><ele>1872.5</ele></trkpt>
   <trkpt lon="6.778356" lat="45.735826"><ele>1874.25</ele></trkpt>
   <trkpt lon="6.778417" lat="45.735861"><ele>1874.75</ele></trkpt>
   <trkpt lon="6.778465" lat="45.735875"><ele>1875.5</ele></trkpt>
   <trkpt lon="6.778524" lat="45.735882"><ele>1876.5</ele></trkpt>
   <trkpt lon="6.778636" lat="45.735983"><ele>1877.25</ele></trkpt>
   <trkpt lon="6.778765" lat="45.736009"><ele>1879.75</ele></trkpt>
   <trkpt lon="6.778811" lat="45.736025"><ele>1880.5</ele></trkpt>
   <trkpt lon="6.778848" lat="45.736049"><ele>1881.0</ele></trkpt>
   <trkpt lon="6.778923" lat="45.736118"><ele>1881.25</ele></trkpt>
   <trkpt lon="6.778951" lat="45.736121"><ele>1881.5</ele></trkpt>
   <trkpt lon="6.779032" lat="45.736110"><ele>1883.0</ele></trkpt>
   <trkpt lon="6.779075" lat="45.736118"><ele>1883.25</ele></trkpt>
   <trkpt lon="6.779094" lat="45.736114"><ele>1883.75</ele></trkpt>
   <trkpt lon="6.779314" lat="45.736167"><ele>1885.0</ele></trkpt>
   <trkpt lon="6.779362" lat="45.736172"><ele>1885.5</ele></trkpt>
   <trkpt lon="6.779395" lat="45.736165"><ele>1886.0</ele></trkpt>
   <trkpt lon="6.779410" lat="45.736142"><ele>1887.25</ele></trkpt>
   <trkpt lon="6.779402" lat="45.736125"><ele>1887.75</ele></trkpt>
   <trkpt lon="6.779367" lat="45.736095"><ele>1888.25</ele></trkpt>
   <trkpt lon="6.779308" lat="45.735973"><ele>1891.0</ele></trkpt>
   <trkpt lon="6.779298" lat="45.735930"><ele>1892.0</ele></trkpt>
   <trkpt lon="6.779296" lat="45.735828"><ele>1894.75</ele></trkpt>
   <trkpt lon="6.779241" lat="45.735698"><ele>1896.5</ele></trkpt>
   <trkpt lon="6.779225" lat="45.735648"><ele>1897.25</ele></trkpt>
   <trkpt lon="6.779207" lat="45.735558"><ele>1898.75</ele></trkpt>
   <trkpt lon="6.779171" lat="45.735494"><ele>1897.0</ele></trkpt>
   <trkpt lon="6.779178" lat="45.735465"><ele>1896.5</ele></trkpt>
   <trkpt lon="6.779214" lat="45.735459"><ele>1897.75</ele></trkpt>
   <trkpt lon="6.779233" lat="45.735465"><ele>1898.5</ele></trkpt>
   <trkpt lon="6.779305" lat="45.735534"><ele>1901.25</ele></trkpt>
   <trkpt lon="6.779327" lat="45.735544"><ele>1901.75</ele></trkpt>
   <trkpt lon="6.779666" lat="45.735648"><ele>1907.25</ele></trkpt>
   <trkpt lon="6.779749" lat="45.735687"><ele>1908.25</ele></trkpt>
   <trkpt lon="6.779835" lat="45.735716"><ele>1909.75</ele></trkpt>
   <trkpt lon="6.779882" lat="45.735742"><ele>1910.5</ele></trkpt>
   <trkpt lon="6.779991" lat="45.735822"><ele>1911.75</ele></trkpt>
   <trkpt lon="6.780058" lat="45.735921"><ele>1913.25</ele></trkpt>
   <trkpt lon="6.780130" lat="45.735981"><ele>1914.5</ele></trkpt>
   <trkpt lon="6.780182" lat="45.736001"><ele>1915.25</ele></trkpt>
   <trkpt lon="6.780223" lat="45.736009"><ele>1916.0</ele></trkpt>
   <trkpt lon="6.780289" lat="45.736009"><ele>1917.0</ele></trkpt>
   <trkpt lon="6.780477" lat="45.736032"><ele>1919.0</ele></trkpt>
   <trkpt lon="6.780580" lat="45.736081"><ele>1919.25</ele></trkpt>
   <trkpt lon="6.780620" lat="45.736115"><ele>1919.5</ele></trkpt>
   <trkpt lon="6.780707" lat="45.736211"><ele>1920.75</ele></trkpt>
   <trkpt lon="6.780912" lat="45.736318"><ele>1924.25</ele></trkpt>
   <trkpt lon="6.781026" lat="45.736396"><ele>1926.0</ele></trkpt>
   <trkpt lon="6.781168" lat="45.736467"><ele>1928.25</ele></trkpt>
   <trkpt lon="6.781222" lat="45.736507"><ele>1929.0</ele></trkpt>
   <trkpt lon="6.781278" lat="45.736564"><ele>1929.5</ele></trkpt>
   <trkpt lon="6.781324" lat="45.736599"><ele>1930.25</ele></trkpt>
   <trkpt lon="6.781358" lat="45.736615"><ele>1930.75</ele></trkpt>
   <trkpt lon="6.781389" lat="45.736617"><ele>1931.5</ele></trkpt>
   <trkpt lon="6.781417" lat="45.736607"><ele>1931.5</ele></trkpt>
   <trkpt lon="6.781423" lat="45.736546"><ele>1932.5</ele></trkpt>
   <trkpt lon="6.781415" lat="45.736496"><ele>1933.25</ele></trkpt>
   <trkpt lon="6.781431" lat="45.736394"><ele>1935.25</ele></trkpt>
   <trkpt lon="6.781429" lat="45.736337"><ele>1936.75</ele></trkpt>
   <trkpt lon="6.781369" lat="45.736203"><ele>1938.5</ele></trkpt>
   <trkpt lon="6.781345" lat="45.736098"><ele>1940.25</ele></trkpt>
   <trkpt lon="6.781339" lat="45.735931"><ele>1943.25</ele></trkpt>
   <trkpt lon="6.781329" lat="45.735869"><ele>1943.75</ele></trkpt>
   <trkpt lon="6.781276" lat="45.735663"><ele>1946.75</ele></trkpt>
   <trkpt lon="6.781271" lat="45.735553"><ele>1949.5</ele></trkpt>
   <trkpt lon="6.781235" lat="45.735437"><ele>1951.75</ele></trkpt>
   <trkpt lon="6.781174" lat="45.735294"><ele>1954.0</ele></trkpt>
   <trkpt lon="6.781161" lat="45.735188"><ele>1955.0</ele></trkpt>
   <trkpt lon="6.781165" lat="45.735126"><ele>1955.75</ele></trkpt>
   <trkpt lon="6.781180" lat="45.735072"><ele>1956.75</ele></trkpt>
   <trkpt lon="6.781208" lat="45.735015"><ele>1958.25</ele></trkpt>
   <trkpt lon="6.781243" lat="45.734990"><ele>1959.25</ele></trkpt>
   <trkpt lon="6.781271" lat="45.734985"><ele>1960.0</ele></trkpt>
   <trkpt lon="6.781299" lat="45.734995"><ele>1960.75</ele></trkpt>
   <trkpt lon="6.781325" lat="45.735023"><ele>1961.0</ele></trkpt>
   <trkpt lon="6.781362" lat="45.735111"><ele>1961.0</ele></trkpt>
   <trkpt lon="6.781465" lat="45.735206"><ele>1963.5</ele></trkpt>
   <trkpt lon="6.781834" lat="45.735624"><ele>1971.75</ele></trkpt>
   <trkpt lon="6.782000" lat="45.735767"><ele>1973.75</ele></trkpt>
   <trkpt lon="6.782158" lat="45.735868"><ele>1975.0</ele></trkpt>
   <trkpt lon="6.782186" lat="45.735880"><ele>1975.5</ele></trkpt>
   <trkpt lon="6.782208" lat="45.735878"><ele>1976.25</ele></trkpt>
   <trkpt lon="6.782216" lat="45.735863"><ele>1977.0</ele></trkpt>
   <trkpt lon="6.782068" lat="45.735698"><ele>1979.0</ele></trkpt>
   <trkpt lon="6.782034" lat="45.735571"><ele>1982.5</ele></trkpt>
   <trkpt lon="6.782022" lat="45.735412"><ele>1984.5</ele></trkpt>
   <trkpt lon="6.782069" lat="45.735140"><ele>1990.25</ele></trkpt>
   <trkpt lon="6.782067" lat="45.734953"><ele>1992.75</ele></trkpt>
   <trkpt lon="6.781965" lat="45.734753"><ele>1993.75</ele></trkpt>
   <trkpt lon="6.781965" lat="45.734724"><ele>1994.75</ele></trkpt>
   <trkpt lon="6.781976" lat="45.734711"><ele>1994.5</ele></trkpt>
   <trkpt lon="6.781994" lat="45.734705"><ele>1994.75</ele></trkpt>
   <trkpt lon="6.782025" lat="45.734717"><ele>1996.75</ele></trkpt>
   <trkpt lon="6.782123" lat="45.734807"><ele>1999.0</ele></trkpt>
   <trkpt lon="6.782150" lat="45.734807"><ele>2000.0</ele></trkpt>
   <trkpt lon="6.782167" lat="45.734796"><ele>2001.0</ele></trkpt>
   <trkpt lon="6.782166" lat="45.734779"><ele>2001.25</ele></trkpt>
   <trkpt lon="6.782125" lat="45.734676"><ele>1998.75</ele></trkpt>
   <trkpt lon="6.782133" lat="45.734660"><ele>1998.25</ele></trkpt>
   <trkpt lon="6.782152" lat="45.734659"><ele>1999.25</ele></trkpt>
   <trkpt lon="6.782179" lat="45.734671"><ele>2001.0</ele></trkpt>
   <trkpt lon="6.782237" lat="45.734732"><ele>2005.25</ele></trkpt>
   <trkpt lon="6.782291" lat="45.734803"><ele>2005.75</ele></trkpt>
   <trkpt lon="6.782313" lat="45.734816"><ele>2006.5</ele></trkpt>
   <trkpt lon="6.782340" lat="45.734817"><ele>2007.5</ele></trkpt>
   <trkpt lon="6.782353" lat="45.734804"><ele>2008.25</ele></trkpt>
   <trkpt lon="6.782333" lat="45.734730"><ele>2008.25</ele></trkpt>
   <trkpt lon="6.782351" lat="45.734715"><ele>2008.75</ele></trkpt>
   <trkpt lon="6.782382" lat="45.734712"><ele>2009.75</ele></trkpt>
   <trkpt lon="6.782455" lat="45.734750"><ele>2012.25</ele></trkpt>
   <trkpt lon="6.782511" lat="45.734830"><ele>2014.5</ele></trkpt>
   <trkpt lon="6.782536" lat="45.735004"><ele>2015.75</ele></trkpt>
   <trkpt lon="6.782582" lat="45.735132"><ele>2016.5</ele></trkpt>
   <trkpt lon="6.782597" lat="45.735150"><ele>2017.0</ele></trkpt>
   <trkpt lon="6.782640" lat="45.735147"><ele>2019.0</ele></trkpt>
   <trkpt lon="6.782658" lat="45.735042"><ele>2021.25</ele></trkpt>
   <trkpt lon="6.782681" lat="45.734991"><ele>2023.0</ele></trkpt>
   <trkpt lon="6.782705" lat="45.734957"><ele>2024.0</ele></trkpt>
   <trkpt lon="6.782800" lat="45.734864"><ele>2027.5</ele></trkpt>
   <trkpt lon="6.782812" lat="45.734834"><ele>2027.5</ele></trkpt>
   <trkpt lon="6.782800" lat="45.734771"><ele>2026.5</ele></trkpt>
   <trkpt lon="6.782806" lat="45.734754"><ele>2026.5</ele></trkpt>
   <trkpt lon="6.782848" lat="45.734749"><ele>2027.0</ele></trkpt>
   <trkpt lon="6.782922" lat="45.734858"><ele>2030.75</ele></trkpt>
   <trkpt lon="6.782916" lat="45.734890"><ele>2031.25</ele></trkpt>
   <trkpt lon="6.783007" lat="45.734822"><ele>2031.75</ele></trkpt>
   <trkpt lon="6.783627" lat="45.734826"><ele>2035.75</ele></trkpt>
   <trkpt lon="6.783562" lat="45.734714"><ele>2028.5</ele></trkpt>
   <trkpt lon="6.783917" lat="45.734553"><ele>2019.75</ele></trkpt>
   <trkpt lon="6.784032" lat="45.734406"><ele>2014.5</ele></trkpt>
   <trkpt lon="6.784379" lat="45.734228"><ele>2011.5</ele></trkpt>
   <trkpt lon="6.784493" lat="45.734149"><ele>2010.0</ele></trkpt>
   <trkpt lon="6.784623" lat="45.734092"><ele>2012.5</ele></trkpt>
   <trkpt lon="6.784718" lat="45.734083"><ele>2014.25</ele></trkpt>
   <trkpt lon="6.784685" lat="45.733949"><ele>2011.5</ele></trkpt>
   <trkpt lon="6.784636" lat="45.733937"><ele>2010.5</ele></trkpt>
   <trkpt lon="6.784575" lat="45.733922"><ele>2009.75</ele></trkpt>
   <trkpt lon="6.784518" lat="45.733895"><ele>2008.75</ele></trkpt>
   <trkpt lon="6.784413" lat="45.733732"><ele>2016.25</ele></trkpt>
   <trkpt lon="6.784468" lat="45.733698"><ele>2019.25</ele></trkpt>
   <trkpt lon="6.784490" lat="45.733604"><ele>2025.25</ele></trkpt>
   <trkpt lon="6.784235" lat="45.733301"><ele>2030.5</ele></trkpt>
   <trkpt lon="6.784094" lat="45.733214"><ele>2031.0</ele></trkpt>
   <trkpt lon="6.784075" lat="45.733179"><ele>2032.75</ele></trkpt>
   <trkpt lon="6.784123" lat="45.733172"><ele>2033.5</ele></trkpt>
   <trkpt lon="6.784130" lat="45.733141"><ele>2035.25</ele></trkpt>
   <trkpt lon="6.784033" lat="45.733049"><ele>2038.75</ele></trkpt>
   <trkpt lon="6.783944" lat="45.732985"><ele>2041.5</ele></trkpt>
   <trkpt lon="6.783912" lat="45.732939"><ele>2043.75</ele></trkpt>
   <trkpt lon="6.783768" lat="45.732893"><ele>2046.0</ele></trkpt>
   <trkpt lon="6.783590" lat="45.732865"><ele>2047.75</ele></trkpt>
   <trkpt lon="6.783267" lat="45.732850"><ele>2048.0</ele></trkpt>
   <trkpt lon="6.783369" lat="45.732763"><ele>2054.25</ele></trkpt>
   <trkpt lon="6.783382" lat="45.732700"><ele>2056.25</ele></trkpt>
   <trkpt lon="6.783340" lat="45.732609"><ele>2058.25</ele></trkpt>
   <trkpt lon="6.783281" lat="45.732345"><ele>2067.0</ele></trkpt>
   <trkpt lon="6.783201" lat="45.732245"><ele>2069.5</ele></trkpt>
   <trkpt lon="6.783085" lat="45.732070"><ele>2072.75</ele></trkpt>
   <trkpt lon="6.782969" lat="45.731932"><ele>2074.75</ele></trkpt>
   <trkpt lon="6.782871" lat="45.731847"><ele>2075.0</ele></trkpt>
   <trkpt lon="6.782759" lat="45.731697"><ele>2076.25</ele></trkpt>
   <trkpt lon="6.782721" lat="45.731591"><ele>2078.0</ele></trkpt>
   <trkpt lon="6.782581" lat="45.731457"><ele>2075.75</ele></trkpt>
   <trkpt lon="6.782512" lat="45.731282"><ele>2079.5</ele></trkpt>
   <trkpt lon="6.782469" lat="45.731015"><ele>2091.25</ele></trkpt>
   <trkpt lon="6.782572" lat="45.731023"><ele>2096.75</ele></trkpt>
   <trkpt lon="6.782641" lat="45.731056"><ele>2100.0</ele></trkpt>
   <trkpt lon="6.782670" lat="45.731029"><ele>2102.75</ele></trkpt>
   <trkpt lon="6.782611" lat="45.730989"><ele>2100.75</ele></trkpt>
   <trkpt lon="6.782601" lat="45.730916"><ele>2103.25</ele></trkpt>
   <trkpt lon="6.782606" lat="45.730861"><ele>2105.75</ele></trkpt>
   <trkpt lon="6.782546" lat="45.730804"><ele>2106.25</ele></trkpt>
   <trkpt lon="6.782518" lat="45.730679"><ele>2109.75</ele></trkpt>
   <trkpt lon="6.782467" lat="45.730555"><ele>2112.5</ele></trkpt>
  </trkseg>
  </trk>
</gpx>
