<?xml version="1.0" encoding="UTF-8"?>
<gpx xmlns="http://www.topografix.com/GPX/1/1" xmlns:xsi="http://www.w3.org/2001/XMLSchema-instance" xsi:schemaLocation="http://www.topografix.com/GPX/1/1 http://www.topografix.com/GPX/1/1/gpx.xsd" version="1.1" creator="tmb2027 build-gpx (BRouter hiking-mountain)">
  <metadata>
    <name>TMB 2027 Day 12 · La Flégère → Le Brévent → Refuge de Bellachat → Chamonix</name>
    <desc>라 플레제르 → 르 브레방 → 벨라샤 → 샤모니 · 경유 3지점 · 참고용 산길 경로. 실제 길 찾기는 공식 지도·현장 표지 우선.</desc>
    <copyright author="OpenStreetMap contributors"><license>https://www.openstreetmap.org/copyright</license></copyright>
    <link href="https://brouter.de/"><text>Routing: BRouter hiking-mountain</text></link>
    <time>2026-09-18T00:00:00Z</time>
  </metadata>
  <wpt lat="45.955" lon="6.887"><ele>1877</ele><name>Refuge de la Flégère</name><type>lodging</type></wpt>
  <wpt lat="45.934" lon="6.858"><ele>2000</ele><name>Planpraz</name><type>waypoint</type></wpt>
  <wpt lat="45.936" lon="6.838"><ele>2525</ele><name>Le Brévent</name><type>pass</type></wpt>
  <wpt lat="45.917" lon="6.832"><ele>2152</ele><name>Refuge de Bellachat</name><type>waypoint</type></wpt>
  <wpt lat="45.924" lon="6.869"><ele>1035</ele><name>Chamonix-Mont-Blanc</name><type>finish</type></wpt>
  <trk>
    <name>TMB 2027 Day 12 · La Flégère → Le Brévent → Refuge de Bellachat → Chamonix</name>
    <trkseg>
   <trkpt lon="6.886752" lat="45.955144"><ele>1579.5</ele></trkpt>
   <trkpt lon="6.886727" lat="45.955124"><ele>1579.25</ele></trkpt>
   <trkpt lon="6.886667" lat="45.955120"><ele>1581.25</ele></trkpt>
   <trkpt lon="6.886607" lat="45.955126"><ele>1582.5</ele></trkpt>
   <trkpt lon="6.886493" lat="45.955102"><ele>1582.75</ele></trkpt>
   <trkpt lon="6.886428" lat="45.955012"><ele>1578.0</ele></trkpt>
   <trkpt lon="6.886350" lat="45.954972"><ele>1576.5</ele></trkpt>
   <trkpt lon="6.886229" lat="45.955006"><ele>1580.0</ele></trkpt>
   <trkpt lon="6.885874" lat="45.954892"><ele>1576.5</ele></trkpt>
   <trkpt lon="6.885520" lat="45.954716"><ele>1569.0</ele></trkpt>
   <trkpt lon="6.885280" lat="45.954657"><ele>1568.5</ele></trkpt>
   <trkpt lon="6.885139" lat="45.954586"><ele>1565.75</ele></trkpt>
   <trkpt lon="6.884984" lat="45.954430"><ele>1558.25</ele></trkpt>
   <trkpt lon="6.884823" lat="45.954300"><ele>1554.25</ele></trkpt>
   <trkpt lon="6.884429" lat="45.954131"><ele>1554.25</ele></trkpt>
   <trkpt lon="6.884276" lat="45.954023"><ele>1551.75</ele></trkpt>
   <trkpt lon="6.884222" lat="45.953887"><ele>1545.5</ele></trkpt>
   <trkpt lon="6.884028" lat="45.953843"><ele>1546.75</ele></trkpt>
   <trkpt lon="6.884070" lat="45.953800"><ele>1543.5</ele></trkpt>
   <trkpt lon="6.883975" lat="45.953750"><ele>1542.25</ele></trkpt>
   <trkpt lon="6.884200" lat="45.953726"><ele>1536.75</ele></trkpt>
   <trkpt lon="6.884239" lat="45.953685"><ele>1533.75</ele></trkpt>
   <trkpt lon="6.883907" lat="45.953572"><ele>1533.25</ele></trkpt>
   <trkpt lon="6.883868" lat="45.953566"><ele>1533.75</ele></trkpt>
   <trkpt lon="6.883788" lat="45.953534"><ele>1533.5</ele></trkpt>
   <trkpt lon="6.883630" lat="45.953440"><ele>1531.25</ele></trkpt>
   <trkpt lon="6.883503" lat="45.953390"><ele>1531.5</ele></trkpt>
   <trkpt lon="6.883194" lat="45.953321"><ele>1536.0</ele></trkpt>
   <trkpt lon="6.883157" lat="45.953323"><ele>1537.25</ele></trkpt>
   <trkpt lon="6.883113" lat="45.953315"><ele>1538.0</ele></trkpt>
   <trkpt lon="6.883075" lat="45.953301"><ele>1538.25</ele></trkpt>
   <trkpt lon="6.883050" lat="45.953277"><ele>1537.5</ele></trkpt>
   <trkpt lon="6.882992" lat="45.953244"><ele>1537.0</ele></trkpt>
   <trkpt lon="6.882978" lat="45.953226"><ele>1536.25</ele></trkpt>
   <trkpt lon="6.882969" lat="45.953178"><ele>1533.5</ele></trkpt>
   <trkpt lon="6.882896" lat="45.953093"><ele>1530.5</ele></trkpt>
   <trkpt lon="6.882797" lat="45.953020"><ele>1528.75</ele></trkpt>
   <trkpt lon="6.882713" lat="45.952988"><ele>1528.75</ele></trkpt>
   <trkpt lon="6.882575" lat="45.952925"><ele>1527.5</ele></trkpt>
   <trkpt lon="6.882497" lat="45.952897"><ele>1527.5</ele></trkpt>
   <trkpt lon="6.882359" lat="45.952819"><ele>1524.0</ele></trkpt>
   <trkpt lon="6.882304" lat="45.952800"><ele>1523.5</ele></trkpt>
   <trkpt lon="6.882248" lat="45.952771"><ele>1522.0</ele></trkpt>
   <trkpt lon="6.882187" lat="45.952750"><ele>1520.5</ele></trkpt>
   <trkpt lon="6.882066" lat="45.952730"><ele>1519.25</ele></trkpt>
   <trkpt lon="6.881952" lat="45.952690"><ele>1516.0</ele></trkpt>
   <trkpt lon="6.881908" lat="45.952688"><ele>1515.5</ele></trkpt>
   <trkpt lon="6.881832" lat="45.952708"><ele>1516.75</ele></trkpt>
   <trkpt lon="6.881627" lat="45.952778"><ele>1522.0</ele></trkpt>
   <trkpt lon="6.881589" lat="45.952781"><ele>1522.25</ele></trkpt>
   <trkpt lon="6.881435" lat="45.952832"><ele>1528.0</ele></trkpt>
   <trkpt lon="6.881366" lat="45.952836"><ele>1528.5</ele></trkpt>
   <trkpt lon="6.881233" lat="45.952826"><ele>1527.5</ele></trkpt>
   <trkpt lon="6.881028" lat="45.952838"><ele>1529.0</ele></trkpt>
   <trkpt lon="6.880953" lat="45.952837"><ele>1528.75</ele></trkpt>
   <trkpt lon="6.880829" lat="45.952822"><ele>1527.0</ele></trkpt>
   <trkpt lon="6.880729" lat="45.952790"><ele>1522.75</ele></trkpt>
   <trkpt lon="6.880618" lat="45.952778"><ele>1521.0</ele></trkpt>
   <trkpt lon="6.880450" lat="45.952741"><ele>1515.75</ele></trkpt>
   <trkpt lon="6.880390" lat="45.952743"><ele>1515.0</ele></trkpt>
   <trkpt lon="6.880283" lat="45.952765"><ele>1515.75</ele></trkpt>
   <trkpt lon="6.880249" lat="45.952791"><ele>1517.25</ele></trkpt>
   <trkpt lon="6.880163" lat="45.952838"><ele>1519.0</ele></trkpt>
   <trkpt lon="6.880099" lat="45.952939"><ele>1525.25</ele></trkpt>
   <trkpt lon="6.879960" lat="45.953065"><ele>1529.5</ele></trkpt>
   <trkpt lon="6.879910" lat="45.953136"><ele>1531.75</ele></trkpt>
   <trkpt lon="6.879880" lat="45.953199"><ele>1534.25</ele></trkpt>
   <trkpt lon="6.879841" lat="45.953235"><ele>1534.5</ele></trkpt>
   <trkpt lon="6.879660" lat="45.953453"><ele>1540.25</ele></trkpt>
   <trkpt lon="6.879609" lat="45.953486"><ele>1541.0</ele></trkpt>
   <trkpt lon="6.879570" lat="45.953503"><ele>1541.0</ele></trkpt>
   <trkpt lon="6.879497" lat="45.953522"><ele>1540.0</ele></trkpt>
   <trkpt lon="6.879434" lat="45.953548"><ele>1540.25</ele></trkpt>
   <trkpt lon="6.879351" lat="45.953544"><ele>1542.5</ele></trkpt>
   <trkpt lon="6.879288" lat="45.953529"><ele>1543.0</ele></trkpt>
   <trkpt lon="6.879238" lat="45.953510"><ele>1543.0</ele></trkpt>
   <trkpt lon="6.879155" lat="45.953464"><ele>1541.5</ele></trkpt>
   <trkpt lon="6.879120" lat="45.953457"><ele>1541.75</ele></trkpt>
   <trkpt lon="6.879092" lat="45.953443"><ele>1541.5</ele></trkpt>
   <trkpt lon="6.879020" lat="45.953377"><ele>1537.75</ele></trkpt>
   <trkpt lon="6.878990" lat="45.953363"><ele>1537.25</ele></trkpt>
   <trkpt lon="6.878890" lat="45.953351"><ele>1538.5</ele></trkpt>
   <trkpt lon="6.878798" lat="45.953307"><ele>1537.0</ele></trkpt>
   <trkpt lon="6.878763" lat="45.953298"><ele>1537.0</ele></trkpt>
   <trkpt lon="6.878729" lat="45.953301"><ele>1537.75</ele></trkpt>
   <trkpt lon="6.878666" lat="45.953329"><ele>1540.75</ele></trkpt>
   <trkpt lon="6.878632" lat="45.953327"><ele>1541.25</ele></trkpt>
   <trkpt lon="6.878526" lat="45.953331"><ele>1543.5</ele></trkpt>
   <trkpt lon="6.878469" lat="45.953327"><ele>1544.75</ele></trkpt>
   <trkpt lon="6.878429" lat="45.953317"><ele>1545.0</ele></trkpt>
   <trkpt lon="6.878310" lat="45.953259"><ele>1545.75</ele></trkpt>
   <trkpt lon="6.878285" lat="45.953240"><ele>1546.0</ele></trkpt>
   <trkpt lon="6.878264" lat="45.953211"><ele>1545.5</ele></trkpt>
   <trkpt lon="6.878247" lat="45.953147"><ele>1543.5</ele></trkpt>
   <trkpt lon="6.878249" lat="45.953119"><ele>1542.25</ele></trkpt>
   <trkpt lon="6.878272" lat="45.953061"><ele>1538.75</ele></trkpt>
   <trkpt lon="6.878266" lat="45.953046"><ele>1538.5</ele></trkpt>
   <trkpt lon="6.878256" lat="45.953031"><ele>1538.5</ele></trkpt>
   <trkpt lon="6.878186" lat="45.952999"><ele>1540.75</ele></trkpt>
   <trkpt lon="6.878104" lat="45.952950"><ele>1543.25</ele></trkpt>
   <trkpt lon="6.878083" lat="45.952930"><ele>1543.75</ele></trkpt>
   <trkpt lon="6.878048" lat="45.952879"><ele>1544.5</ele></trkpt>
   <trkpt lon="6.877976" lat="45.952724"><ele>1545.75</ele></trkpt>
   <trkpt lon="6.877951" lat="45.952691"><ele>1546.5</ele></trkpt>
   <trkpt lon="6.877905" lat="45.952661"><ele>1548.75</ele></trkpt>
   <trkpt lon="6.877841" lat="45.952605"><ele>1551.5</ele></trkpt>
   <trkpt lon="6.877814" lat="45.952592"><ele>1552.75</ele></trkpt>
   <trkpt lon="6.877785" lat="45.952542"><ele>1553.5</ele></trkpt>
   <trkpt lon="6.877800" lat="45.952462"><ele>1549.75</ele></trkpt>
   <trkpt lon="6.877795" lat="45.952436"><ele>1549.0</ele></trkpt>
   <trkpt lon="6.877775" lat="45.952415"><ele>1549.25</ele></trkpt>
   <trkpt lon="6.877733" lat="45.952394"><ele>1550.75</ele></trkpt>
   <trkpt lon="6.877709" lat="45.952391"><ele>1552.0</ele></trkpt>
   <trkpt lon="6.877670" lat="45.952402"><ele>1554.75</ele></trkpt>
   <trkpt lon="6.877535" lat="45.952406"><ele>1562.5</ele></trkpt>
   <trkpt lon="6.877378" lat="45.952380"><ele>1568.75</ele></trkpt>
   <trkpt lon="6.877325" lat="45.952364"><ele>1570.25</ele></trkpt>
   <trkpt lon="6.877229" lat="45.952319"><ele>1571.5</ele></trkpt>
   <trkpt lon="6.877142" lat="45.952265"><ele>1570.5</ele></trkpt>
   <trkpt lon="6.877071" lat="45.952253"><ele>1572.0</ele></trkpt>
   <trkpt lon="6.876996" lat="45.952222"><ele>1572.25</ele></trkpt>
   <trkpt lon="6.876587" lat="45.951997"><ele>1575.25</ele></trkpt>
   <trkpt lon="6.876508" lat="45.951933"><ele>1575.25</ele></trkpt>
   <trkpt lon="6.876438" lat="45.951918"><ele>1577.25</ele></trkpt>
   <trkpt lon="6.876348" lat="45.951887"><ele>1579.5</ele></trkpt>
   <trkpt lon="6.876240" lat="45.951823"><ele>1582.0</ele></trkpt>
   <trkpt lon="6.876208" lat="45.951796"><ele>1582.5</ele></trkpt>
   <trkpt lon="6.876039" lat="45.951523"><ele>1588.25</ele></trkpt>
   <trkpt lon="6.876019" lat="45.951288"><ele>1592.25</ele></trkpt>
   <trkpt lon="6.876053" lat="45.951208"><ele>1592.25</ele></trkpt>
   <trkpt lon="6.876220" lat="45.951066"><ele>1585.25</ele></trkpt>
   <trkpt lon="6.876261" lat="45.951044"><ele>1583.25</ele></trkpt>
   <trkpt lon="6.876275" lat="45.951029"><ele>1582.75</ele></trkpt>
   <trkpt lon="6.876269" lat="45.950986"><ele>1584.5</ele></trkpt>
   <trkpt lon="6.876206" lat="45.950902"><ele>1591.0</ele></trkpt>
   <trkpt lon="6.876207" lat="45.950856"><ele>1592.25</ele></trkpt>
   <trkpt lon="6.876259" lat="45.950769"><ele>1593.0</ele></trkpt>
   <trkpt lon="6.876306" lat="45.950718"><ele>1593.0</ele></trkpt>
   <trkpt lon="6.876340" lat="45.950650"><ele>1594.5</ele></trkpt>
   <trkpt lon="6.876365" lat="45.950573"><ele>1597.25</ele></trkpt>
   <trkpt lon="6.876388" lat="45.950541"><ele>1597.75</ele></trkpt>
   <trkpt lon="6.876456" lat="45.950477"><ele>1597.75</ele></trkpt>
   <trkpt lon="6.876577" lat="45.950430"><ele>1594.25</ele></trkpt>
   <trkpt lon="6.876588" lat="45.950415"><ele>1594.5</ele></trkpt>
   <trkpt lon="6.876582" lat="45.950368"><ele>1597.75</ele></trkpt>
   <trkpt lon="6.876546" lat="45.950305"><ele>1603.25</ele></trkpt>
   <trkpt lon="6.876563" lat="45.950240"><ele>1605.5</ele></trkpt>
   <trkpt lon="6.876588" lat="45.950206"><ele>1605.5</ele></trkpt>
   <trkpt lon="6.876619" lat="45.950184"><ele>1604.75</ele></trkpt>
   <trkpt lon="6.876695" lat="45.950155"><ele>1601.75</ele></trkpt>
   <trkpt lon="6.876733" lat="45.950131"><ele>1600.25</ele></trkpt>
   <trkpt lon="6.876805" lat="45.950065"><ele>1598.5</ele></trkpt>
   <trkpt lon="6.876798" lat="45.950042"><ele>1599.75</ele></trkpt>
   <trkpt lon="6.876727" lat="45.949994"><ele>1605.25</ele></trkpt>
   <trkpt lon="6.876697" lat="45.949943"><ele>1606.75</ele></trkpt>
   <trkpt lon="6.876690" lat="45.949909"><ele>1607.0</ele></trkpt>
   <trkpt lon="6.876705" lat="45.949836"><ele>1605.5</ele></trkpt>
   <trkpt lon="6.876703" lat="45.949802"><ele>1605.5</ele></trkpt>
   <trkpt lon="6.876690" lat="45.949777"><ele>1606.0</ele></trkpt>
   <trkpt lon="6.876650" lat="45.949753"><ele>1608.0</ele></trkpt>
   <trkpt lon="6.876538" lat="45.949638"><ele>1609.25</ele></trkpt>
   <trkpt lon="6.876462" lat="45.949580"><ele>1609.75</ele></trkpt>
   <trkpt lon="6.876409" lat="45.949556"><ele>1611.0</ele></trkpt>
   <trkpt lon="6.876352" lat="45.949544"><ele>1612.75</ele></trkpt>
   <trkpt lon="6.876188" lat="45.949537"><ele>1619.5</ele></trkpt>
   <trkpt lon="6.876142" lat="45.949518"><ele>1620.5</ele></trkpt>
   <trkpt lon="6.876059" lat="45.949403"><ele>1618.5</ele></trkpt>
   <trkpt lon="6.876024" lat="45.949270"><ele>1612.5</ele></trkpt>
   <trkpt lon="6.875906" lat="45.949194"><ele>1615.0</ele></trkpt>
   <trkpt lon="6.875848" lat="45.949175"><ele>1617.5</ele></trkpt>
   <trkpt lon="6.875804" lat="45.949151"><ele>1618.25</ele></trkpt>
   <trkpt lon="6.875788" lat="45.949105"><ele>1616.0</ele></trkpt>
   <trkpt lon="6.875772" lat="45.949091"><ele>1615.75</ele></trkpt>
   <trkpt lon="6.875662" lat="45.949029"><ele>1617.0</ele></trkpt>
   <trkpt lon="6.875558" lat="45.948927"><ele>1615.25</ele></trkpt>
   <trkpt lon="6.875396" lat="45.948830"><ele>1612.75</ele></trkpt>
   <trkpt lon="6.875294" lat="45.948829"><ele>1615.75</ele></trkpt>
   <trkpt lon="6.875152" lat="45.948842"><ele>1620.0</ele></trkpt>
   <trkpt lon="6.874957" lat="45.948890"><ele>1628.0</ele></trkpt>
   <trkpt lon="6.874933" lat="45.948892"><ele>1628.5</ele></trkpt>
   <trkpt lon="6.874771" lat="45.948863"><ele>1626.25</ele></trkpt>
   <trkpt lon="6.874737" lat="45.948864"><ele>1626.5</ele></trkpt>
   <trkpt lon="6.874585" lat="45.948895"><ele>1628.5</ele></trkpt>
   <trkpt lon="6.874458" lat="45.948911"><ele>1629.0</ele></trkpt>
   <trkpt lon="6.874401" lat="45.948910"><ele>1629.25</ele></trkpt>
   <trkpt lon="6.874316" lat="45.948886"><ele>1628.0</ele></trkpt>
   <trkpt lon="6.874240" lat="45.948873"><ele>1628.0</ele></trkpt>
   <trkpt lon="6.874159" lat="45.948879"><ele>1629.5</ele></trkpt>
   <trkpt lon="6.874094" lat="45.948856"><ele>1631.0</ele></trkpt>
   <trkpt lon="6.874035" lat="45.948809"><ele>1630.25</ele></trkpt>
   <trkpt lon="6.874008" lat="45.948742"><ele>1626.75</ele></trkpt>
   <trkpt lon="6.873935" lat="45.948590"><ele>1618.75</ele></trkpt>
   <trkpt lon="6.873921" lat="45.948585"><ele>1618.75</ele></trkpt>
   <trkpt lon="6.873881" lat="45.948595"><ele>1620.75</ele></trkpt>
   <trkpt lon="6.873827" lat="45.948594"><ele>1622.25</ele></trkpt>
   <trkpt lon="6.873723" lat="45.948608"><ele>1626.25</ele></trkpt>
   <trkpt lon="6.873582" lat="45.948599"><ele>1629.75</ele></trkpt>
   <trkpt lon="6.873524" lat="45.948590"><ele>1631.0</ele></trkpt>
   <trkpt lon="6.873478" lat="45.948575"><ele>1631.25</ele></trkpt>
   <trkpt lon="6.873446" lat="45.948547"><ele>1629.75</ele></trkpt>
   <trkpt lon="6.873422" lat="45.948438"><ele>1620.25</ele></trkpt>
   <trkpt lon="6.873324" lat="45.948361"><ele>1617.0</ele></trkpt>
   <trkpt lon="6.873234" lat="45.948328"><ele>1618.0</ele></trkpt>
   <trkpt lon="6.873206" lat="45.948308"><ele>1617.5</ele></trkpt>
   <trkpt lon="6.873153" lat="45.948242"><ele>1613.75</ele></trkpt>
   <trkpt lon="6.873117" lat="45.948210"><ele>1612.25</ele></trkpt>
   <trkpt lon="6.873079" lat="45.948191"><ele>1612.0</ele></trkpt>
   <trkpt lon="6.872999" lat="45.948178"><ele>1612.75</ele></trkpt>
   <trkpt lon="6.872952" lat="45.948182"><ele>1614.0</ele></trkpt>
   <trkpt lon="6.872882" lat="45.948200"><ele>1616.75</ele></trkpt>
   <trkpt lon="6.872748" lat="45.948205"><ele>1619.75</ele></trkpt>
   <trkpt lon="6.872703" lat="45.948194"><ele>1620.25</ele></trkpt>
   <trkpt lon="6.872645" lat="45.948167"><ele>1620.25</ele></trkpt>
   <trkpt lon="6.872634" lat="45.948148"><ele>1619.5</ele></trkpt>
   <trkpt lon="6.872641" lat="45.948063"><ele>1614.25</ele></trkpt>
   <trkpt lon="6.872625" lat="45.948000"><ele>1614.0</ele></trkpt>
   <trkpt lon="6.872636" lat="45.947951"><ele>1613.0</ele></trkpt>
   <trkpt lon="6.872622" lat="45.947896"><ele>1613.0</ele></trkpt>
   <trkpt lon="6.872641" lat="45.947798"><ele>1611.0</ele></trkpt>
   <trkpt lon="6.872623" lat="45.947755"><ele>1611.75</ele></trkpt>
   <trkpt lon="6.872579" lat="45.947720"><ele>1614.5</ele></trkpt>
   <trkpt lon="6.872567" lat="45.947701"><ele>1615.25</ele></trkpt>
   <trkpt lon="6.872560" lat="45.947669"><ele>1615.75</ele></trkpt>
   <trkpt lon="6.872583" lat="45.947593"><ele>1614.75</ele></trkpt>
   <trkpt lon="6.872605" lat="45.947570"><ele>1613.5</ele></trkpt>
   <trkpt lon="6.872661" lat="45.947534"><ele>1610.5</ele></trkpt>
   <trkpt lon="6.872671" lat="45.947518"><ele>1610.0</ele></trkpt>
   <trkpt lon="6.872670" lat="45.947501"><ele>1610.0</ele></trkpt>
   <trkpt lon="6.872609" lat="45.947452"><ele>1615.75</ele></trkpt>
   <trkpt lon="6.872597" lat="45.947431"><ele>1617.25</ele></trkpt>
   <trkpt lon="6.872596" lat="45.947408"><ele>1618.5</ele></trkpt>
   <trkpt lon="6.872614" lat="45.947358"><ele>1619.5</ele></trkpt>
   <trkpt lon="6.872706" lat="45.947269"><ele>1617.5</ele></trkpt>
   <trkpt lon="6.872725" lat="45.947204"><ele>1618.75</ele></trkpt>
   <trkpt lon="6.872735" lat="45.947103"><ele>1621.0</ele></trkpt>
   <trkpt lon="6.872710" lat="45.947052"><ele>1624.25</ele></trkpt>
   <trkpt lon="6.872704" lat="45.946911"><ele>1627.25</ele></trkpt>
   <trkpt lon="6.872689" lat="45.946886"><ele>1627.75</ele></trkpt>
   <trkpt lon="6.872632" lat="45.946833"><ele>1630.0</ele></trkpt>
   <trkpt lon="6.872586" lat="45.946758"><ele>1630.75</ele></trkpt>
   <trkpt lon="6.872580" lat="45.946723"><ele>1630.0</ele></trkpt>
   <trkpt lon="6.872585" lat="45.946685"><ele>1629.0</ele></trkpt>
   <trkpt lon="6.872610" lat="45.946625"><ele>1624.75</ele></trkpt>
   <trkpt lon="6.872611" lat="45.946605"><ele>1623.5</ele></trkpt>
   <trkpt lon="6.872581" lat="45.946564"><ele>1621.75</ele></trkpt>
   <trkpt lon="6.872542" lat="45.946549"><ele>1622.0</ele></trkpt>
   <trkpt lon="6.872288" lat="45.946491"><ele>1624.0</ele></trkpt>
   <trkpt lon="6.872237" lat="45.946470"><ele>1623.25</ele></trkpt>
   <trkpt lon="6.872196" lat="45.946447"><ele>1622.0</ele></trkpt>
   <trkpt lon="6.872130" lat="45.946388"><ele>1617.75</ele></trkpt>
   <trkpt lon="6.872086" lat="45.946363"><ele>1616.0</ele></trkpt>
   <trkpt lon="6.871969" lat="45.946306"><ele>1612.25</ele></trkpt>
   <trkpt lon="6.871874" lat="45.946277"><ele>1609.75</ele></trkpt>
   <trkpt lon="6.871792" lat="45.946278"><ele>1610.0</ele></trkpt>
   <trkpt lon="6.871649" lat="45.946315"><ele>1613.25</ele></trkpt>
   <trkpt lon="6.871301" lat="45.946362"><ele>1615.75</ele></trkpt>
   <trkpt lon="6.871246" lat="45.946365"><ele>1615.75</ele></trkpt>
   <trkpt lon="6.871179" lat="45.946360"><ele>1614.75</ele></trkpt>
   <trkpt lon="6.871137" lat="45.946348"><ele>1613.5</ele></trkpt>
   <trkpt lon="6.871105" lat="45.946331"><ele>1612.0</ele></trkpt>
   <trkpt lon="6.870980" lat="45.946225"><ele>1604.25</ele></trkpt>
   <trkpt lon="6.870923" lat="45.946201"><ele>1603.0</ele></trkpt>
   <trkpt lon="6.870790" lat="45.946172"><ele>1602.75</ele></trkpt>
   <trkpt lon="6.870739" lat="45.946153"><ele>1602.5</ele></trkpt>
   <trkpt lon="6.870695" lat="45.946120"><ele>1601.0</ele></trkpt>
   <trkpt lon="6.870654" lat="45.946079"><ele>1599.0</ele></trkpt>
   <trkpt lon="6.870639" lat="45.946025"><ele>1595.25</ele></trkpt>
   <trkpt lon="6.870621" lat="45.945912"><ele>1587.25</ele></trkpt>
   <trkpt lon="6.870592" lat="45.945850"><ele>1583.25</ele></trkpt>
   <trkpt lon="6.870560" lat="45.945807"><ele>1580.75</ele></trkpt>
   <trkpt lon="6.870515" lat="45.945774"><ele>1578.75</ele></trkpt>
   <trkpt lon="6.870447" lat="45.945759"><ele>1578.75</ele></trkpt>
   <trkpt lon="6.870374" lat="45.945700"><ele>1575.0</ele></trkpt>
   <trkpt lon="6.870336" lat="45.945682"><ele>1574.0</ele></trkpt>
   <trkpt lon="6.870283" lat="45.945668"><ele>1573.5</ele></trkpt>
   <trkpt lon="6.870238" lat="45.945664"><ele>1573.75</ele></trkpt>
   <trkpt lon="6.870157" lat="45.945673"><ele>1575.75</ele></trkpt>
   <trkpt lon="6.870049" lat="45.945664"><ele>1576.5</ele></trkpt>
   <trkpt lon="6.869988" lat="45.945646"><ele>1576.0</ele></trkpt>
   <trkpt lon="6.869916" lat="45.945605"><ele>1573.5</ele></trkpt>
   <trkpt lon="6.869820" lat="45.945574"><ele>1572.0</ele></trkpt>
   <trkpt lon="6.869709" lat="45.945574"><ele>1573.75</ele></trkpt>
   <trkpt lon="6.869665" lat="45.945562"><ele>1573.25</ele></trkpt>
   <trkpt lon="6.869619" lat="45.945542"><ele>1572.25</ele></trkpt>
   <trkpt lon="6.869586" lat="45.945512"><ele>1570.25</ele></trkpt>
   <trkpt lon="6.869545" lat="45.945492"><ele>1569.25</ele></trkpt>
   <trkpt lon="6.869509" lat="45.945485"><ele>1569.25</ele></trkpt>
   <trkpt lon="6.869440" lat="45.945484"><ele>1570.25</ele></trkpt>
   <trkpt lon="6.869419" lat="45.945478"><ele>1570.25</ele></trkpt>
   <trkpt lon="6.869344" lat="45.945397"><ele>1565.5</ele></trkpt>
   <trkpt lon="6.869271" lat="45.945332"><ele>1562.25</ele></trkpt>
   <trkpt lon="6.869246" lat="45.945297"><ele>1560.25</ele></trkpt>
   <trkpt lon="6.869234" lat="45.945243"><ele>1556.75</ele></trkpt>
   <trkpt lon="6.869236" lat="45.945093"><ele>1546.75</ele></trkpt>
   <trkpt lon="6.869255" lat="45.945042"><ele>1542.5</ele></trkpt>
   <trkpt lon="6.869277" lat="45.944936"><ele>1536.75</ele></trkpt>
   <trkpt lon="6.869277" lat="45.944878"><ele>1534.75</ele></trkpt>
   <trkpt lon="6.869266" lat="45.944841"><ele>1534.0</ele></trkpt>
   <trkpt lon="6.869199" lat="45.944778"><ele>1535.0</ele></trkpt>
   <trkpt lon="6.869160" lat="45.944720"><ele>1535.25</ele></trkpt>
   <trkpt lon="6.869077" lat="45.944654"><ele>1540.25</ele></trkpt>
   <trkpt lon="6.869047" lat="45.944618"><ele>1542.0</ele></trkpt>
   <trkpt lon="6.869029" lat="45.944517"><ele>1542.5</ele></trkpt>
   <trkpt lon="6.869037" lat="45.944468"><ele>1542.0</ele></trkpt>
   <trkpt lon="6.869075" lat="45.944369"><ele>1541.25</ele></trkpt>
   <trkpt lon="6.869096" lat="45.944337"><ele>1541.0</ele></trkpt>
   <trkpt lon="6.869244" lat="45.944206"><ele>1536.25</ele></trkpt>
   <trkpt lon="6.869300" lat="45.944164"><ele>1534.75</ele></trkpt>
   <trkpt lon="6.869366" lat="45.944129"><ele>1532.25</ele></trkpt>
   <trkpt lon="6.869492" lat="45.944039"><ele>1528.0</ele></trkpt>
   <trkpt lon="6.869575" lat="45.944006"><ele>1523.75</ele></trkpt>
   <trkpt lon="6.869650" lat="45.944007"><ele>1519.5</ele></trkpt>
   <trkpt lon="6.869682" lat="45.943998"><ele>1517.75</ele></trkpt>
   <trkpt lon="6.869689" lat="45.943985"><ele>1517.75</ele></trkpt>
   <trkpt lon="6.869678" lat="45.943970"><ele>1518.75</ele></trkpt>
   <trkpt lon="6.869675" lat="45.943935"><ele>1519.5</ele></trkpt>
   <trkpt lon="6.869645" lat="45.943832"><ele>1523.0</ele></trkpt>
   <trkpt lon="6.869591" lat="45.943772"><ele>1527.0</ele></trkpt>
   <trkpt lon="6.869523" lat="45.943665"><ele>1532.25</ele></trkpt>
   <trkpt lon="6.869515" lat="45.943633"><ele>1533.25</ele></trkpt>
   <trkpt lon="6.869516" lat="45.943486"><ele>1532.5</ele></trkpt>
   <trkpt lon="6.869524" lat="45.943425"><ele>1531.5</ele></trkpt>
   <trkpt lon="6.869540" lat="45.943367"><ele>1530.0</ele></trkpt>
   <trkpt lon="6.869582" lat="45.943292"><ele>1526.5</ele></trkpt>
   <trkpt lon="6.869592" lat="45.943260"><ele>1525.25</ele></trkpt>
   <trkpt lon="6.869588" lat="45.943210"><ele>1524.5</ele></trkpt>
   <trkpt lon="6.869554" lat="45.943123"><ele>1524.25</ele></trkpt>
   <trkpt lon="6.869517" lat="45.943083"><ele>1525.0</ele></trkpt>
   <trkpt lon="6.869484" lat="45.943068"><ele>1526.25</ele></trkpt>
   <trkpt lon="6.869314" lat="45.943018"><ele>1533.0</ele></trkpt>
   <trkpt lon="6.869180" lat="45.942909"><ele>1535.5</ele></trkpt>
   <trkpt lon="6.869128" lat="45.942887"><ele>1537.25</ele></trkpt>
   <trkpt lon="6.869102" lat="45.942867"><ele>1538.0</ele></trkpt>
   <trkpt lon="6.869064" lat="45.942748"><ele>1535.5</ele></trkpt>
   <trkpt lon="6.868981" lat="45.942616"><ele>1534.5</ele></trkpt>
   <trkpt lon="6.868967" lat="45.942576"><ele>1533.75</ele></trkpt>
   <trkpt lon="6.868972" lat="45.942552"><ele>1532.25</ele></trkpt>
   <trkpt lon="6.868998" lat="45.942508"><ele>1529.0</ele></trkpt>
   <trkpt lon="6.869000" lat="45.942491"><ele>1528.0</ele></trkpt>
   <trkpt lon="6.868983" lat="45.942450"><ele>1527.0</ele></trkpt>
   <trkpt lon="6.868905" lat="45.942388"><ele>1528.25</ele></trkpt>
   <trkpt lon="6.868768" lat="45.942308"><ele>1532.25</ele></trkpt>
   <trkpt lon="6.868691" lat="45.942300"><ele>1536.25</ele></trkpt>
   <trkpt lon="6.868647" lat="45.942284"><ele>1538.0</ele></trkpt>
   <trkpt lon="6.868545" lat="45.942284"><ele>1543.5</ele></trkpt>
   <trkpt lon="6.868504" lat="45.942268"><ele>1544.75</ele></trkpt>
   <trkpt lon="6.868486" lat="45.942244"><ele>1544.5</ele></trkpt>
   <trkpt lon="6.868464" lat="45.942164"><ele>1541.25</ele></trkpt>
   <trkpt lon="6.868339" lat="45.942117"><ele>1545.0</ele></trkpt>
   <trkpt lon="6.868315" lat="45.942103"><ele>1545.0</ele></trkpt>
   <trkpt lon="6.868278" lat="45.942065"><ele>1544.25</ele></trkpt>
   <trkpt lon="6.868191" lat="45.942007"><ele>1544.0</ele></trkpt>
   <trkpt lon="6.868108" lat="45.941982"><ele>1545.5</ele></trkpt>
   <trkpt lon="6.868001" lat="45.941923"><ele>1544.0</ele></trkpt>
   <trkpt lon="6.867975" lat="45.941879"><ele>1541.75</ele></trkpt>
   <trkpt lon="6.867954" lat="45.941870"><ele>1541.5</ele></trkpt>
   <trkpt lon="6.867826" lat="45.941903"><ele>1544.0</ele></trkpt>
   <trkpt lon="6.867728" lat="45.941938"><ele>1546.0</ele></trkpt>
   <trkpt lon="6.867744" lat="45.941959"><ele>1547.5</ele></trkpt>
   <trkpt lon="6.867724" lat="45.941992"><ele>1549.75</ele></trkpt>
   <trkpt lon="6.867656" lat="45.942017"><ele>1550.75</ele></trkpt>
   <trkpt lon="6.867363" lat="45.942091"><ele>1555.75</ele></trkpt>
   <trkpt lon="6.867228" lat="45.942104"><ele>1557.25</ele></trkpt>
   <trkpt lon="6.867104" lat="45.942097"><ele>1559.5</ele></trkpt>
   <trkpt lon="6.866994" lat="45.942076"><ele>1560.5</ele></trkpt>
   <trkpt lon="6.866808" lat="45.942008"><ele>1559.0</ele></trkpt>
   <trkpt lon="6.866717" lat="45.941995"><ele>1560.0</ele></trkpt>
   <trkpt lon="6.866569" lat="45.941999"><ele>1562.75</ele></trkpt>
   <trkpt lon="6.866341" lat="45.941988"><ele>1565.25</ele></trkpt>
   <trkpt lon="6.866108" lat="45.941991"><ele>1568.5</ele></trkpt>
   <trkpt lon="6.865808" lat="45.942040"><ele>1576.0</ele></trkpt>
   <trkpt lon="6.865630" lat="45.942027"><ele>1577.0</ele></trkpt>
   <trkpt lon="6.865148" lat="45.941917"><ele>1574.25</ele></trkpt>
   <trkpt lon="6.865097" lat="45.941909"><ele>1574.25</ele></trkpt>
   <trkpt lon="6.864993" lat="45.941908"><ele>1575.5</ele></trkpt>
   <trkpt lon="6.864901" lat="45.941917"><ele>1577.5</ele></trkpt>
   <trkpt lon="6.864292" lat="45.942026"><ele>1592.0</ele></trkpt>
   <trkpt lon="6.864127" lat="45.942058"><ele>1597.0</ele></trkpt>
   <trkpt lon="6.864053" lat="45.942083"><ele>1601.75</ele></trkpt>
   <trkpt lon="6.864006" lat="45.942116"><ele>1605.5</ele></trkpt>
   <trkpt lon="6.863989" lat="45.942172"><ele>1608.25</ele></trkpt>
   <trkpt lon="6.864000" lat="45.942227"><ele>1609.75</ele></trkpt>
   <trkpt lon="6.864041" lat="45.942283"><ele>1610.0</ele></trkpt>
   <trkpt lon="6.864110" lat="45.942332"><ele>1610.0</ele></trkpt>
   <trkpt lon="6.864163" lat="45.942353"><ele>1609.5</ele></trkpt>
   <trkpt lon="6.864236" lat="45.942364"><ele>1610.75</ele></trkpt>
   <trkpt lon="6.864313" lat="45.942363"><ele>1611.5</ele></trkpt>
   <trkpt lon="6.864403" lat="45.942355"><ele>1612.0</ele></trkpt>
   <trkpt lon="6.864665" lat="45.942299"><ele>1611.5</ele></trkpt>
   <trkpt lon="6.864747" lat="45.942290"><ele>1611.5</ele></trkpt>
   <trkpt lon="6.864833" lat="45.942290"><ele>1611.25</ele></trkpt>
   <trkpt lon="6.864965" lat="45.942326"><ele>1614.25</ele></trkpt>
   <trkpt lon="6.865078" lat="45.942408"><ele>1620.25</ele></trkpt>
   <trkpt lon="6.865148" lat="45.942502"><ele>1627.25</ele></trkpt>
   <trkpt lon="6.865327" lat="45.942779"><ele>1644.0</ele></trkpt>
   <trkpt lon="6.865429" lat="45.942901"><ele>1649.25</ele></trkpt>
   <trkpt lon="6.865518" lat="45.942982"><ele>1652.75</ele></trkpt>
   <trkpt lon="6.865597" lat="45.943027"><ele>1654.75</ele></trkpt>
   <trkpt lon="6.865679" lat="45.943049"><ele>1655.5</ele></trkpt>
   <trkpt lon="6.865781" lat="45.943050"><ele>1654.75</ele></trkpt>
   <trkpt lon="6.865897" lat="45.943030"><ele>1652.75</ele></trkpt>
   <trkpt lon="6.866014" lat="45.942996"><ele>1649.75</ele></trkpt>
   <trkpt lon="6.866108" lat="45.942988"><ele>1648.75</ele></trkpt>
   <trkpt lon="6.866210" lat="45.943007"><ele>1649.25</ele></trkpt>
   <trkpt lon="6.866287" lat="45.943038"><ele>1650.75</ele></trkpt>
   <trkpt lon="6.866375" lat="45.943104"><ele>1654.5</ele></trkpt>
   <trkpt lon="6.866686" lat="45.943416"><ele>1667.5</ele></trkpt>
   <trkpt lon="6.866778" lat="45.943477"><ele>1667.5</ele></trkpt>
   <trkpt lon="6.866840" lat="45.943505"><ele>1666.5</ele></trkpt>
   <trkpt lon="6.866919" lat="45.943526"><ele>1664.75</ele></trkpt>
   <trkpt lon="6.867144" lat="45.943566"><ele>1659.75</ele></trkpt>
   <trkpt lon="6.867186" lat="45.943586"><ele>1659.25</ele></trkpt>
   <trkpt lon="6.867193" lat="45.943621"><ele>1659.5</ele></trkpt>
   <trkpt lon="6.867181" lat="45.943649"><ele>1659.75</ele></trkpt>
   <trkpt lon="6.867124" lat="45.943680"><ele>1661.25</ele></trkpt>
   <trkpt lon="6.867033" lat="45.943708"><ele>1664.25</ele></trkpt>
   <trkpt lon="6.866900" lat="45.943724"><ele>1669.0</ele></trkpt>
   <trkpt lon="6.866785" lat="45.943715"><ele>1673.5</ele></trkpt>
   <trkpt lon="6.866656" lat="45.943686"><ele>1678.5</ele></trkpt>
   <trkpt lon="6.866414" lat="45.943617"><ele>1684.25</ele></trkpt>
   <trkpt lon="6.866265" lat="45.943602"><ele>1685.75</ele></trkpt>
   <trkpt lon="6.866183" lat="45.943629"><ele>1687.5</ele></trkpt>
   <trkpt lon="6.865937" lat="45.943769"><ele>1695.5</ele></trkpt>
   <trkpt lon="6.865681" lat="45.943873"><ele>1704.75</ele></trkpt>
   <trkpt lon="6.865508" lat="45.943910"><ele>1709.5</ele></trkpt>
   <trkpt lon="6.865165" lat="45.943958"><ele>1716.5</ele></trkpt>
   <trkpt lon="6.865048" lat="45.943953"><ele>1718.0</ele></trkpt>
   <trkpt lon="6.864929" lat="45.943926"><ele>1718.75</ele></trkpt>
   <trkpt lon="6.864650" lat="45.943819"><ele>1717.5</ele></trkpt>
   <trkpt lon="6.864571" lat="45.943797"><ele>1717.5</ele></trkpt>
   <trkpt lon="6.864485" lat="45.943790"><ele>1718.5</ele></trkpt>
   <trkpt lon="6.864406" lat="45.943813"><ele>1721.0</ele></trkpt>
   <trkpt lon="6.864232" lat="45.943925"><ele>1729.75</ele></trkpt>
   <trkpt lon="6.864112" lat="45.943960"><ele>1732.5</ele></trkpt>
   <trkpt lon="6.863919" lat="45.943993"><ele>1734.25</ele></trkpt>
   <trkpt lon="6.863526" lat="45.944049"><ele>1734.75</ele></trkpt>
   <trkpt lon="6.863446" lat="45.944080"><ele>1736.0</ele></trkpt>
   <trkpt lon="6.863376" lat="45.944126"><ele>1738.5</ele></trkpt>
   <trkpt lon="6.863106" lat="45.944344"><ele>1752.25</ele></trkpt>
   <trkpt lon="6.863022" lat="45.944373"><ele>1754.75</ele></trkpt>
   <trkpt lon="6.862903" lat="45.944385"><ele>1758.0</ele></trkpt>
   <trkpt lon="6.862766" lat="45.944377"><ele>1760.0</ele></trkpt>
   <trkpt lon="6.862654" lat="45.944353"><ele>1761.0</ele></trkpt>
   <trkpt lon="6.862523" lat="45.944290"><ele>1760.25</ele></trkpt>
   <trkpt lon="6.862386" lat="45.944189"><ele>1760.0</ele></trkpt>
   <trkpt lon="6.861826" lat="45.943675"><ele>1772.75</ele></trkpt>
   <trkpt lon="6.861396" lat="45.943156"><ele>1782.5</ele></trkpt>
   <trkpt lon="6.861308" lat="45.943083"><ele>1783.75</ele></trkpt>
   <trkpt lon="6.861203" lat="45.943019"><ele>1784.75</ele></trkpt>
   <trkpt lon="6.861049" lat="45.942951"><ele>1786.5</ele></trkpt>
   <trkpt lon="6.860855" lat="45.942892"><ele>1790.0</ele></trkpt>
   <trkpt lon="6.860628" lat="45.942847"><ele>1795.0</ele></trkpt>
   <trkpt lon="6.860368" lat="45.942804"><ele>1800.75</ele></trkpt>
   <trkpt lon="6.860100" lat="45.942780"><ele>1804.75</ele></trkpt>
   <trkpt lon="6.859988" lat="45.942784"><ele>1806.0</ele></trkpt>
   <trkpt lon="6.859846" lat="45.942811"><ele>1808.0</ele></trkpt>
   <trkpt lon="6.859666" lat="45.942863"><ele>1810.75</ele></trkpt>
   <trkpt lon="6.859540" lat="45.942914"><ele>1812.75</ele></trkpt>
   <trkpt lon="6.859381" lat="45.943023"><ele>1814.5</ele></trkpt>
   <trkpt lon="6.859128" lat="45.943303"><ele>1815.25</ele></trkpt>
   <trkpt lon="6.858987" lat="45.943465"><ele>1815.75</ele></trkpt>
   <trkpt lon="6.858845" lat="45.943776"><ele>1818.0</ele></trkpt>
   <trkpt lon="6.858693" lat="45.943843"><ele>1819.75</ele></trkpt>
   <trkpt lon="6.858167" lat="45.943969"><ele>1829.25</ele></trkpt>
   <trkpt lon="6.857910" lat="45.944055"><ele>1834.75</ele></trkpt>
   <trkpt lon="6.857706" lat="45.944093"><ele>1838.25</ele></trkpt>
   <trkpt lon="6.857518" lat="45.944100"><ele>1840.5</ele></trkpt>
   <trkpt lon="6.857051" lat="45.944093"><ele>1847.25</ele></trkpt>
   <trkpt lon="6.856708" lat="45.944100"><ele>1853.5</ele></trkpt>
   <trkpt lon="6.856504" lat="45.944085"><ele>1856.75</ele></trkpt>
   <trkpt lon="6.856338" lat="45.944023"><ele>1859.25</ele></trkpt>
   <trkpt lon="6.856257" lat="45.943899"><ele>1860.75</ele></trkpt>
   <trkpt lon="6.856204" lat="45.943768"><ele>1863.0</ele></trkpt>
   <trkpt lon="6.856193" lat="45.943623"><ele>1864.25</ele></trkpt>
   <trkpt lon="6.856263" lat="45.943410"><ele>1867.75</ele></trkpt>
   <trkpt lon="6.856440" lat="45.943212"><ele>1869.25</ele></trkpt>
   <trkpt lon="6.856686" lat="45.942977"><ele>1870.75</ele></trkpt>
   <trkpt lon="6.856976" lat="45.942500"><ele>1877.25</ele></trkpt>
   <trkpt lon="6.857180" lat="45.942313"><ele>1878.25</ele></trkpt>
   <trkpt lon="6.857260" lat="45.942229"><ele>1879.0</ele></trkpt>
   <trkpt lon="6.857352" lat="45.942093"><ele>1879.75</ele></trkpt>
   <trkpt lon="6.857371" lat="45.942031"><ele>1880.75</ele></trkpt>
   <trkpt lon="6.857379" lat="45.941962"><ele>1881.75</ele></trkpt>
   <trkpt lon="6.857370" lat="45.941872"><ele>1882.5</ele></trkpt>
   <trkpt lon="6.857298" lat="45.941705"><ele>1884.25</ele></trkpt>
   <trkpt lon="6.857240" lat="45.941627"><ele>1885.5</ele></trkpt>
   <trkpt lon="6.857190" lat="45.941564"><ele>1886.5</ele></trkpt>
   <trkpt lon="6.857116" lat="45.941494"><ele>1887.75</ele></trkpt>
   <trkpt lon="6.857010" lat="45.941394"><ele>1889.75</ele></trkpt>
   <trkpt lon="6.856891" lat="45.941301"><ele>1892.25</ele></trkpt>
   <trkpt lon="6.856813" lat="45.941224"><ele>1893.75</ele></trkpt>
   <trkpt lon="6.856717" lat="45.941081"><ele>1896.25</ele></trkpt>
   <trkpt lon="6.856641" lat="45.940999"><ele>1898.0</ele></trkpt>
   <trkpt lon="6.856534" lat="45.940913"><ele>1899.75</ele></trkpt>
   <trkpt lon="6.856434" lat="45.940847"><ele>1901.25</ele></trkpt>
   <trkpt lon="6.856389" lat="45.940801"><ele>1901.75</ele></trkpt>
   <trkpt lon="6.856353" lat="45.940744"><ele>1902.25</ele></trkpt>
   <trkpt lon="6.856332" lat="45.940683"><ele>1902.5</ele></trkpt>
   <trkpt lon="6.856332" lat="45.940621"><ele>1902.5</ele></trkpt>
   <trkpt lon="6.856352" lat="45.940560"><ele>1902.25</ele></trkpt>
   <trkpt lon="6.856394" lat="45.940491"><ele>1903.0</ele></trkpt>
   <trkpt lon="6.856638" lat="45.940198"><ele>1906.25</ele></trkpt>
   <trkpt lon="6.856751" lat="45.940000"><ele>1908.75</ele></trkpt>
   <trkpt lon="6.856788" lat="45.939806"><ele>1912.75</ele></trkpt>
   <trkpt lon="6.856778" lat="45.939624"><ele>1916.5</ele></trkpt>
   <trkpt lon="6.856735" lat="45.939497"><ele>1919.5</ele></trkpt>
   <trkpt lon="6.856638" lat="45.939336"><ele>1924.0</ele></trkpt>
   <trkpt lon="6.856531" lat="45.939236"><ele>1927.5</ele></trkpt>
   <trkpt lon="6.856456" lat="45.938904"><ele>1930.25</ele></trkpt>
   <trkpt lon="6.856397" lat="45.938777"><ele>1931.5</ele></trkpt>
   <trkpt lon="6.856116" lat="45.938593"><ele>1935.75</ele></trkpt>
   <trkpt lon="6.856029" lat="45.938524"><ele>1937.25</ele></trkpt>
   <trkpt lon="6.855988" lat="45.938500"><ele>1938.25</ele></trkpt>
   <trkpt lon="6.855952" lat="45.938491"><ele>1939.0</ele></trkpt>
   <trkpt lon="6.855907" lat="45.938491"><ele>1939.75</ele></trkpt>
   <trkpt lon="6.855852" lat="45.938505"><ele>1941.0</ele></trkpt>
   <trkpt lon="6.855797" lat="45.938534"><ele>1942.25</ele></trkpt>
   <trkpt lon="6.855475" lat="45.938756"><ele>1949.5</ele></trkpt>
   <trkpt lon="6.855388" lat="45.938819"><ele>1951.5</ele></trkpt>
   <trkpt lon="6.855300" lat="45.938899"><ele>1952.75</ele></trkpt>
   <trkpt lon="6.855246" lat="45.938958"><ele>1953.25</ele></trkpt>
   <trkpt lon="6.855209" lat="45.939015"><ele>1953.5</ele></trkpt>
   <trkpt lon="6.855132" lat="45.939174"><ele>1954.0</ele></trkpt>
   <trkpt lon="6.855031" lat="45.939266"><ele>1954.5</ele></trkpt>
   <trkpt lon="6.854965" lat="45.939307"><ele>1955.25</ele></trkpt>
   <trkpt lon="6.854875" lat="45.939343"><ele>1955.75</ele></trkpt>
   <trkpt lon="6.854765" lat="45.939373"><ele>1956.5</ele></trkpt>
   <trkpt lon="6.854387" lat="45.939419"><ele>1961.0</ele></trkpt>
   <trkpt lon="6.854298" lat="45.939418"><ele>1962.75</ele></trkpt>
   <trkpt lon="6.854220" lat="45.939401"><ele>1964.25</ele></trkpt>
   <trkpt lon="6.854153" lat="45.939367"><ele>1966.0</ele></trkpt>
   <trkpt lon="6.854100" lat="45.939330"><ele>1967.75</ele></trkpt>
   <trkpt lon="6.853786" lat="45.939025"><ele>1978.0</ele></trkpt>
   <trkpt lon="6.853693" lat="45.938895"><ele>1980.75</ele></trkpt>
   <trkpt lon="6.853651" lat="45.938859"><ele>1981.75</ele></trkpt>
   <trkpt lon="6.853622" lat="45.938844"><ele>1982.25</ele></trkpt>
   <trkpt lon="6.853540" lat="45.938851"><ele>1983.25</ele></trkpt>
   <trkpt lon="6.853491" lat="45.938868"><ele>1983.75</ele></trkpt>
   <trkpt lon="6.853451" lat="45.938900"><ele>1984.25</ele></trkpt>
   <trkpt lon="6.853418" lat="45.938945"><ele>1985.0</ele></trkpt>
   <trkpt lon="6.853365" lat="45.939042"><ele>1987.0</ele></trkpt>
   <trkpt lon="6.853291" lat="45.939139"><ele>1989.5</ele></trkpt>
   <trkpt lon="6.852990" lat="45.939493"><ele>2000.0</ele></trkpt>
   <trkpt lon="6.852943" lat="45.939532"><ele>2001.75</ele></trkpt>
   <trkpt lon="6.852909" lat="45.939547"><ele>2003.0</ele></trkpt>
   <trkpt lon="6.852862" lat="45.939552"><ele>2004.75</ele></trkpt>
   <trkpt lon="6.852817" lat="45.939542"><ele>2006.0</ele></trkpt>
   <trkpt lon="6.852775" lat="45.939518"><ele>2007.0</ele></trkpt>
   <trkpt lon="6.852628" lat="45.939401"><ele>2011.75</ele></trkpt>
   <trkpt lon="6.852433" lat="45.939190"><ele>2019.5</ele></trkpt>
   <trkpt lon="6.852325" lat="45.939046"><ele>2023.0</ele></trkpt>
   <trkpt lon="6.852270" lat="45.938997"><ele>2024.75</ele></trkpt>
   <trkpt lon="6.852092" lat="45.938909"><ele>2029.75</ele></trkpt>
   <trkpt lon="6.851578" lat="45.938733"><ele>2040.5</ele></trkpt>
   <trkpt lon="6.851481" lat="45.938684"><ele>2042.0</ele></trkpt>
   <trkpt lon="6.851249" lat="45.938535"><ele>2046.5</ele></trkpt>
   <trkpt lon="6.850943" lat="45.938361"><ele>2052.5</ele></trkpt>
   <trkpt lon="6.850609" lat="45.938200"><ele>2059.0</ele></trkpt>
   <trkpt lon="6.850565" lat="45.938173"><ele>2059.75</ele></trkpt>
   <trkpt lon="6.850477" lat="45.938077"><ele>2062.5</ele></trkpt>
   <trkpt lon="6.850438" lat="45.938056"><ele>2063.25</ele></trkpt>
   <trkpt lon="6.850365" lat="45.938059"><ele>2064.0</ele></trkpt>
   <trkpt lon="6.850145" lat="45.938140"><ele>2066.0</ele></trkpt>
   <trkpt lon="6.850079" lat="45.938155"><ele>2067.0</ele></trkpt>
   <trkpt lon="6.849906" lat="45.938161"><ele>2068.5</ele></trkpt>
   <trkpt lon="6.849751" lat="45.938151"><ele>2069.5</ele></trkpt>
   <trkpt lon="6.849616" lat="45.938129"><ele>2070.0</ele></trkpt>
   <trkpt lon="6.849332" lat="45.938066"><ele>2070.75</ele></trkpt>
   <trkpt lon="6.849277" lat="45.938046"><ele>2071.0</ele></trkpt>
   <trkpt lon="6.849042" lat="45.938124"><ele>2075.0</ele></trkpt>
   <trkpt lon="6.848919" lat="45.938124"><ele>2078.0</ele></trkpt>
   <trkpt lon="6.848838" lat="45.938113"><ele>2080.75</ele></trkpt>
   <trkpt lon="6.848740" lat="45.938068"><ele>2084.0</ele></trkpt>
   <trkpt lon="6.848544" lat="45.937938"><ele>2088.25</ele></trkpt>
   <trkpt lon="6.848182" lat="45.937728"><ele>2099.0</ele></trkpt>
   <trkpt lon="6.847821" lat="45.937482"><ele>2111.75</ele></trkpt>
   <trkpt lon="6.847615" lat="45.937333"><ele>2115.5</ele></trkpt>
   <trkpt lon="6.847443" lat="45.937260"><ele>2116.25</ele></trkpt>
   <trkpt lon="6.847243" lat="45.937229"><ele>2117.25</ele></trkpt>
   <trkpt lon="6.846605" lat="45.937314"><ele>2126.5</ele></trkpt>
   <trkpt lon="6.846296" lat="45.937377"><ele>2131.0</ele></trkpt>
   <trkpt lon="6.846164" lat="45.937426"><ele>2132.75</ele></trkpt>
   <trkpt lon="6.846022" lat="45.937390"><ele>2130.75</ele></trkpt>
   <trkpt lon="6.845837" lat="45.937380"><ele>2130.5</ele></trkpt>
   <trkpt lon="6.845512" lat="45.937408"><ele>2133.25</ele></trkpt>
   <trkpt lon="6.845373" lat="45.937395"><ele>2135.0</ele></trkpt>
   <trkpt lon="6.845086" lat="45.937251"><ele>2141.0</ele></trkpt>
   <trkpt lon="6.845062" lat="45.937210"><ele>2141.25</ele></trkpt>
   <trkpt lon="6.844920" lat="45.937035"><ele>2142.5</ele></trkpt>
   <trkpt lon="6.844795" lat="45.936928"><ele>2145.75</ele></trkpt>
   <trkpt lon="6.844670" lat="45.936861"><ele>2150.25</ele></trkpt>
   <trkpt lon="6.844635" lat="45.936889"><ele>2152.0</ele></trkpt>
   <trkpt lon="6.844571" lat="45.936913"><ele>2154.5</ele></trkpt>
   <trkpt lon="6.844534" lat="45.936811"><ele>2155.75</ele></trkpt>
   <trkpt lon="6.844496" lat="45.936854"><ele>2157.25</ele></trkpt>
   <trkpt lon="6.844443" lat="45.936766"><ele>2160.25</ele></trkpt>
   <trkpt lon="6.844309" lat="45.936591"><ele>2164.5</ele></trkpt>
   <trkpt lon="6.844174" lat="45.936483"><ele>2166.5</ele></trkpt>
   <trkpt lon="6.844018" lat="45.936387"><ele>2169.25</ele></trkpt>
   <trkpt lon="6.843799" lat="45.936234"><ele>2171.5</ele></trkpt>
   <trkpt lon="6.843624" lat="45.936156"><ele>2175.5</ele></trkpt>
   <trkpt lon="6.843326" lat="45.935943"><ele>2184.0</ele></trkpt>
   <trkpt lon="6.843128" lat="45.935853"><ele>2191.25</ele></trkpt>
   <trkpt lon="6.843104" lat="45.935925"><ele>2192.5</ele></trkpt>
   <trkpt lon="6.843017" lat="45.935865"><ele>2196.5</ele></trkpt>
   <trkpt lon="6.842975" lat="45.935893"><ele>2198.0</ele></trkpt>
   <trkpt lon="6.842884" lat="45.935902"><ele>2201.5</ele></trkpt>
   <trkpt lon="6.842856" lat="45.935821"><ele>2204.5</ele></trkpt>
   <trkpt lon="6.842763" lat="45.935854"><ele>2208.0</ele></trkpt>
   <trkpt lon="6.842621" lat="45.935874"><ele>2215.0</ele></trkpt>
   <trkpt lon="6.842382" lat="45.936059"><ele>2223.25</ele></trkpt>
   <trkpt lon="6.842337" lat="45.936059"><ele>2226.0</ele></trkpt>
   <trkpt lon="6.842332" lat="45.936024"><ele>2227.5</ele></trkpt>
   <trkpt lon="6.842382" lat="45.935800"><ele>2231.0</ele></trkpt>
   <trkpt lon="6.842374" lat="45.935667"><ele>2235.5</ele></trkpt>
   <trkpt lon="6.842280" lat="45.935746"><ele>2238.5</ele></trkpt>
   <trkpt lon="6.842211" lat="45.935696"><ele>2243.5</ele></trkpt>
   <trkpt lon="6.842123" lat="45.935838"><ele>2245.0</ele></trkpt>
   <trkpt lon="6.842079" lat="45.935764"><ele>2248.75</ele></trkpt>
   <trkpt lon="6.841972" lat="45.935710"><ele>2255.25</ele></trkpt>
   <trkpt lon="6.841824" lat="45.935583"><ele>2265.75</ele></trkpt>
   <trkpt lon="6.841814" lat="45.935388"><ele>2274.5</ele></trkpt>
   <trkpt lon="6.841784" lat="45.935369"><ele>2276.5</ele></trkpt>
   <trkpt lon="6.841709" lat="45.935399"><ele>2278.5</ele></trkpt>
   <trkpt lon="6.841642" lat="45.935401"><ele>2281.75</ele></trkpt>
   <trkpt lon="6.841623" lat="45.935236"><ele>2286.75</ele></trkpt>
   <trkpt lon="6.841567" lat="45.935231"><ele>2289.5</ele></trkpt>
   <trkpt lon="6.841444" lat="45.935285"><ele>2294.25</ele></trkpt>
   <trkpt lon="6.841371" lat="45.935277"><ele>2297.5</ele></trkpt>
   <trkpt lon="6.841342" lat="45.935205"><ele>2300.25</ele></trkpt>
   <trkpt lon="6.841417" lat="45.935108"><ele>2299.25</ele></trkpt>
   <trkpt lon="6.841438" lat="45.935042"><ele>2299.75</ele></trkpt>
   <trkpt lon="6.841202" lat="45.934880"><ele>2308.25</ele></trkpt>
   <trkpt lon="6.841068" lat="45.934770"><ele>2313.75</ele></trkpt>
   <trkpt lon="6.840988" lat="45.934776"><ele>2314.75</ele></trkpt>
   <trkpt lon="6.840719" lat="45.934908"><ele>2322.5</ele></trkpt>
   <trkpt lon="6.840620" lat="45.934912"><ele>2325.75</ele></trkpt>
   <trkpt lon="6.840487" lat="45.934832"><ele>2329.25</ele></trkpt>
   <trkpt lon="6.840446" lat="45.934819"><ele>2331.0</ele></trkpt>
   <trkpt lon="6.840396" lat="45.934834"><ele>2333.5</ele></trkpt>
   <trkpt lon="6.840350" lat="45.934902"><ele>2337.0</ele></trkpt>
   <trkpt lon="6.840306" lat="45.935053"><ele>2341.5</ele></trkpt>
   <trkpt lon="6.840311" lat="45.935328"><ele>2345.75</ele></trkpt>
   <trkpt lon="6.840232" lat="45.935472"><ele>2349.5</ele></trkpt>
   <trkpt lon="6.840118" lat="45.935581"><ele>2352.5</ele></trkpt>
   <trkpt lon="6.840005" lat="45.935585"><ele>2355.25</ele></trkpt>
   <trkpt lon="6.839892" lat="45.935552"><ele>2358.75</ele></trkpt>
   <trkpt lon="6.839813" lat="45.935508"><ele>2361.25</ele></trkpt>
   <trkpt lon="6.839666" lat="45.935451"><ele>2366.25</ele></trkpt>
   <trkpt lon="6.839530" lat="45.935354"><ele>2371.0</ele></trkpt>
   <trkpt lon="6.839388" lat="45.935345"><ele>2374.5</ele></trkpt>
   <trkpt lon="6.839352" lat="45.935299"><ele>2375.75</ele></trkpt>
   <trkpt lon="6.839304" lat="45.935278"><ele>2377.0</ele></trkpt>
   <trkpt lon="6.839223" lat="45.935284"><ele>2378.75</ele></trkpt>
   <trkpt lon="6.839152" lat="45.935308"><ele>2380.25</ele></trkpt>
   <trkpt lon="6.839065" lat="45.935368"><ele>2382.75</ele></trkpt>
   <trkpt lon="6.839008" lat="45.935484"><ele>2384.75</ele></trkpt>
   <trkpt lon="6.838969" lat="45.935513"><ele>2386.0</ele></trkpt>
   <trkpt lon="6.838911" lat="45.935528"><ele>2388.0</ele></trkpt>
   <trkpt lon="6.838858" lat="45.935527"><ele>2390.0</ele></trkpt>
   <trkpt lon="6.838827" lat="45.935516"><ele>2391.0</ele></trkpt>
   <trkpt lon="6.838799" lat="45.935482"><ele>2391.75</ele></trkpt>
   <trkpt lon="6.838700" lat="45.935280"><ele>2393.75</ele></trkpt>
   <trkpt lon="6.838686" lat="45.935266"><ele>2394.25</ele></trkpt>
   <trkpt lon="6.838627" lat="45.935264"><ele>2396.25</ele></trkpt>
   <trkpt lon="6.838590" lat="45.935288"><ele>2398.25</ele></trkpt>
   <trkpt lon="6.838567" lat="45.935334"><ele>2399.75</ele></trkpt>
   <trkpt lon="6.838626" lat="45.935416"><ele>2397.75</ele></trkpt>
   <trkpt lon="6.838437" lat="45.935863"><ele>2415.0</ele></trkpt>
   <trkpt lon="6.838374" lat="45.936058"><ele>2419.0</ele></trkpt>
   <trkpt lon="6.838437" lat="45.935863"><ele>2415.0</ele></trkpt>
   <trkpt lon="6.838626" lat="45.935416"><ele>2397.75</ele></trkpt>
   <trkpt lon="6.838567" lat="45.935334"><ele>2399.75</ele></trkpt>
   <trkpt lon="6.838590" lat="45.935288"><ele>2398.25</ele></trkpt>
   <trkpt lon="6.838627" lat="45.935264"><ele>2396.25</ele></trkpt>
   <trkpt lon="6.838686" lat="45.935266"><ele>2394.25</ele></trkpt>
   <trkpt lon="6.838700" lat="45.935280"><ele>2393.75</ele></trkpt>
   <trkpt lon="6.838799" lat="45.935482"><ele>2391.75</ele></trkpt>
   <trkpt lon="6.838827" lat="45.935516"><ele>2391.0</ele></trkpt>
   <trkpt lon="6.838858" lat="45.935527"><ele>2390.0</ele></trkpt>
   <trkpt lon="6.838911" lat="45.935528"><ele>2388.0</ele></trkpt>
   <trkpt lon="6.838969" lat="45.935513"><ele>2386.0</ele></trkpt>
   <trkpt lon="6.839008" lat="45.935484"><ele>2384.75</ele></trkpt>
   <trkpt lon="6.839065" lat="45.935368"><ele>2382.75</ele></trkpt>
   <trkpt lon="6.839152" lat="45.935308"><ele>2380.25</ele></trkpt>
   <trkpt lon="6.839223" lat="45.935284"><ele>2378.75</ele></trkpt>
   <trkpt lon="6.839304" lat="45.935278"><ele>2377.0</ele></trkpt>
   <trkpt lon="6.839352" lat="45.935299"><ele>2375.75</ele></trkpt>
   <trkpt lon="6.839388" lat="45.935345"><ele>2374.5</ele></trkpt>
   <trkpt lon="6.839530" lat="45.935354"><ele>2371.0</ele></trkpt>
   <trkpt lon="6.839666" lat="45.935451"><ele>2366.25</ele></trkpt>
   <trkpt lon="6.839813" lat="45.935508"><ele>2361.25</ele></trkpt>
   <trkpt lon="6.839892" lat="45.935552"><ele>2358.75</ele></trkpt>
   <trkpt lon="6.840005" lat="45.935585"><ele>2355.25</ele></trkpt>
   <trkpt lon="6.840118" lat="45.935581"><ele>2352.5</ele></trkpt>
   <trkpt lon="6.840232" lat="45.935472"><ele>2349.5</ele></trkpt>
   <trkpt lon="6.840311" lat="45.935328"><ele>2345.75</ele></trkpt>
   <trkpt lon="6.840306" lat="45.935053"><ele>2341.5</ele></trkpt>
   <trkpt lon="6.840350" lat="45.934902"><ele>2337.0</ele></trkpt>
   <trkpt lon="6.840396" lat="45.934834"><ele>2333.5</ele></trkpt>
   <trkpt lon="6.840446" lat="45.934819"><ele>2331.0</ele></trkpt>
   <trkpt lon="6.840487" lat="45.934832"><ele>2329.25</ele></trkpt>
   <trkpt lon="6.840620" lat="45.934912"><ele>2325.75</ele></trkpt>
   <trkpt lon="6.840719" lat="45.934908"><ele>2322.5</ele></trkpt>
   <trkpt lon="6.840988" lat="45.934776"><ele>2314.75</ele></trkpt>
   <trkpt lon="6.841068" lat="45.934770"><ele>2313.75</ele></trkpt>
   <trkpt lon="6.841202" lat="45.934880"><ele>2308.25</ele></trkpt>
   <trkpt lon="6.841438" lat="45.935042"><ele>2299.75</ele></trkpt>
   <trkpt lon="6.841417" lat="45.935108"><ele>2299.25</ele></trkpt>
   <trkpt lon="6.841342" lat="45.935205"><ele>2300.25</ele></trkpt>
   <trkpt lon="6.841371" lat="45.935277"><ele>2297.5</ele></trkpt>
   <trkpt lon="6.841444" lat="45.935285"><ele>2294.25</ele></trkpt>
   <trkpt lon="6.841567" lat="45.935231"><ele>2289.5</ele></trkpt>
   <trkpt lon="6.841623" lat="45.935236"><ele>2286.75</ele></trkpt>
   <trkpt lon="6.841642" lat="45.935401"><ele>2281.75</ele></trkpt>
   <trkpt lon="6.841709" lat="45.935399"><ele>2278.5</ele></trkpt>
   <trkpt lon="6.841784" lat="45.935369"><ele>2276.5</ele></trkpt>
   <trkpt lon="6.841814" lat="45.935388"><ele>2274.5</ele></trkpt>
   <trkpt lon="6.841824" lat="45.935583"><ele>2265.75</ele></trkpt>
   <trkpt lon="6.841972" lat="45.935710"><ele>2255.25</ele></trkpt>
   <trkpt lon="6.842079" lat="45.935764"><ele>2248.75</ele></trkpt>
   <trkpt lon="6.842123" lat="45.935838"><ele>2245.0</ele></trkpt>
   <trkpt lon="6.842211" lat="45.935696"><ele>2243.5</ele></trkpt>
   <trkpt lon="6.842280" lat="45.935746"><ele>2238.5</ele></trkpt>
   <trkpt lon="6.842374" lat="45.935667"><ele>2235.5</ele></trkpt>
   <trkpt lon="6.842382" lat="45.935800"><ele>2231.0</ele></trkpt>
   <trkpt lon="6.842332" lat="45.936024"><ele>2227.5</ele></trkpt>
   <trkpt lon="6.842337" lat="45.936059"><ele>2226.0</ele></trkpt>
   <trkpt lon="6.842382" lat="45.936059"><ele>2223.25</ele></trkpt>
   <trkpt lon="6.842621" lat="45.935874"><ele>2215.0</ele></trkpt>
   <trkpt lon="6.842763" lat="45.935854"><ele>2208.0</ele></trkpt>
   <trkpt lon="6.842856" lat="45.935821"><ele>2204.5</ele></trkpt>
   <trkpt lon="6.842884" lat="45.935902"><ele>2201.5</ele></trkpt>
   <trkpt lon="6.842975" lat="45.935893"><ele>2198.0</ele></trkpt>
   <trkpt lon="6.843017" lat="45.935865"><ele>2196.5</ele></trkpt>
   <trkpt lon="6.843104" lat="45.935925"><ele>2192.5</ele></trkpt>
   <trkpt lon="6.843128" lat="45.935853"><ele>2191.25</ele></trkpt>
   <trkpt lon="6.843326" lat="45.935943"><ele>2184.0</ele></trkpt>
   <trkpt lon="6.843624" lat="45.936156"><ele>2175.5</ele></trkpt>
   <trkpt lon="6.843799" lat="45.936234"><ele>2171.5</ele></trkpt>
   <trkpt lon="6.844018" lat="45.936387"><ele>2169.25</ele></trkpt>
   <trkpt lon="6.844174" lat="45.936483"><ele>2166.5</ele></trkpt>
   <trkpt lon="6.844309" lat="45.936591"><ele>2164.5</ele></trkpt>
   <trkpt lon="6.844443" lat="45.936766"><ele>2160.25</ele></trkpt>
   <trkpt lon="6.844496" lat="45.936854"><ele>2157.25</ele></trkpt>
   <trkpt lon="6.844534" lat="45.936811"><ele>2155.75</ele></trkpt>
   <trkpt lon="6.844571" lat="45.936913"><ele>2154.5</ele></trkpt>
   <trkpt lon="6.844635" lat="45.936889"><ele>2152.0</ele></trkpt>
   <trkpt lon="6.844670" lat="45.936861"><ele>2150.25</ele></trkpt>
   <trkpt lon="6.844795" lat="45.936928"><ele>2145.75</ele></trkpt>
   <trkpt lon="6.844920" lat="45.937035"><ele>2142.5</ele></trkpt>
   <trkpt lon="6.845062" lat="45.937210"><ele>2141.25</ele></trkpt>
   <trkpt lon="6.845086" lat="45.937251"><ele>2141.0</ele></trkpt>
   <trkpt lon="6.845373" lat="45.937395"><ele>2135.0</ele></trkpt>
   <trkpt lon="6.845512" lat="45.937408"><ele>2133.25</ele></trkpt>
   <trkpt lon="6.845837" lat="45.937380"><ele>2130.5</ele></trkpt>
   <trkpt lon="6.846022" lat="45.937390"><ele>2130.75</ele></trkpt>
   <trkpt lon="6.846164" lat="45.937426"><ele>2132.75</ele></trkpt>
   <trkpt lon="6.846296" lat="45.937377"><ele>2131.0</ele></trkpt>
   <trkpt lon="6.846605" lat="45.937314"><ele>2126.5</ele></trkpt>
   <trkpt lon="6.847243" lat="45.937229"><ele>2117.25</ele></trkpt>
   <trkpt lon="6.847443" lat="45.937260"><ele>2116.25</ele></trkpt>
   <trkpt lon="6.847615" lat="45.937333"><ele>2115.5</ele></trkpt>
   <trkpt lon="6.847821" lat="45.937482"><ele>2111.75</ele></trkpt>
   <trkpt lon="6.848182" lat="45.937728"><ele>2099.0</ele></trkpt>
   <trkpt lon="6.848544" lat="45.937938"><ele>2088.25</ele></trkpt>
   <trkpt lon="6.848740" lat="45.938068"><ele>2084.0</ele></trkpt>
   <trkpt lon="6.848838" lat="45.938113"><ele>2080.75</ele></trkpt>
   <trkpt lon="6.848919" lat="45.938124"><ele>2078.0</ele></trkpt>
   <trkpt lon="6.849042" lat="45.938124"><ele>2075.0</ele></trkpt>
   <trkpt lon="6.849277" lat="45.938046"><ele>2071.0</ele></trkpt>
   <trkpt lon="6.849332" lat="45.938066"><ele>2070.75</ele></trkpt>
   <trkpt lon="6.849616" lat="45.938129"><ele>2070.0</ele></trkpt>
   <trkpt lon="6.849751" lat="45.938151"><ele>2069.5</ele></trkpt>
   <trkpt lon="6.849906" lat="45.938161"><ele>2068.5</ele></trkpt>
   <trkpt lon="6.850079" lat="45.938155"><ele>2067.0</ele></trkpt>
   <trkpt lon="6.850145" lat="45.938140"><ele>2066.0</ele></trkpt>
   <trkpt lon="6.850365" lat="45.938059"><ele>2064.0</ele></trkpt>
   <trkpt lon="6.850438" lat="45.938056"><ele>2063.25</ele></trkpt>
   <trkpt lon="6.850477" lat="45.938077"><ele>2062.5</ele></trkpt>
   <trkpt lon="6.850565" lat="45.938173"><ele>2059.75</ele></trkpt>
   <trkpt lon="6.850609" lat="45.938200"><ele>2059.0</ele></trkpt>
   <trkpt lon="6.850943" lat="45.938361"><ele>2052.5</ele></trkpt>
   <trkpt lon="6.851249" lat="45.938535"><ele>2046.5</ele></trkpt>
   <trkpt lon="6.851481" lat="45.938684"><ele>2042.0</ele></trkpt>
   <trkpt lon="6.851578" lat="45.938733"><ele>2040.5</ele></trkpt>
   <trkpt lon="6.852092" lat="45.938909"><ele>2029.75</ele></trkpt>
   <trkpt lon="6.852270" lat="45.938997"><ele>2024.75</ele></trkpt>
   <trkpt lon="6.852325" lat="45.939046"><ele>2023.0</ele></trkpt>
   <trkpt lon="6.852433" lat="45.939190"><ele>2019.5</ele></trkpt>
   <trkpt lon="6.852628" lat="45.939401"><ele>2011.75</ele></trkpt>
   <trkpt lon="6.852775" lat="45.939518"><ele>2007.0</ele></trkpt>
   <trkpt lon="6.852817" lat="45.939542"><ele>2006.0</ele></trkpt>
   <trkpt lon="6.852862" lat="45.939552"><ele>2004.75</ele></trkpt>
   <trkpt lon="6.852909" lat="45.939547"><ele>2003.0</ele></trkpt>
   <trkpt lon="6.852943" lat="45.939532"><ele>2001.75</ele></trkpt>
   <trkpt lon="6.852990" lat="45.939493"><ele>2000.0</ele></trkpt>
   <trkpt lon="6.853291" lat="45.939139"><ele>1989.5</ele></trkpt>
   <trkpt lon="6.853365" lat="45.939042"><ele>1987.0</ele></trkpt>
   <trkpt lon="6.853418" lat="45.938945"><ele>1985.0</ele></trkpt>
   <trkpt lon="6.853451" lat="45.938900"><ele>1984.25</ele></trkpt>
   <trkpt lon="6.853491" lat="45.938868"><ele>1983.75</ele></trkpt>
   <trkpt lon="6.853540" lat="45.938851"><ele>1983.25</ele></trkpt>
   <trkpt lon="6.853622" lat="45.938844"><ele>1982.25</ele></trkpt>
   <trkpt lon="6.853651" lat="45.938859"><ele>1981.75</ele></trkpt>
   <trkpt lon="6.853693" lat="45.938895"><ele>1980.75</ele></trkpt>
   <trkpt lon="6.853786" lat="45.939025"><ele>1978.0</ele></trkpt>
   <trkpt lon="6.854100" lat="45.939330"><ele>1967.75</ele></trkpt>
   <trkpt lon="6.854153" lat="45.939367"><ele>1966.0</ele></trkpt>
   <trkpt lon="6.854220" lat="45.939401"><ele>1964.25</ele></trkpt>
   <trkpt lon="6.854298" lat="45.939418"><ele>1962.75</ele></trkpt>
   <trkpt lon="6.854387" lat="45.939419"><ele>1961.0</ele></trkpt>
   <trkpt lon="6.854765" lat="45.939373"><ele>1956.5</ele></trkpt>
   <trkpt lon="6.854875" lat="45.939343"><ele>1955.75</ele></trkpt>
   <trkpt lon="6.854965" lat="45.939307"><ele>1955.25</ele></trkpt>
   <trkpt lon="6.855031" lat="45.939266"><ele>1954.5</ele></trkpt>
   <trkpt lon="6.855132" lat="45.939174"><ele>1954.0</ele></trkpt>
   <trkpt lon="6.855209" lat="45.939015"><ele>1953.5</ele></trkpt>
   <trkpt lon="6.855246" lat="45.938958"><ele>1953.25</ele></trkpt>
   <trkpt lon="6.855300" lat="45.938899"><ele>1952.75</ele></trkpt>
   <trkpt lon="6.855388" lat="45.938819"><ele>1951.5</ele></trkpt>
   <trkpt lon="6.855475" lat="45.938756"><ele>1949.5</ele></trkpt>
   <trkpt lon="6.855797" lat="45.938534"><ele>1942.25</ele></trkpt>
   <trkpt lon="6.855852" lat="45.938505"><ele>1941.0</ele></trkpt>
   <trkpt lon="6.855907" lat="45.938491"><ele>1939.75</ele></trkpt>
   <trkpt lon="6.855952" lat="45.938491"><ele>1939.0</ele></trkpt>
   <trkpt lon="6.855988" lat="45.938500"><ele>1938.25</ele></trkpt>
   <trkpt lon="6.856029" lat="45.938524"><ele>1937.25</ele></trkpt>
   <trkpt lon="6.856116" lat="45.938593"><ele>1935.75</ele></trkpt>
   <trkpt lon="6.856397" lat="45.938777"><ele>1931.5</ele></trkpt>
   <trkpt lon="6.856456" lat="45.938904"><ele>1930.25</ele></trkpt>
   <trkpt lon="6.856531" lat="45.939236"><ele>1927.5</ele></trkpt>
   <trkpt lon="6.856638" lat="45.939336"><ele>1924.0</ele></trkpt>
   <trkpt lon="6.856735" lat="45.939497"><ele>1919.5</ele></trkpt>
   <trkpt lon="6.856778" lat="45.939624"><ele>1916.5</ele></trkpt>
   <trkpt lon="6.856788" lat="45.939806"><ele>1912.75</ele></trkpt>
   <trkpt lon="6.856751" lat="45.940000"><ele>1908.75</ele></trkpt>
   <trkpt lon="6.856638" lat="45.940198"><ele>1906.25</ele></trkpt>
   <trkpt lon="6.856394" lat="45.940491"><ele>1903.0</ele></trkpt>
   <trkpt lon="6.856352" lat="45.940560"><ele>1902.25</ele></trkpt>
   <trkpt lon="6.856332" lat="45.940621"><ele>1902.5</ele></trkpt>
   <trkpt lon="6.856332" lat="45.940683"><ele>1902.5</ele></trkpt>
   <trkpt lon="6.856353" lat="45.940744"><ele>1902.25</ele></trkpt>
   <trkpt lon="6.856389" lat="45.940801"><ele>1901.75</ele></trkpt>
   <trkpt lon="6.856434" lat="45.940847"><ele>1901.25</ele></trkpt>
   <trkpt lon="6.856534" lat="45.940913"><ele>1899.75</ele></trkpt>
   <trkpt lon="6.856641" lat="45.940999"><ele>1898.0</ele></trkpt>
   <trkpt lon="6.856717" lat="45.941081"><ele>1896.25</ele></trkpt>
   <trkpt lon="6.856813" lat="45.941224"><ele>1893.75</ele></trkpt>
   <trkpt lon="6.856891" lat="45.941301"><ele>1892.25</ele></trkpt>
   <trkpt lon="6.857010" lat="45.941394"><ele>1889.75</ele></trkpt>
   <trkpt lon="6.857116" lat="45.941494"><ele>1887.75</ele></trkpt>
   <trkpt lon="6.857190" lat="45.941564"><ele>1886.5</ele></trkpt>
   <trkpt lon="6.857240" lat="45.941627"><ele>1885.5</ele></trkpt>
   <trkpt lon="6.857298" lat="45.941705"><ele>1884.25</ele></trkpt>
   <trkpt lon="6.857370" lat="45.941872"><ele>1882.5</ele></trkpt>
   <trkpt lon="6.857379" lat="45.941962"><ele>1881.75</ele></trkpt>
   <trkpt lon="6.857371" lat="45.942031"><ele>1880.75</ele></trkpt>
   <trkpt lon="6.857352" lat="45.942093"><ele>1879.75</ele></trkpt>
   <trkpt lon="6.857260" lat="45.942229"><ele>1879.0</ele></trkpt>
   <trkpt lon="6.857180" lat="45.942313"><ele>1878.25</ele></trkpt>
   <trkpt lon="6.856976" lat="45.942500"><ele>1877.25</ele></trkpt>
   <trkpt lon="6.856686" lat="45.942977"><ele>1870.75</ele></trkpt>
   <trkpt lon="6.856440" lat="45.943212"><ele>1869.25</ele></trkpt>
   <trkpt lon="6.856263" lat="45.943410"><ele>1867.75</ele></trkpt>
   <trkpt lon="6.856193" lat="45.943623"><ele>1864.25</ele></trkpt>
   <trkpt lon="6.856204" lat="45.943768"><ele>1863.0</ele></trkpt>
   <trkpt lon="6.856257" lat="45.943899"><ele>1860.75</ele></trkpt>
   <trkpt lon="6.856338" lat="45.944023"><ele>1859.25</ele></trkpt>
   <trkpt lon="6.856504" lat="45.944085"><ele>1856.75</ele></trkpt>
   <trkpt lon="6.856708" lat="45.944100"><ele>1853.5</ele></trkpt>
   <trkpt lon="6.857051" lat="45.944093"><ele>1847.25</ele></trkpt>
   <trkpt lon="6.857518" lat="45.944100"><ele>1840.5</ele></trkpt>
   <trkpt lon="6.857706" lat="45.944093"><ele>1838.25</ele></trkpt>
   <trkpt lon="6.857910" lat="45.944055"><ele>1834.75</ele></trkpt>
   <trkpt lon="6.858167" lat="45.943969"><ele>1829.25</ele></trkpt>
   <trkpt lon="6.858693" lat="45.943843"><ele>1819.75</ele></trkpt>
   <trkpt lon="6.858845" lat="45.943776"><ele>1818.0</ele></trkpt>
   <trkpt lon="6.858987" lat="45.943465"><ele>1815.75</ele></trkpt>
   <trkpt lon="6.859128" lat="45.943303"><ele>1815.25</ele></trkpt>
   <trkpt lon="6.859381" lat="45.943023"><ele>1814.5</ele></trkpt>
   <trkpt lon="6.859540" lat="45.942914"><ele>1812.75</ele></trkpt>
   <trkpt lon="6.859666" lat="45.942863"><ele>1810.75</ele></trkpt>
   <trkpt lon="6.859846" lat="45.942811"><ele>1808.0</ele></trkpt>
   <trkpt lon="6.859988" lat="45.942784"><ele>1806.0</ele></trkpt>
   <trkpt lon="6.860100" lat="45.942780"><ele>1804.75</ele></trkpt>
   <trkpt lon="6.860368" lat="45.942804"><ele>1800.75</ele></trkpt>
   <trkpt lon="6.860628" lat="45.942847"><ele>1795.0</ele></trkpt>
   <trkpt lon="6.860855" lat="45.942892"><ele>1790.0</ele></trkpt>
   <trkpt lon="6.861049" lat="45.942951"><ele>1786.5</ele></trkpt>
   <trkpt lon="6.861203" lat="45.943019"><ele>1784.75</ele></trkpt>
   <trkpt lon="6.861308" lat="45.943083"><ele>1783.75</ele></trkpt>
   <trkpt lon="6.861396" lat="45.943156"><ele>1782.5</ele></trkpt>
   <trkpt lon="6.861826" lat="45.943675"><ele>1772.75</ele></trkpt>
   <trkpt lon="6.862386" lat="45.944189"><ele>1760.0</ele></trkpt>
   <trkpt lon="6.862523" lat="45.944290"><ele>1760.25</ele></trkpt>
   <trkpt lon="6.862654" lat="45.944353"><ele>1761.0</ele></trkpt>
   <trkpt lon="6.862766" lat="45.944377"><ele>1760.0</ele></trkpt>
   <trkpt lon="6.862903" lat="45.944385"><ele>1758.0</ele></trkpt>
   <trkpt lon="6.863022" lat="45.944373"><ele>1754.75</ele></trkpt>
   <trkpt lon="6.863106" lat="45.944344"><ele>1752.25</ele></trkpt>
   <trkpt lon="6.863376" lat="45.944126"><ele>1738.5</ele></trkpt>
   <trkpt lon="6.863446" lat="45.944080"><ele>1736.0</ele></trkpt>
   <trkpt lon="6.863526" lat="45.944049"><ele>1734.75</ele></trkpt>
   <trkpt lon="6.863919" lat="45.943993"><ele>1734.25</ele></trkpt>
   <trkpt lon="6.864112" lat="45.943960"><ele>1732.5</ele></trkpt>
   <trkpt lon="6.864232" lat="45.943925"><ele>1729.75</ele></trkpt>
   <trkpt lon="6.864406" lat="45.943813"><ele>1721.0</ele></trkpt>
   <trkpt lon="6.864485" lat="45.943790"><ele>1718.5</ele></trkpt>
   <trkpt lon="6.864571" lat="45.943797"><ele>1717.5</ele></trkpt>
   <trkpt lon="6.864650" lat="45.943819"><ele>1717.5</ele></trkpt>
   <trkpt lon="6.864929" lat="45.943926"><ele>1718.75</ele></trkpt>
   <trkpt lon="6.865048" lat="45.943953"><ele>1718.0</ele></trkpt>
   <trkpt lon="6.865165" lat="45.943958"><ele>1716.5</ele></trkpt>
   <trkpt lon="6.865508" lat="45.943910"><ele>1709.5</ele></trkpt>
   <trkpt lon="6.865681" lat="45.943873"><ele>1704.75</ele></trkpt>
   <trkpt lon="6.865937" lat="45.943769"><ele>1695.5</ele></trkpt>
   <trkpt lon="6.866183" lat="45.943629"><ele>1687.5</ele></trkpt>
   <trkpt lon="6.866265" lat="45.943602"><ele>1685.75</ele></trkpt>
   <trkpt lon="6.866414" lat="45.943617"><ele>1684.25</ele></trkpt>
   <trkpt lon="6.866656" lat="45.943686"><ele>1678.5</ele></trkpt>
   <trkpt lon="6.866785" lat="45.943715"><ele>1673.5</ele></trkpt>
   <trkpt lon="6.866900" lat="45.943724"><ele>1669.0</ele></trkpt>
   <trkpt lon="6.867033" lat="45.943708"><ele>1664.25</ele></trkpt>
   <trkpt lon="6.867124" lat="45.943680"><ele>1661.25</ele></trkpt>
   <trkpt lon="6.867181" lat="45.943649"><ele>1659.75</ele></trkpt>
   <trkpt lon="6.867193" lat="45.943621"><ele>1659.5</ele></trkpt>
   <trkpt lon="6.867186" lat="45.943586"><ele>1659.25</ele></trkpt>
   <trkpt lon="6.867144" lat="45.943566"><ele>1659.75</ele></trkpt>
   <trkpt lon="6.866919" lat="45.943526"><ele>1664.75</ele></trkpt>
   <trkpt lon="6.866840" lat="45.943505"><ele>1666.5</ele></trkpt>
   <trkpt lon="6.866778" lat="45.943477"><ele>1667.5</ele></trkpt>
   <trkpt lon="6.866686" lat="45.943416"><ele>1667.5</ele></trkpt>
   <trkpt lon="6.866375" lat="45.943104"><ele>1654.5</ele></trkpt>
   <trkpt lon="6.866287" lat="45.943038"><ele>1650.75</ele></trkpt>
   <trkpt lon="6.866210" lat="45.943007"><ele>1649.25</ele></trkpt>
   <trkpt lon="6.866108" lat="45.942988"><ele>1648.75</ele></trkpt>
   <trkpt lon="6.866014" lat="45.942996"><ele>1649.75</ele></trkpt>
   <trkpt lon="6.865897" lat="45.943030"><ele>1652.75</ele></trkpt>
   <trkpt lon="6.865781" lat="45.943050"><ele>1654.75</ele></trkpt>
   <trkpt lon="6.865679" lat="45.943049"><ele>1655.5</ele></trkpt>
   <trkpt lon="6.865597" lat="45.943027"><ele>1654.75</ele></trkpt>
   <trkpt lon="6.865518" lat="45.942982"><ele>1652.75</ele></trkpt>
   <trkpt lon="6.865429" lat="45.942901"><ele>1649.25</ele></trkpt>
   <trkpt lon="6.865327" lat="45.942779"><ele>1644.0</ele></trkpt>
   <trkpt lon="6.865148" lat="45.942502"><ele>1627.25</ele></trkpt>
   <trkpt lon="6.865078" lat="45.942408"><ele>1620.25</ele></trkpt>
   <trkpt lon="6.864965" lat="45.942326"><ele>1614.25</ele></trkpt>
   <trkpt lon="6.864833" lat="45.942290"><ele>1611.25</ele></trkpt>
   <trkpt lon="6.864747" lat="45.942290"><ele>1611.5</ele></trkpt>
   <trkpt lon="6.864665" lat="45.942299"><ele>1611.5</ele></trkpt>
   <trkpt lon="6.864403" lat="45.942355"><ele>1612.0</ele></trkpt>
   <trkpt lon="6.864313" lat="45.942363"><ele>1611.5</ele></trkpt>
   <trkpt lon="6.864236" lat="45.942364"><ele>1610.75</ele></trkpt>
   <trkpt lon="6.864163" lat="45.942353"><ele>1609.5</ele></trkpt>
   <trkpt lon="6.864110" lat="45.942332"><ele>1610.0</ele></trkpt>
   <trkpt lon="6.864041" lat="45.942283"><ele>1610.0</ele></trkpt>
   <trkpt lon="6.864000" lat="45.942227"><ele>1609.75</ele></trkpt>
   <trkpt lon="6.863989" lat="45.942172"><ele>1608.25</ele></trkpt>
   <trkpt lon="6.864006" lat="45.942116"><ele>1605.5</ele></trkpt>
   <trkpt lon="6.864053" lat="45.942083"><ele>1601.75</ele></trkpt>
   <trkpt lon="6.864127" lat="45.942058"><ele>1597.0</ele></trkpt>
   <trkpt lon="6.864292" lat="45.942026"><ele>1592.0</ele></trkpt>
   <trkpt lon="6.864901" lat="45.941917"><ele>1577.5</ele></trkpt>
   <trkpt lon="6.864993" lat="45.941908"><ele>1575.5</ele></trkpt>
   <trkpt lon="6.865097" lat="45.941909"><ele>1574.25</ele></trkpt>
   <trkpt lon="6.865148" lat="45.941917"><ele>1574.25</ele></trkpt>
   <trkpt lon="6.865630" lat="45.942027"><ele>1577.0</ele></trkpt>
   <trkpt lon="6.865808" lat="45.942040"><ele>1576.0</ele></trkpt>
   <trkpt lon="6.866108" lat="45.941991"><ele>1568.5</ele></trkpt>
   <trkpt lon="6.866341" lat="45.941988"><ele>1565.25</ele></trkpt>
   <trkpt lon="6.866569" lat="45.941999"><ele>1562.75</ele></trkpt>
   <trkpt lon="6.866717" lat="45.941995"><ele>1560.0</ele></trkpt>
   <trkpt lon="6.866808" lat="45.942008"><ele>1559.0</ele></trkpt>
   <trkpt lon="6.866994" lat="45.942076"><ele>1560.5</ele></trkpt>
   <trkpt lon="6.867104" lat="45.942097"><ele>1559.5</ele></trkpt>
   <trkpt lon="6.867228" lat="45.942104"><ele>1557.25</ele></trkpt>
   <trkpt lon="6.867363" lat="45.942091"><ele>1555.75</ele></trkpt>
   <trkpt lon="6.867656" lat="45.942017"><ele>1550.75</ele></trkpt>
   <trkpt lon="6.867724" lat="45.941992"><ele>1549.75</ele></trkpt>
   <trkpt lon="6.867744" lat="45.941959"><ele>1547.5</ele></trkpt>
   <trkpt lon="6.867728" lat="45.941938"><ele>1546.0</ele></trkpt>
   <trkpt lon="6.867688" lat="45.941923"><ele>1544.75</ele></trkpt>
   <trkpt lon="6.867626" lat="45.941921"><ele>1544.0</ele></trkpt>
   <trkpt lon="6.867505" lat="45.941936"><ele>1543.5</ele></trkpt>
   <trkpt lon="6.867411" lat="45.941932"><ele>1543.0</ele></trkpt>
   <trkpt lon="6.867316" lat="45.941915"><ele>1541.75</ele></trkpt>
   <trkpt lon="6.867224" lat="45.941889"><ele>1540.0</ele></trkpt>
   <trkpt lon="6.866874" lat="45.941692"><ele>1533.75</ele></trkpt>
   <trkpt lon="6.866728" lat="45.941647"><ele>1532.25</ele></trkpt>
   <trkpt lon="6.866616" lat="45.941623"><ele>1531.75</ele></trkpt>
   <trkpt lon="6.866493" lat="45.941577"><ele>1529.5</ele></trkpt>
   <trkpt lon="6.866399" lat="45.941522"><ele>1526.25</ele></trkpt>
   <trkpt lon="6.866110" lat="45.941274"><ele>1509.75</ele></trkpt>
   <trkpt lon="6.866064" lat="45.941245"><ele>1507.75</ele></trkpt>
   <trkpt lon="6.865979" lat="45.941218"><ele>1506.0</ele></trkpt>
   <trkpt lon="6.865892" lat="45.941218"><ele>1506.5</ele></trkpt>
   <trkpt lon="6.865738" lat="45.941228"><ele>1508.0</ele></trkpt>
   <trkpt lon="6.865677" lat="45.941217"><ele>1507.5</ele></trkpt>
   <trkpt lon="6.865648" lat="45.941191"><ele>1505.25</ele></trkpt>
   <trkpt lon="6.865661" lat="45.941157"><ele>1502.5</ele></trkpt>
   <trkpt lon="6.865704" lat="45.941123"><ele>1499.25</ele></trkpt>
   <trkpt lon="6.865826" lat="45.941080"><ele>1495.25</ele></trkpt>
   <trkpt lon="6.865931" lat="45.941052"><ele>1492.75</ele></trkpt>
   <trkpt lon="6.866045" lat="45.941044"><ele>1491.5</ele></trkpt>
   <trkpt lon="6.866210" lat="45.941054"><ele>1490.75</ele></trkpt>
   <trkpt lon="6.866270" lat="45.941064"><ele>1490.75</ele></trkpt>
   <trkpt lon="6.866406" lat="45.941102"><ele>1491.75</ele></trkpt>
   <trkpt lon="6.866517" lat="45.941140"><ele>1493.0</ele></trkpt>
   <trkpt lon="6.866635" lat="45.941165"><ele>1493.0</ele></trkpt>
   <trkpt lon="6.866711" lat="45.941174"><ele>1492.5</ele></trkpt>
   <trkpt lon="6.866870" lat="45.941177"><ele>1490.75</ele></trkpt>
   <trkpt lon="6.866952" lat="45.941186"><ele>1490.5</ele></trkpt>
   <trkpt lon="6.867182" lat="45.941240"><ele>1494.5</ele></trkpt>
   <trkpt lon="6.867242" lat="45.941249"><ele>1495.5</ele></trkpt>
   <trkpt lon="6.867297" lat="45.941238"><ele>1494.75</ele></trkpt>
   <trkpt lon="6.867324" lat="45.941216"><ele>1493.0</ele></trkpt>
   <trkpt lon="6.867321" lat="45.941196"><ele>1491.0</ele></trkpt>
   <trkpt lon="6.867298" lat="45.941179"><ele>1489.5</ele></trkpt>
   <trkpt lon="6.867172" lat="45.941134"><ele>1485.0</ele></trkpt>
   <trkpt lon="6.866953" lat="45.941030"><ele>1476.75</ele></trkpt>
   <trkpt lon="6.866752" lat="45.940956"><ele>1473.75</ele></trkpt>
   <trkpt lon="6.866652" lat="45.940911"><ele>1471.5</ele></trkpt>
   <trkpt lon="6.866553" lat="45.940854"><ele>1469.0</ele></trkpt>
   <trkpt lon="6.866498" lat="45.940809"><ele>1466.5</ele></trkpt>
   <trkpt lon="6.866435" lat="45.940744"><ele>1462.5</ele></trkpt>
   <trkpt lon="6.866312" lat="45.940605"><ele>1453.0</ele></trkpt>
   <trkpt lon="6.866255" lat="45.940567"><ele>1450.75</ele></trkpt>
   <trkpt lon="6.866182" lat="45.940553"><ele>1450.75</ele></trkpt>
   <trkpt lon="6.865931" lat="45.940524"><ele>1450.0</ele></trkpt>
   <trkpt lon="6.865718" lat="45.940480"><ele>1448.0</ele></trkpt>
   <trkpt lon="6.865406" lat="45.940341"><ele>1443.5</ele></trkpt>
   <trkpt lon="6.865350" lat="45.940236"><ele>1439.5</ele></trkpt>
   <trkpt lon="6.865331" lat="45.940115"><ele>1435.5</ele></trkpt>
   <trkpt lon="6.865384" lat="45.940010"><ele>1430.25</ele></trkpt>
   <trkpt lon="6.865429" lat="45.939989"><ele>1428.25</ele></trkpt>
   <trkpt lon="6.865495" lat="45.940005"><ele>1426.75</ele></trkpt>
   <trkpt lon="6.865590" lat="45.940093"><ele>1427.75</ele></trkpt>
   <trkpt lon="6.865658" lat="45.940133"><ele>1428.0</ele></trkpt>
   <trkpt lon="6.865785" lat="45.940143"><ele>1425.75</ele></trkpt>
   <trkpt lon="6.865969" lat="45.940128"><ele>1422.0</ele></trkpt>
   <trkpt lon="6.866158" lat="45.940102"><ele>1417.75</ele></trkpt>
   <trkpt lon="6.866204" lat="45.940074"><ele>1415.0</ele></trkpt>
   <trkpt lon="6.866197" lat="45.940033"><ele>1412.5</ele></trkpt>
   <trkpt lon="6.866139" lat="45.940006"><ele>1411.75</ele></trkpt>
   <trkpt lon="6.865982" lat="45.939953"><ele>1412.25</ele></trkpt>
   <trkpt lon="6.865950" lat="45.939901"><ele>1410.75</ele></trkpt>
   <trkpt lon="6.866017" lat="45.939807"><ele>1405.25</ele></trkpt>
   <trkpt lon="6.866094" lat="45.939784"><ele>1402.25</ele></trkpt>
   <trkpt lon="6.866234" lat="45.939803"><ele>1399.25</ele></trkpt>
   <trkpt lon="6.866790" lat="45.939969"><ele>1395.25</ele></trkpt>
   <trkpt lon="6.866844" lat="45.939970"><ele>1394.25</ele></trkpt>
   <trkpt lon="6.866895" lat="45.939960"><ele>1392.5</ele></trkpt>
   <trkpt lon="6.866901" lat="45.939915"><ele>1389.5</ele></trkpt>
   <trkpt lon="6.866646" lat="45.939667"><ele>1381.25</ele></trkpt>
   <trkpt lon="6.866650" lat="45.939625"><ele>1379.5</ele></trkpt>
   <trkpt lon="6.866672" lat="45.939592"><ele>1377.5</ele></trkpt>
   <trkpt lon="6.866732" lat="45.939585"><ele>1375.75</ele></trkpt>
   <trkpt lon="6.866818" lat="45.939608"><ele>1374.75</ele></trkpt>
   <trkpt lon="6.867070" lat="45.939693"><ele>1372.75</ele></trkpt>
   <trkpt lon="6.867248" lat="45.939702"><ele>1369.75</ele></trkpt>
   <trkpt lon="6.867483" lat="45.939684"><ele>1366.75</ele></trkpt>
   <trkpt lon="6.867545" lat="45.939666"><ele>1365.75</ele></trkpt>
   <trkpt lon="6.867573" lat="45.939629"><ele>1363.25</ele></trkpt>
   <trkpt lon="6.867540" lat="45.939584"><ele>1360.5</ele></trkpt>
   <trkpt lon="6.867377" lat="45.939485"><ele>1356.5</ele></trkpt>
   <trkpt lon="6.867259" lat="45.939346"><ele>1353.0</ele></trkpt>
   <trkpt lon="6.867226" lat="45.939278"><ele>1351.5</ele></trkpt>
   <trkpt lon="6.867239" lat="45.939207"><ele>1348.75</ele></trkpt>
   <trkpt lon="6.867323" lat="45.939079"><ele>1342.25</ele></trkpt>
   <trkpt lon="6.867347" lat="45.938914"><ele>1336.25</ele></trkpt>
   <trkpt lon="6.867364" lat="45.938787"><ele>1331.5</ele></trkpt>
   <trkpt lon="6.867374" lat="45.938623"><ele>1325.75</ele></trkpt>
   <trkpt lon="6.867374" lat="45.938462"><ele>1322.0</ele></trkpt>
   <trkpt lon="6.867350" lat="45.938367"><ele>1320.5</ele></trkpt>
   <trkpt lon="6.867295" lat="45.938237"><ele>1321.75</ele></trkpt>
   <trkpt lon="6.867293" lat="45.938200"><ele>1321.75</ele></trkpt>
   <trkpt lon="6.867311" lat="45.938137"><ele>1321.0</ele></trkpt>
   <trkpt lon="6.867423" lat="45.937976"><ele>1317.0</ele></trkpt>
   <trkpt lon="6.867481" lat="45.937857"><ele>1316.5</ele></trkpt>
   <trkpt lon="6.867502" lat="45.937836"><ele>1315.75</ele></trkpt>
   <trkpt lon="6.867560" lat="45.937817"><ele>1313.75</ele></trkpt>
   <trkpt lon="6.867595" lat="45.937819"><ele>1312.25</ele></trkpt>
   <trkpt lon="6.867632" lat="45.937830"><ele>1310.5</ele></trkpt>
   <trkpt lon="6.867661" lat="45.937854"><ele>1308.75</ele></trkpt>
   <trkpt lon="6.867743" lat="45.937961"><ele>1304.25</ele></trkpt>
   <trkpt lon="6.867792" lat="45.938006"><ele>1302.0</ele></trkpt>
   <trkpt lon="6.867922" lat="45.938096"><ele>1298.25</ele></trkpt>
   <trkpt lon="6.867983" lat="45.938130"><ele>1297.0</ele></trkpt>
   <trkpt lon="6.868072" lat="45.938163"><ele>1295.0</ele></trkpt>
   <trkpt lon="6.868112" lat="45.938170"><ele>1294.0</ele></trkpt>
   <trkpt lon="6.868142" lat="45.938168"><ele>1293.25</ele></trkpt>
   <trkpt lon="6.868172" lat="45.938155"><ele>1292.25</ele></trkpt>
   <trkpt lon="6.868196" lat="45.938136"><ele>1291.25</ele></trkpt>
   <trkpt lon="6.868209" lat="45.938110"><ele>1290.5</ele></trkpt>
   <trkpt lon="6.868207" lat="45.937953"><ele>1289.0</ele></trkpt>
   <trkpt lon="6.868247" lat="45.937749"><ele>1286.5</ele></trkpt>
   <trkpt lon="6.868272" lat="45.937654"><ele>1286.5</ele></trkpt>
   <trkpt lon="6.868349" lat="45.937459"><ele>1285.75</ele></trkpt>
   <trkpt lon="6.868475" lat="45.937295"><ele>1286.0</ele></trkpt>
   <trkpt lon="6.868650" lat="45.937146"><ele>1284.0</ele></trkpt>
   <trkpt lon="6.868832" lat="45.936973"><ele>1284.25</ele></trkpt>
   <trkpt lon="6.868916" lat="45.936922"><ele>1282.5</ele></trkpt>
   <trkpt lon="6.869085" lat="45.936793"><ele>1278.25</ele></trkpt>
   <trkpt lon="6.869208" lat="45.936713"><ele>1273.75</ele></trkpt>
   <trkpt lon="6.869282" lat="45.936675"><ele>1271.0</ele></trkpt>
   <trkpt lon="6.869459" lat="45.936599"><ele>1261.5</ele></trkpt>
   <trkpt lon="6.869493" lat="45.936572"><ele>1259.25</ele></trkpt>
   <trkpt lon="6.869514" lat="45.936540"><ele>1258.0</ele></trkpt>
   <trkpt lon="6.869524" lat="45.936509"><ele>1257.0</ele></trkpt>
   <trkpt lon="6.869524" lat="45.936473"><ele>1256.5</ele></trkpt>
   <trkpt lon="6.869452" lat="45.936318"><ele>1257.75</ele></trkpt>
   <trkpt lon="6.869391" lat="45.936067"><ele>1254.25</ele></trkpt>
   <trkpt lon="6.869322" lat="45.935952"><ele>1254.25</ele></trkpt>
   <trkpt lon="6.869402" lat="45.935914"><ele>1248.25</ele></trkpt>
   <trkpt lon="6.869406" lat="45.935882"><ele>1246.75</ele></trkpt>
   <trkpt lon="6.869390" lat="45.935855"><ele>1246.75</ele></trkpt>
   <trkpt lon="6.869325" lat="45.935801"><ele>1248.5</ele></trkpt>
   <trkpt lon="6.869267" lat="45.935741"><ele>1249.5</ele></trkpt>
   <trkpt lon="6.869151" lat="45.935540"><ele>1248.0</ele></trkpt>
   <trkpt lon="6.869041" lat="45.935288"><ele>1243.0</ele></trkpt>
   <trkpt lon="6.868990" lat="45.935116"><ele>1237.25</ele></trkpt>
   <trkpt lon="6.868958" lat="45.935060"><ele>1236.25</ele></trkpt>
   <trkpt lon="6.868889" lat="45.934966"><ele>1235.0</ele></trkpt>
   <trkpt lon="6.868815" lat="45.934805"><ele>1229.25</ele></trkpt>
   <trkpt lon="6.868731" lat="45.934672"><ele>1225.0</ele></trkpt>
   <trkpt lon="6.868597" lat="45.934515"><ele>1221.25</ele></trkpt>
   <trkpt lon="6.868376" lat="45.934305"><ele>1218.0</ele></trkpt>
   <trkpt lon="6.868077" lat="45.933964"><ele>1212.0</ele></trkpt>
   <trkpt lon="6.868024" lat="45.933918"><ele>1211.5</ele></trkpt>
   <trkpt lon="6.867980" lat="45.933859"><ele>1210.25</ele></trkpt>
   <trkpt lon="6.867918" lat="45.933731"><ele>1207.75</ele></trkpt>
   <trkpt lon="6.867889" lat="45.933705"><ele>1207.5</ele></trkpt>
   <trkpt lon="6.867881" lat="45.933672"><ele>1206.5</ele></trkpt>
   <trkpt lon="6.867899" lat="45.933592"><ele>1203.5</ele></trkpt>
   <trkpt lon="6.867885" lat="45.933486"><ele>1201.25</ele></trkpt>
   <trkpt lon="6.867802" lat="45.933325"><ele>1200.0</ele></trkpt>
   <trkpt lon="6.867757" lat="45.933216"><ele>1198.75</ele></trkpt>
   <trkpt lon="6.867724" lat="45.933169"><ele>1199.0</ele></trkpt>
   <trkpt lon="6.867637" lat="45.933076"><ele>1200.5</ele></trkpt>
   <trkpt lon="6.867619" lat="45.933037"><ele>1200.25</ele></trkpt>
   <trkpt lon="6.867574" lat="45.932740"><ele>1196.75</ele></trkpt>
   <trkpt lon="6.867582" lat="45.932408"><ele>1188.5</ele></trkpt>
   <trkpt lon="6.867574" lat="45.932260"><ele>1183.5</ele></trkpt>
   <trkpt lon="6.867531" lat="45.932124"><ele>1181.25</ele></trkpt>
   <trkpt lon="6.867536" lat="45.932097"><ele>1180.0</ele></trkpt>
   <trkpt lon="6.867552" lat="45.932024"><ele>1176.75</ele></trkpt>
   <trkpt lon="6.867625" lat="45.931987"><ele>1172.0</ele></trkpt>
   <trkpt lon="6.867582" lat="45.931856"><ele>1170.0</ele></trkpt>
   <trkpt lon="6.867576" lat="45.931688"><ele>1164.75</ele></trkpt>
   <trkpt lon="6.867603" lat="45.931491"><ele>1156.75</ele></trkpt>
   <trkpt lon="6.867598" lat="45.931300"><ele>1150.25</ele></trkpt>
   <trkpt lon="6.867737" lat="45.931330"><ele>1145.75</ele></trkpt>
   <trkpt lon="6.867812" lat="45.931173"><ele>1137.5</ele></trkpt>
   <trkpt lon="6.867871" lat="45.930957"><ele>1128.5</ele></trkpt>
   <trkpt lon="6.867716" lat="45.930405"><ele>1116.0</ele></trkpt>
   <trkpt lon="6.867603" lat="45.930162"><ele>1111.5</ele></trkpt>
   <trkpt lon="6.867549" lat="45.929909"><ele>1104.25</ele></trkpt>
   <trkpt lon="6.867544" lat="45.929722"><ele>1097.5</ele></trkpt>
   <trkpt lon="6.867474" lat="45.929550"><ele>1092.0</ele></trkpt>
   <trkpt lon="6.867372" lat="45.929390"><ele>1088.25</ele></trkpt>
   <trkpt lon="6.867297" lat="45.929196"><ele>1083.0</ele></trkpt>
   <trkpt lon="6.867222" lat="45.929147"><ele>1083.0</ele></trkpt>
   <trkpt lon="6.867431" lat="45.929080"><ele>1075.75</ele></trkpt>
   <trkpt lon="6.867689" lat="45.929047"><ele>1069.25</ele></trkpt>
   <trkpt lon="6.867737" lat="45.928976"><ele>1066.25</ele></trkpt>
   <trkpt lon="6.867735" lat="45.928851"><ele>1062.75</ele></trkpt>
   <trkpt lon="6.867713" lat="45.928754"><ele>1060.5</ele></trkpt>
   <trkpt lon="6.867790" lat="45.928588"><ele>1055.5</ele></trkpt>
   <trkpt lon="6.867629" lat="45.928565"><ele>1056.75</ele></trkpt>
   <trkpt lon="6.867461" lat="45.928529"><ele>1057.75</ele></trkpt>
   <trkpt lon="6.867195" lat="45.928397"><ele>1058.0</ele></trkpt>
   <trkpt lon="6.867121" lat="45.928350"><ele>1057.75</ele></trkpt>
   <trkpt lon="6.867251" lat="45.928288"><ele>1054.75</ele></trkpt>
   <trkpt lon="6.867446" lat="45.928249"><ele>1052.25</ele></trkpt>
   <trkpt lon="6.867482" lat="45.928226"><ele>1051.5</ele></trkpt>
   <trkpt lon="6.867798" lat="45.927452"><ele>1045.75</ele></trkpt>
   <trkpt lon="6.867846" lat="45.927370"><ele>1045.5</ele></trkpt>
   <trkpt lon="6.867860" lat="45.927270"><ele>1045.25</ele></trkpt>
   <trkpt lon="6.867878" lat="45.927159"><ele>1045.0</ele></trkpt>
   <trkpt lon="6.867866" lat="45.927003"><ele>1044.75</ele></trkpt>
   <trkpt lon="6.867818" lat="45.926756"><ele>1044.75</ele></trkpt>
   <trkpt lon="6.867833" lat="45.926609"><ele>1045.25</ele></trkpt>
   <trkpt lon="6.867908" lat="45.926567"><ele>1045.25</ele></trkpt>
   <trkpt lon="6.867863" lat="45.926427"><ele>1046.0</ele></trkpt>
   <trkpt lon="6.867811" lat="45.926225"><ele>1047.25</ele></trkpt>
   <trkpt lon="6.867752" lat="45.926160"><ele>1047.75</ele></trkpt>
   <trkpt lon="6.867892" lat="45.926139"><ele>1047.25</ele></trkpt>
   <trkpt lon="6.868104" lat="45.925953"><ele>1046.5</ele></trkpt>
   <trkpt lon="6.868193" lat="45.925882"><ele>1046.0</ele></trkpt>
   <trkpt lon="6.868240" lat="45.925775"><ele>1045.5</ele></trkpt>
   <trkpt lon="6.868281" lat="45.925596"><ele>1045.25</ele></trkpt>
   <trkpt lon="6.868232" lat="45.925479"><ele>1045.25</ele></trkpt>
   <trkpt lon="6.868168" lat="45.925410"><ele>1045.5</ele></trkpt>
   <trkpt lon="6.868146" lat="45.925374"><ele>1045.5</ele></trkpt>
   <trkpt lon="6.868206" lat="45.925363"><ele>1045.0</ele></trkpt>
   <trkpt lon="6.868175" lat="45.925298"><ele>1045.0</ele></trkpt>
   <trkpt lon="6.868661" lat="45.925186"><ele>1041.75</ele></trkpt>
   <trkpt lon="6.868742" lat="45.925171"><ele>1041.5</ele></trkpt>
   <trkpt lon="6.868602" lat="45.924875"><ele>1041.5</ele></trkpt>
   <trkpt lon="6.868501" lat="45.924620"><ele>1041.5</ele></trkpt>
   <trkpt lon="6.868369" lat="45.924372"><ele>1041.5</ele></trkpt>
   <trkpt lon="6.868299" lat="45.924312"><ele>1041.5</ele></trkpt>
   <trkpt lon="6.868225" lat="45.924280"><ele>1041.75</ele></trkpt>
   <trkpt lon="6.868218" lat="45.924175"><ele>1041.25</ele></trkpt>
   <trkpt lon="6.868207" lat="45.924157"><ele>1041.25</ele></trkpt>
   <trkpt lon="6.868189" lat="45.924148"><ele>1041.25</ele></trkpt>
   <trkpt lon="6.868238" lat="45.924099"><ele>1041.0</ele></trkpt>
   <trkpt lon="6.868342" lat="45.924016"><ele>1040.25</ele></trkpt>
   <trkpt lon="6.868479" lat="45.923986"><ele>1039.75</ele></trkpt>
   <trkpt lon="6.868536" lat="45.923980"><ele>1039.5</ele></trkpt>
   <trkpt lon="6.868735" lat="45.923997"><ele>1038.25</ele></trkpt>
   <trkpt lon="6.868788" lat="45.923992"><ele>1038.0</ele></trkpt>
   <trkpt lon="6.868896" lat="45.923964"><ele>1037.0</ele></trkpt>
   <trkpt lon="6.868952" lat="45.923962"><ele>1037.0</ele></trkpt>
  </trkseg>
  </trk>
</gpx>
