<?xml version="1.0" encoding="UTF-8"?>
<gpx xmlns="http://www.topografix.com/GPX/1/1" xmlns:xsi="http://www.w3.org/2001/XMLSchema-instance" xsi:schemaLocation="http://www.topografix.com/GPX/1/1 http://www.topografix.com/GPX/1/1/gpx.xsd" version="1.1" creator="tmb2027 build-gpx (BRouter hiking-mountain)">
  <metadata>
    <name>TMB 2027 Day 4 · Mottets → Col de la Seigne → Rifugio Elisabetta → Lac Combal → Rifugio Maison Vieille</name>
    <desc>모테 → 콜 드 라 세뉴 → 엘리자베타 → 콩발 호수 → 메종 비에유 · 경유 3지점 · 참고용 산길 경로. 실제 길 찾기는 공식 지도·현장 표지 우선.</desc>
    <copyright author="OpenStreetMap contributors"><license>https://www.openstreetmap.org/copyright</license></copyright>
    <link href="https://brouter.de/"><text>Routing: BRouter hiking-mountain</text></link>
    <time>2026-09-18T00:00:00Z</time>
  </metadata>
  <wpt lat="45.729" lon="6.79"><ele>1870</ele><name>Refuge des Mottets</name><type>lodging</type></wpt>
  <wpt lat="45.75" lon="6.808"><ele>2516</ele><name>Col de la Seigne</name><type>pass</type></wpt>
  <wpt lat="45.763" lon="6.826"><ele>2195</ele><name>Rifugio Elisabetta</name><type>waypoint</type></wpt>
  <wpt lat="45.775" lon="6.856"><ele>1950</ele><name>Lac Combal</name><type>waypoint</type></wpt>
  <wpt lat="45.7845" lon="6.95"><ele>1956</ele><name>Col Chécrouit</name><type>pass</type></wpt>
  <wpt lat="45.786" lon="6.931"><ele>1956</ele><name>Rifugio Maison Vieille</name><type>lodging</type></wpt>
  <trk>
    <name>TMB 2027 Day 4 · Mottets → Col de la Seigne → Rifugio Elisabetta → Lac Combal → Rifugio Maison Vieille</name>
    <trkseg>
   <trkpt lon="6.782467" lat="45.730555"><ele>2112.5</ele></trkpt>
   <trkpt lon="6.782518" lat="45.730679"><ele>2109.75</ele></trkpt>
   <trkpt lon="6.782546" lat="45.730804"><ele>2106.25</ele></trkpt>
   <trkpt lon="6.782606" lat="45.730861"><ele>2105.75</ele></trkpt>
   <trkpt lon="6.782601" lat="45.730916"><ele>2103.25</ele></trkpt>
   <trkpt lon="6.782611" lat="45.730989"><ele>2100.75</ele></trkpt>
   <trkpt lon="6.782670" lat="45.731029"><ele>2102.75</ele></trkpt>
   <trkpt lon="6.782641" lat="45.731056"><ele>2100.0</ele></trkpt>
   <trkpt lon="6.782572" lat="45.731023"><ele>2096.75</ele></trkpt>
   <trkpt lon="6.782469" lat="45.731015"><ele>2091.25</ele></trkpt>
   <trkpt lon="6.782512" lat="45.731282"><ele>2079.5</ele></trkpt>
   <trkpt lon="6.782581" lat="45.731457"><ele>2075.75</ele></trkpt>
   <trkpt lon="6.782721" lat="45.731591"><ele>2078.0</ele></trkpt>
   <trkpt lon="6.782759" lat="45.731697"><ele>2076.25</ele></trkpt>
   <trkpt lon="6.782871" lat="45.731847"><ele>2075.0</ele></trkpt>
   <trkpt lon="6.782969" lat="45.731932"><ele>2074.75</ele></trkpt>
   <trkpt lon="6.783085" lat="45.732070"><ele>2072.75</ele></trkpt>
   <trkpt lon="6.783201" lat="45.732245"><ele>2069.5</ele></trkpt>
   <trkpt lon="6.783281" lat="45.732345"><ele>2067.0</ele></trkpt>
   <trkpt lon="6.783340" lat="45.732609"><ele>2058.25</ele></trkpt>
   <trkpt lon="6.783382" lat="45.732700"><ele>2056.25</ele></trkpt>
   <trkpt lon="6.783369" lat="45.732763"><ele>2054.25</ele></trkpt>
   <trkpt lon="6.783267" lat="45.732850"><ele>2048.0</ele></trkpt>
   <trkpt lon="6.783590" lat="45.732865"><ele>2047.75</ele></trkpt>
   <trkpt lon="6.783768" lat="45.732893"><ele>2046.0</ele></trkpt>
   <trkpt lon="6.783912" lat="45.732939"><ele>2043.75</ele></trkpt>
   <trkpt lon="6.783944" lat="45.732985"><ele>2041.5</ele></trkpt>
   <trkpt lon="6.784033" lat="45.733049"><ele>2038.75</ele></trkpt>
   <trkpt lon="6.784130" lat="45.733141"><ele>2035.25</ele></trkpt>
   <trkpt lon="6.784123" lat="45.733172"><ele>2033.5</ele></trkpt>
   <trkpt lon="6.784075" lat="45.733179"><ele>2032.75</ele></trkpt>
   <trkpt lon="6.784094" lat="45.733214"><ele>2031.0</ele></trkpt>
   <trkpt lon="6.784235" lat="45.733301"><ele>2030.5</ele></trkpt>
   <trkpt lon="6.784490" lat="45.733604"><ele>2025.25</ele></trkpt>
   <trkpt lon="6.784468" lat="45.733698"><ele>2019.25</ele></trkpt>
   <trkpt lon="6.784413" lat="45.733732"><ele>2016.25</ele></trkpt>
   <trkpt lon="6.784518" lat="45.733895"><ele>2008.75</ele></trkpt>
   <trkpt lon="6.784575" lat="45.733922"><ele>2009.75</ele></trkpt>
   <trkpt lon="6.784636" lat="45.733937"><ele>2010.5</ele></trkpt>
   <trkpt lon="6.784685" lat="45.733949"><ele>2011.5</ele></trkpt>
   <trkpt lon="6.784718" lat="45.734083"><ele>2014.25</ele></trkpt>
   <trkpt lon="6.784623" lat="45.734092"><ele>2012.5</ele></trkpt>
   <trkpt lon="6.784493" lat="45.734149"><ele>2010.0</ele></trkpt>
   <trkpt lon="6.784379" lat="45.734228"><ele>2011.5</ele></trkpt>
   <trkpt lon="6.784032" lat="45.734406"><ele>2014.5</ele></trkpt>
   <trkpt lon="6.783917" lat="45.734553"><ele>2019.75</ele></trkpt>
   <trkpt lon="6.783562" lat="45.734714"><ele>2028.5</ele></trkpt>
   <trkpt lon="6.783627" lat="45.734826"><ele>2035.75</ele></trkpt>
   <trkpt lon="6.783007" lat="45.734822"><ele>2031.75</ele></trkpt>
   <trkpt lon="6.782916" lat="45.734890"><ele>2031.25</ele></trkpt>
   <trkpt lon="6.782875" lat="45.734946"><ele>2031.0</ele></trkpt>
   <trkpt lon="6.782868" lat="45.735001"><ele>2031.75</ele></trkpt>
   <trkpt lon="6.782902" lat="45.735094"><ele>2032.0</ele></trkpt>
   <trkpt lon="6.782939" lat="45.735149"><ele>2032.75</ele></trkpt>
   <trkpt lon="6.783026" lat="45.735247"><ele>2035.0</ele></trkpt>
   <trkpt lon="6.783133" lat="45.735338"><ele>2038.0</ele></trkpt>
   <trkpt lon="6.783343" lat="45.735504"><ele>2042.75</ele></trkpt>
   <trkpt lon="6.783504" lat="45.735602"><ele>2045.25</ele></trkpt>
   <trkpt lon="6.783734" lat="45.735673"><ele>2050.25</ele></trkpt>
   <trkpt lon="6.783964" lat="45.735729"><ele>2054.75</ele></trkpt>
   <trkpt lon="6.784175" lat="45.735760"><ele>2058.0</ele></trkpt>
   <trkpt lon="6.784235" lat="45.735788"><ele>2059.0</ele></trkpt>
   <trkpt lon="6.784443" lat="45.735961"><ele>2064.75</ele></trkpt>
   <trkpt lon="6.784440" lat="45.736009"><ele>2064.75</ele></trkpt>
   <trkpt lon="6.784404" lat="45.736087"><ele>2063.75</ele></trkpt>
   <trkpt lon="6.784388" lat="45.736151"><ele>2063.75</ele></trkpt>
   <trkpt lon="6.784408" lat="45.736202"><ele>2064.5</ele></trkpt>
   <trkpt lon="6.784447" lat="45.736221"><ele>2065.75</ele></trkpt>
   <trkpt lon="6.784505" lat="45.736230"><ele>2067.25</ele></trkpt>
   <trkpt lon="6.784528" lat="45.736262"><ele>2068.0</ele></trkpt>
   <trkpt lon="6.784603" lat="45.736300"><ele>2070.0</ele></trkpt>
   <trkpt lon="6.784663" lat="45.736436"><ele>2071.75</ele></trkpt>
   <trkpt lon="6.784711" lat="45.736487"><ele>2073.0</ele></trkpt>
   <trkpt lon="6.784720" lat="45.736544"><ele>2073.5</ele></trkpt>
   <trkpt lon="6.784703" lat="45.736569"><ele>2073.0</ele></trkpt>
   <trkpt lon="6.784663" lat="45.736587"><ele>2072.25</ele></trkpt>
   <trkpt lon="6.784654" lat="45.736615"><ele>2072.0</ele></trkpt>
   <trkpt lon="6.784660" lat="45.736649"><ele>2072.25</ele></trkpt>
   <trkpt lon="6.784677" lat="45.736665"><ele>2072.75</ele></trkpt>
   <trkpt lon="6.784703" lat="45.736737"><ele>2074.0</ele></trkpt>
   <trkpt lon="6.784763" lat="45.736794"><ele>2075.75</ele></trkpt>
   <trkpt lon="6.784846" lat="45.736847"><ele>2077.75</ele></trkpt>
   <trkpt lon="6.784866" lat="45.736875"><ele>2078.5</ele></trkpt>
   <trkpt lon="6.784871" lat="45.736963"><ele>2079.0</ele></trkpt>
   <trkpt lon="6.784913" lat="45.737046"><ele>2080.25</ele></trkpt>
   <trkpt lon="6.784959" lat="45.737103"><ele>2081.5</ele></trkpt>
   <trkpt lon="6.785032" lat="45.737272"><ele>2083.75</ele></trkpt>
   <trkpt lon="6.785066" lat="45.737301"><ele>2084.75</ele></trkpt>
   <trkpt lon="6.785105" lat="45.737364"><ele>2085.75</ele></trkpt>
   <trkpt lon="6.785223" lat="45.737476"><ele>2088.75</ele></trkpt>
   <trkpt lon="6.785273" lat="45.737503"><ele>2089.75</ele></trkpt>
   <trkpt lon="6.785397" lat="45.737523"><ele>2092.25</ele></trkpt>
   <trkpt lon="6.785437" lat="45.737542"><ele>2093.25</ele></trkpt>
   <trkpt lon="6.785536" lat="45.737635"><ele>2096.5</ele></trkpt>
   <trkpt lon="6.785641" lat="45.737714"><ele>2098.75</ele></trkpt>
   <trkpt lon="6.785718" lat="45.737788"><ele>2100.25</ele></trkpt>
   <trkpt lon="6.785771" lat="45.737873"><ele>2102.5</ele></trkpt>
   <trkpt lon="6.785950" lat="45.738312"><ele>2111.75</ele></trkpt>
   <trkpt lon="6.786027" lat="45.738442"><ele>2113.25</ele></trkpt>
   <trkpt lon="6.786074" lat="45.738502"><ele>2115.25</ele></trkpt>
   <trkpt lon="6.786106" lat="45.738508"><ele>2116.5</ele></trkpt>
   <trkpt lon="6.786218" lat="45.738469"><ele>2118.5</ele></trkpt>
   <trkpt lon="6.786234" lat="45.738491"><ele>2119.5</ele></trkpt>
   <trkpt lon="6.786234" lat="45.738526"><ele>2120.0</ele></trkpt>
   <trkpt lon="6.786257" lat="45.738571"><ele>2121.75</ele></trkpt>
   <trkpt lon="6.786319" lat="45.738657"><ele>2124.5</ele></trkpt>
   <trkpt lon="6.786384" lat="45.738708"><ele>2127.25</ele></trkpt>
   <trkpt lon="6.786502" lat="45.738765"><ele>2129.0</ele></trkpt>
   <trkpt lon="6.786528" lat="45.738786"><ele>2129.75</ele></trkpt>
   <trkpt lon="6.786600" lat="45.738859"><ele>2132.0</ele></trkpt>
   <trkpt lon="6.786649" lat="45.738936"><ele>2132.0</ele></trkpt>
   <trkpt lon="6.786694" lat="45.738973"><ele>2132.0</ele></trkpt>
   <trkpt lon="6.786816" lat="45.739036"><ele>2131.75</ele></trkpt>
   <trkpt lon="6.786855" lat="45.739039"><ele>2132.25</ele></trkpt>
   <trkpt lon="6.787036" lat="45.739016"><ele>2136.25</ele></trkpt>
   <trkpt lon="6.787172" lat="45.739025"><ele>2138.5</ele></trkpt>
   <trkpt lon="6.787234" lat="45.739016"><ele>2140.25</ele></trkpt>
   <trkpt lon="6.787296" lat="45.739022"><ele>2141.75</ele></trkpt>
   <trkpt lon="6.787401" lat="45.739065"><ele>2143.25</ele></trkpt>
   <trkpt lon="6.787505" lat="45.739134"><ele>2144.75</ele></trkpt>
   <trkpt lon="6.787553" lat="45.739146"><ele>2145.75</ele></trkpt>
   <trkpt lon="6.787663" lat="45.739190"><ele>2146.75</ele></trkpt>
   <trkpt lon="6.787720" lat="45.739223"><ele>2147.0</ele></trkpt>
   <trkpt lon="6.787762" lat="45.739259"><ele>2147.25</ele></trkpt>
   <trkpt lon="6.787803" lat="45.739275"><ele>2147.5</ele></trkpt>
   <trkpt lon="6.787885" lat="45.739289"><ele>2147.5</ele></trkpt>
   <trkpt lon="6.787990" lat="45.739354"><ele>2145.5</ele></trkpt>
   <trkpt lon="6.788049" lat="45.739367"><ele>2145.25</ele></trkpt>
   <trkpt lon="6.788110" lat="45.739391"><ele>2144.0</ele></trkpt>
   <trkpt lon="6.788167" lat="45.739398"><ele>2143.5</ele></trkpt>
   <trkpt lon="6.788312" lat="45.739374"><ele>2144.5</ele></trkpt>
   <trkpt lon="6.788442" lat="45.739376"><ele>2146.25</ele></trkpt>
   <trkpt lon="6.788471" lat="45.739387"><ele>2146.25</ele></trkpt>
   <trkpt lon="6.788483" lat="45.739405"><ele>2145.5</ele></trkpt>
   <trkpt lon="6.788480" lat="45.739430"><ele>2144.25</ele></trkpt>
   <trkpt lon="6.788492" lat="45.739447"><ele>2143.5</ele></trkpt>
   <trkpt lon="6.788593" lat="45.739470"><ele>2144.25</ele></trkpt>
   <trkpt lon="6.788741" lat="45.739537"><ele>2143.25</ele></trkpt>
   <trkpt lon="6.788830" lat="45.739555"><ele>2144.0</ele></trkpt>
   <trkpt lon="6.788886" lat="45.739581"><ele>2143.5</ele></trkpt>
   <trkpt lon="6.788966" lat="45.739602"><ele>2142.75</ele></trkpt>
   <trkpt lon="6.789114" lat="45.739620"><ele>2143.0</ele></trkpt>
   <trkpt lon="6.789194" lat="45.739637"><ele>2142.75</ele></trkpt>
   <trkpt lon="6.789244" lat="45.739639"><ele>2143.5</ele></trkpt>
   <trkpt lon="6.789289" lat="45.739652"><ele>2143.5</ele></trkpt>
   <trkpt lon="6.789316" lat="45.739681"><ele>2142.5</ele></trkpt>
   <trkpt lon="6.789370" lat="45.739712"><ele>2142.0</ele></trkpt>
   <trkpt lon="6.789429" lat="45.739736"><ele>2143.25</ele></trkpt>
   <trkpt lon="6.789452" lat="45.739772"><ele>2145.25</ele></trkpt>
   <trkpt lon="6.789444" lat="45.739801"><ele>2146.25</ele></trkpt>
   <trkpt lon="6.789309" lat="45.739889"><ele>2146.25</ele></trkpt>
   <trkpt lon="6.789287" lat="45.739921"><ele>2146.5</ele></trkpt>
   <trkpt lon="6.789236" lat="45.739957"><ele>2146.0</ele></trkpt>
   <trkpt lon="6.789199" lat="45.739995"><ele>2146.0</ele></trkpt>
   <trkpt lon="6.789166" lat="45.740089"><ele>2146.75</ele></trkpt>
   <trkpt lon="6.789173" lat="45.740146"><ele>2148.25</ele></trkpt>
   <trkpt lon="6.789210" lat="45.740223"><ele>2151.0</ele></trkpt>
   <trkpt lon="6.789140" lat="45.740358"><ele>2153.25</ele></trkpt>
   <trkpt lon="6.789144" lat="45.740385"><ele>2154.25</ele></trkpt>
   <trkpt lon="6.789199" lat="45.740459"><ele>2158.25</ele></trkpt>
   <trkpt lon="6.789193" lat="45.740490"><ele>2159.25</ele></trkpt>
   <trkpt lon="6.789169" lat="45.740518"><ele>2159.5</ele></trkpt>
   <trkpt lon="6.789106" lat="45.740538"><ele>2159.25</ele></trkpt>
   <trkpt lon="6.789078" lat="45.740558"><ele>2159.5</ele></trkpt>
   <trkpt lon="6.789074" lat="45.740587"><ele>2159.0</ele></trkpt>
   <trkpt lon="6.789087" lat="45.740648"><ele>2158.0</ele></trkpt>
   <trkpt lon="6.789188" lat="45.740709"><ele>2160.0</ele></trkpt>
   <trkpt lon="6.789246" lat="45.740793"><ele>2161.25</ele></trkpt>
   <trkpt lon="6.789246" lat="45.740871"><ele>2161.0</ele></trkpt>
   <trkpt lon="6.789254" lat="45.740933"><ele>2161.25</ele></trkpt>
   <trkpt lon="6.789269" lat="45.740979"><ele>2161.75</ele></trkpt>
   <trkpt lon="6.789372" lat="45.741115"><ele>2164.75</ele></trkpt>
   <trkpt lon="6.789397" lat="45.741133"><ele>2165.25</ele></trkpt>
   <trkpt lon="6.789435" lat="45.741145"><ele>2166.0</ele></trkpt>
   <trkpt lon="6.789476" lat="45.741173"><ele>2166.75</ele></trkpt>
   <trkpt lon="6.789514" lat="45.741211"><ele>2167.0</ele></trkpt>
   <trkpt lon="6.789651" lat="45.741268"><ele>2169.0</ele></trkpt>
   <trkpt lon="6.789688" lat="45.741300"><ele>2169.5</ele></trkpt>
   <trkpt lon="6.789728" lat="45.741313"><ele>2170.0</ele></trkpt>
   <trkpt lon="6.789776" lat="45.741353"><ele>2170.5</ele></trkpt>
   <trkpt lon="6.789862" lat="45.741403"><ele>2171.25</ele></trkpt>
   <trkpt lon="6.789963" lat="45.741449"><ele>2171.25</ele></trkpt>
   <trkpt lon="6.790050" lat="45.741458"><ele>2172.5</ele></trkpt>
   <trkpt lon="6.790086" lat="45.741451"><ele>2173.5</ele></trkpt>
   <trkpt lon="6.790304" lat="45.741450"><ele>2177.75</ele></trkpt>
   <trkpt lon="6.790473" lat="45.741501"><ele>2179.5</ele></trkpt>
   <trkpt lon="6.790624" lat="45.741535"><ele>2182.25</ele></trkpt>
   <trkpt lon="6.790706" lat="45.741562"><ele>2183.75</ele></trkpt>
   <trkpt lon="6.790862" lat="45.741627"><ele>2186.5</ele></trkpt>
   <trkpt lon="6.790979" lat="45.741659"><ele>2187.75</ele></trkpt>
   <trkpt lon="6.791117" lat="45.741710"><ele>2189.0</ele></trkpt>
   <trkpt lon="6.791372" lat="45.741867"><ele>2191.0</ele></trkpt>
   <trkpt lon="6.791397" lat="45.741885"><ele>2191.0</ele></trkpt>
   <trkpt lon="6.791416" lat="45.741915"><ele>2191.0</ele></trkpt>
   <trkpt lon="6.791419" lat="45.741933"><ele>2190.75</ele></trkpt>
   <trkpt lon="6.791451" lat="45.741947"><ele>2191.0</ele></trkpt>
   <trkpt lon="6.791679" lat="45.741958"><ele>2195.25</ele></trkpt>
   <trkpt lon="6.791848" lat="45.741990"><ele>2199.5</ele></trkpt>
   <trkpt lon="6.791869" lat="45.741983"><ele>2199.75</ele></trkpt>
   <trkpt lon="6.792039" lat="45.741981"><ele>2203.25</ele></trkpt>
   <trkpt lon="6.792102" lat="45.741942"><ele>2204.25</ele></trkpt>
   <trkpt lon="6.792147" lat="45.741967"><ele>2205.5</ele></trkpt>
   <trkpt lon="6.792176" lat="45.742005"><ele>2206.25</ele></trkpt>
   <trkpt lon="6.792208" lat="45.742030"><ele>2207.0</ele></trkpt>
   <trkpt lon="6.792283" lat="45.742077"><ele>2208.75</ele></trkpt>
   <trkpt lon="6.792322" lat="45.742150"><ele>2210.5</ele></trkpt>
   <trkpt lon="6.792351" lat="45.742187"><ele>2211.75</ele></trkpt>
   <trkpt lon="6.792422" lat="45.742258"><ele>2214.75</ele></trkpt>
   <trkpt lon="6.792478" lat="45.742290"><ele>2216.75</ele></trkpt>
   <trkpt lon="6.792575" lat="45.742370"><ele>2220.25</ele></trkpt>
   <trkpt lon="6.792588" lat="45.742389"><ele>2220.75</ele></trkpt>
   <trkpt lon="6.792589" lat="45.742454"><ele>2221.5</ele></trkpt>
   <trkpt lon="6.792621" lat="45.742498"><ele>2223.25</ele></trkpt>
   <trkpt lon="6.792743" lat="45.742586"><ele>2228.5</ele></trkpt>
   <trkpt lon="6.792829" lat="45.742621"><ele>2230.25</ele></trkpt>
   <trkpt lon="6.792879" lat="45.742665"><ele>2230.75</ele></trkpt>
   <trkpt lon="6.792870" lat="45.742702"><ele>2230.75</ele></trkpt>
   <trkpt lon="6.792914" lat="45.742726"><ele>2230.75</ele></trkpt>
   <trkpt lon="6.792958" lat="45.742764"><ele>2231.0</ele></trkpt>
   <trkpt lon="6.792992" lat="45.742808"><ele>2231.5</ele></trkpt>
   <trkpt lon="6.792985" lat="45.742892"><ele>2233.5</ele></trkpt>
   <trkpt lon="6.792924" lat="45.742928"><ele>2234.0</ele></trkpt>
   <trkpt lon="6.792912" lat="45.742944"><ele>2234.25</ele></trkpt>
   <trkpt lon="6.792918" lat="45.742965"><ele>2234.5</ele></trkpt>
   <trkpt lon="6.792942" lat="45.742979"><ele>2235.0</ele></trkpt>
   <trkpt lon="6.793123" lat="45.743016"><ele>2237.25</ele></trkpt>
   <trkpt lon="6.793168" lat="45.743046"><ele>2238.0</ele></trkpt>
   <trkpt lon="6.793217" lat="45.743167"><ele>2241.25</ele></trkpt>
   <trkpt lon="6.793248" lat="45.743196"><ele>2242.0</ele></trkpt>
   <trkpt lon="6.793289" lat="45.743221"><ele>2243.0</ele></trkpt>
   <trkpt lon="6.793323" lat="45.743264"><ele>2244.0</ele></trkpt>
   <trkpt lon="6.793323" lat="45.743334"><ele>2245.75</ele></trkpt>
   <trkpt lon="6.793264" lat="45.743366"><ele>2246.75</ele></trkpt>
   <trkpt lon="6.793252" lat="45.743396"><ele>2247.75</ele></trkpt>
   <trkpt lon="6.793232" lat="45.743493"><ele>2251.25</ele></trkpt>
   <trkpt lon="6.793211" lat="45.743509"><ele>2252.0</ele></trkpt>
   <trkpt lon="6.793170" lat="45.743512"><ele>2252.25</ele></trkpt>
   <trkpt lon="6.793047" lat="45.743501"><ele>2252.5</ele></trkpt>
   <trkpt lon="6.792997" lat="45.743511"><ele>2251.25</ele></trkpt>
   <trkpt lon="6.792975" lat="45.743532"><ele>2251.25</ele></trkpt>
   <trkpt lon="6.792961" lat="45.743611"><ele>2254.25</ele></trkpt>
   <trkpt lon="6.792967" lat="45.743697"><ele>2256.5</ele></trkpt>
   <trkpt lon="6.792949" lat="45.743722"><ele>2256.5</ele></trkpt>
   <trkpt lon="6.792834" lat="45.743797"><ele>2256.0</ele></trkpt>
   <trkpt lon="6.792769" lat="45.743822"><ele>2256.0</ele></trkpt>
   <trkpt lon="6.792695" lat="45.743838"><ele>2256.5</ele></trkpt>
   <trkpt lon="6.792662" lat="45.743859"><ele>2257.5</ele></trkpt>
   <trkpt lon="6.792622" lat="45.743874"><ele>2258.0</ele></trkpt>
   <trkpt lon="6.792582" lat="45.743874"><ele>2258.0</ele></trkpt>
   <trkpt lon="6.792535" lat="45.743898"><ele>2259.5</ele></trkpt>
   <trkpt lon="6.792409" lat="45.743925"><ele>2260.5</ele></trkpt>
   <trkpt lon="6.792374" lat="45.743918"><ele>2260.0</ele></trkpt>
   <trkpt lon="6.792345" lat="45.743923"><ele>2260.25</ele></trkpt>
   <trkpt lon="6.792174" lat="45.744000"><ele>2262.25</ele></trkpt>
   <trkpt lon="6.792098" lat="45.744098"><ele>2265.0</ele></trkpt>
   <trkpt lon="6.792036" lat="45.744144"><ele>2265.75</ele></trkpt>
   <trkpt lon="6.791931" lat="45.744252"><ele>2269.0</ele></trkpt>
   <trkpt lon="6.791902" lat="45.744295"><ele>2270.5</ele></trkpt>
   <trkpt lon="6.791809" lat="45.744395"><ele>2273.25</ele></trkpt>
   <trkpt lon="6.791709" lat="45.744590"><ele>2277.25</ele></trkpt>
   <trkpt lon="6.791686" lat="45.744651"><ele>2278.5</ele></trkpt>
   <trkpt lon="6.791624" lat="45.744743"><ele>2279.5</ele></trkpt>
   <trkpt lon="6.791564" lat="45.744808"><ele>2280.25</ele></trkpt>
   <trkpt lon="6.791546" lat="45.744844"><ele>2280.75</ele></trkpt>
   <trkpt lon="6.791520" lat="45.744942"><ele>2283.0</ele></trkpt>
   <trkpt lon="6.791520" lat="45.745018"><ele>2285.25</ele></trkpt>
   <trkpt lon="6.791487" lat="45.745059"><ele>2285.5</ele></trkpt>
   <trkpt lon="6.791347" lat="45.745166"><ele>2286.5</ele></trkpt>
   <trkpt lon="6.791322" lat="45.745197"><ele>2287.25</ele></trkpt>
   <trkpt lon="6.791318" lat="45.745237"><ele>2288.5</ele></trkpt>
   <trkpt lon="6.791328" lat="45.745305"><ele>2290.25</ele></trkpt>
   <trkpt lon="6.791367" lat="45.745361"><ele>2291.5</ele></trkpt>
   <trkpt lon="6.791418" lat="45.745483"><ele>2294.75</ele></trkpt>
   <trkpt lon="6.791451" lat="45.745626"><ele>2297.75</ele></trkpt>
   <trkpt lon="6.791454" lat="45.745683"><ele>2298.75</ele></trkpt>
   <trkpt lon="6.791482" lat="45.745735"><ele>2299.75</ele></trkpt>
   <trkpt lon="6.791597" lat="45.745818"><ele>2302.75</ele></trkpt>
   <trkpt lon="6.791678" lat="45.745905"><ele>2303.75</ele></trkpt>
   <trkpt lon="6.791752" lat="45.745972"><ele>2304.75</ele></trkpt>
   <trkpt lon="6.791819" lat="45.746006"><ele>2305.75</ele></trkpt>
   <trkpt lon="6.791889" lat="45.746024"><ele>2307.0</ele></trkpt>
   <trkpt lon="6.791941" lat="45.746023"><ele>2307.75</ele></trkpt>
   <trkpt lon="6.792035" lat="45.746036"><ele>2309.5</ele></trkpt>
   <trkpt lon="6.792114" lat="45.746005"><ele>2311.0</ele></trkpt>
   <trkpt lon="6.792152" lat="45.746014"><ele>2311.5</ele></trkpt>
   <trkpt lon="6.792188" lat="45.746033"><ele>2312.25</ele></trkpt>
   <trkpt lon="6.792336" lat="45.746056"><ele>2314.75</ele></trkpt>
   <trkpt lon="6.792435" lat="45.746060"><ele>2316.5</ele></trkpt>
   <trkpt lon="6.792517" lat="45.746081"><ele>2318.0</ele></trkpt>
   <trkpt lon="6.792570" lat="45.746082"><ele>2319.0</ele></trkpt>
   <trkpt lon="6.792657" lat="45.746099"><ele>2320.5</ele></trkpt>
   <trkpt lon="6.792757" lat="45.746148"><ele>2322.25</ele></trkpt>
   <trkpt lon="6.792855" lat="45.746176"><ele>2323.5</ele></trkpt>
   <trkpt lon="6.792972" lat="45.746224"><ele>2325.25</ele></trkpt>
   <trkpt lon="6.793054" lat="45.746248"><ele>2326.25</ele></trkpt>
   <trkpt lon="6.793160" lat="45.746263"><ele>2328.0</ele></trkpt>
   <trkpt lon="6.793261" lat="45.746260"><ele>2329.75</ele></trkpt>
   <trkpt lon="6.793430" lat="45.746297"><ele>2332.5</ele></trkpt>
   <trkpt lon="6.793571" lat="45.746346"><ele>2335.25</ele></trkpt>
   <trkpt lon="6.793709" lat="45.746415"><ele>2337.25</ele></trkpt>
   <trkpt lon="6.793763" lat="45.746459"><ele>2337.75</ele></trkpt>
   <trkpt lon="6.793982" lat="45.746564"><ele>2340.75</ele></trkpt>
   <trkpt lon="6.794308" lat="45.746659"><ele>2346.5</ele></trkpt>
   <trkpt lon="6.794429" lat="45.746701"><ele>2348.5</ele></trkpt>
   <trkpt lon="6.794530" lat="45.746708"><ele>2350.25</ele></trkpt>
   <trkpt lon="6.794613" lat="45.746736"><ele>2351.75</ele></trkpt>
   <trkpt lon="6.794878" lat="45.746799"><ele>2356.0</ele></trkpt>
   <trkpt lon="6.795068" lat="45.746863"><ele>2358.75</ele></trkpt>
   <trkpt lon="6.795341" lat="45.747004"><ele>2362.5</ele></trkpt>
   <trkpt lon="6.795498" lat="45.747096"><ele>2364.25</ele></trkpt>
   <trkpt lon="6.795577" lat="45.747154"><ele>2365.0</ele></trkpt>
   <trkpt lon="6.795655" lat="45.747179"><ele>2366.0</ele></trkpt>
   <trkpt lon="6.795882" lat="45.747297"><ele>2368.25</ele></trkpt>
   <trkpt lon="6.795971" lat="45.747331"><ele>2369.25</ele></trkpt>
   <trkpt lon="6.796226" lat="45.747378"><ele>2373.0</ele></trkpt>
   <trkpt lon="6.796376" lat="45.747416"><ele>2375.0</ele></trkpt>
   <trkpt lon="6.796466" lat="45.747446"><ele>2376.25</ele></trkpt>
   <trkpt lon="6.796567" lat="45.747496"><ele>2377.75</ele></trkpt>
   <trkpt lon="6.797056" lat="45.747702"><ele>2382.25</ele></trkpt>
   <trkpt lon="6.797138" lat="45.747752"><ele>2383.5</ele></trkpt>
   <trkpt lon="6.797436" lat="45.747910"><ele>2389.25</ele></trkpt>
   <trkpt lon="6.797506" lat="45.747956"><ele>2391.25</ele></trkpt>
   <trkpt lon="6.797654" lat="45.748174"><ele>2396.25</ele></trkpt>
   <trkpt lon="6.797675" lat="45.748195"><ele>2397.0</ele></trkpt>
   <trkpt lon="6.797751" lat="45.748237"><ele>2398.75</ele></trkpt>
   <trkpt lon="6.797863" lat="45.748284"><ele>2401.25</ele></trkpt>
   <trkpt lon="6.798074" lat="45.748359"><ele>2405.5</ele></trkpt>
   <trkpt lon="6.798188" lat="45.748412"><ele>2407.75</ele></trkpt>
   <trkpt lon="6.798288" lat="45.748465"><ele>2409.75</ele></trkpt>
   <trkpt lon="6.798332" lat="45.748504"><ele>2410.75</ele></trkpt>
   <trkpt lon="6.798503" lat="45.748548"><ele>2413.75</ele></trkpt>
   <trkpt lon="6.798634" lat="45.748558"><ele>2415.75</ele></trkpt>
   <trkpt lon="6.798853" lat="45.748600"><ele>2420.0</ele></trkpt>
   <trkpt lon="6.798984" lat="45.748647"><ele>2421.75</ele></trkpt>
   <trkpt lon="6.799264" lat="45.748684"><ele>2423.0</ele></trkpt>
   <trkpt lon="6.799327" lat="45.748699"><ele>2422.75</ele></trkpt>
   <trkpt lon="6.799443" lat="45.748739"><ele>2423.5</ele></trkpt>
   <trkpt lon="6.799550" lat="45.748788"><ele>2426.5</ele></trkpt>
   <trkpt lon="6.799653" lat="45.748845"><ele>2428.75</ele></trkpt>
   <trkpt lon="6.799897" lat="45.748909"><ele>2432.75</ele></trkpt>
   <trkpt lon="6.799972" lat="45.748950"><ele>2434.25</ele></trkpt>
   <trkpt lon="6.800080" lat="45.748981"><ele>2436.25</ele></trkpt>
   <trkpt lon="6.800208" lat="45.749040"><ele>2438.75</ele></trkpt>
   <trkpt lon="6.800597" lat="45.749162"><ele>2444.0</ele></trkpt>
   <trkpt lon="6.801005" lat="45.749310"><ele>2451.75</ele></trkpt>
   <trkpt lon="6.801309" lat="45.749424"><ele>2455.5</ele></trkpt>
   <trkpt lon="6.801469" lat="45.749452"><ele>2456.5</ele></trkpt>
   <trkpt lon="6.801698" lat="45.749439"><ele>2458.0</ele></trkpt>
   <trkpt lon="6.801873" lat="45.749474"><ele>2459.75</ele></trkpt>
   <trkpt lon="6.802061" lat="45.749572"><ele>2462.75</ele></trkpt>
   <trkpt lon="6.802169" lat="45.749602"><ele>2464.25</ele></trkpt>
   <trkpt lon="6.802339" lat="45.749634"><ele>2466.25</ele></trkpt>
   <trkpt lon="6.802427" lat="45.749662"><ele>2467.5</ele></trkpt>
   <trkpt lon="6.803056" lat="45.749891"><ele>2475.25</ele></trkpt>
   <trkpt lon="6.803188" lat="45.749946"><ele>2476.25</ele></trkpt>
   <trkpt lon="6.803301" lat="45.750012"><ele>2477.25</ele></trkpt>
   <trkpt lon="6.803720" lat="45.750204"><ele>2482.25</ele></trkpt>
   <trkpt lon="6.804025" lat="45.750358"><ele>2485.25</ele></trkpt>
   <trkpt lon="6.804113" lat="45.750386"><ele>2485.75</ele></trkpt>
   <trkpt lon="6.804198" lat="45.750428"><ele>2486.5</ele></trkpt>
   <trkpt lon="6.804265" lat="45.750472"><ele>2487.25</ele></trkpt>
   <trkpt lon="6.804332" lat="45.750500"><ele>2487.5</ele></trkpt>
   <trkpt lon="6.804465" lat="45.750599"><ele>2488.75</ele></trkpt>
   <trkpt lon="6.804679" lat="45.750704"><ele>2491.0</ele></trkpt>
   <trkpt lon="6.804836" lat="45.750744"><ele>2492.25</ele></trkpt>
   <trkpt lon="6.805010" lat="45.750768"><ele>2493.5</ele></trkpt>
   <trkpt lon="6.805099" lat="45.750799"><ele>2494.75</ele></trkpt>
   <trkpt lon="6.805187" lat="45.750835"><ele>2495.5</ele></trkpt>
   <trkpt lon="6.805322" lat="45.750902"><ele>2497.75</ele></trkpt>
   <trkpt lon="6.805550" lat="45.751036"><ele>2501.25</ele></trkpt>
   <trkpt lon="6.805667" lat="45.751105"><ele>2502.5</ele></trkpt>
   <trkpt lon="6.805711" lat="45.751153"><ele>2503.5</ele></trkpt>
   <trkpt lon="6.805769" lat="45.751194"><ele>2504.5</ele></trkpt>
   <trkpt lon="6.805847" lat="45.751223"><ele>2505.25</ele></trkpt>
   <trkpt lon="6.806005" lat="45.751266"><ele>2506.75</ele></trkpt>
   <trkpt lon="6.806089" lat="45.751295"><ele>2507.5</ele></trkpt>
   <trkpt lon="6.806202" lat="45.751363"><ele>2508.75</ele></trkpt>
   <trkpt lon="6.806375" lat="45.751377"><ele>2509.0</ele></trkpt>
   <trkpt lon="6.806597" lat="45.751427"><ele>2510.75</ele></trkpt>
   <trkpt lon="6.806766" lat="45.751438"><ele>2511.75</ele></trkpt>
   <trkpt lon="6.806856" lat="45.751427"><ele>2512.25</ele></trkpt>
   <trkpt lon="6.807020" lat="45.751384"><ele>2512.5</ele></trkpt>
   <trkpt lon="6.807199" lat="45.751303"><ele>2511.75</ele></trkpt>
   <trkpt lon="6.807213" lat="45.751264"><ele>2511.5</ele></trkpt>
   <trkpt lon="6.807153" lat="45.751168"><ele>2511.75</ele></trkpt>
   <trkpt lon="6.807138" lat="45.751106"><ele>2511.75</ele></trkpt>
   <trkpt lon="6.807084" lat="45.751022"><ele>2512.25</ele></trkpt>
   <trkpt lon="6.807079" lat="45.750935"><ele>2512.0</ele></trkpt>
   <trkpt lon="6.807241" lat="45.750754"><ele>2512.5</ele></trkpt>
   <trkpt lon="6.807307" lat="45.750661"><ele>2512.25</ele></trkpt>
   <trkpt lon="6.807342" lat="45.750556"><ele>2512.25</ele></trkpt>
   <trkpt lon="6.807324" lat="45.750485"><ele>2512.75</ele></trkpt>
   <trkpt lon="6.807260" lat="45.750375"><ele>2513.25</ele></trkpt>
   <trkpt lon="6.807251" lat="45.750315"><ele>2513.0</ele></trkpt>
   <trkpt lon="6.807358" lat="45.750168"><ele>2511.5</ele></trkpt>
   <trkpt lon="6.807445" lat="45.750135"><ele>2510.0</ele></trkpt>
   <trkpt lon="6.807594" lat="45.750113"><ele>2508.0</ele></trkpt>
   <trkpt lon="6.807780" lat="45.750122"><ele>2506.25</ele></trkpt>
   <trkpt lon="6.807909" lat="45.750052"><ele>2504.0</ele></trkpt>
   <trkpt lon="6.807974" lat="45.750033"><ele>2503.5</ele></trkpt>
   <trkpt lon="6.808001" lat="45.750000"><ele>2503.0</ele></trkpt>
   <trkpt lon="6.807974" lat="45.750033"><ele>2503.5</ele></trkpt>
   <trkpt lon="6.807909" lat="45.750052"><ele>2504.0</ele></trkpt>
   <trkpt lon="6.807780" lat="45.750122"><ele>2506.25</ele></trkpt>
   <trkpt lon="6.807594" lat="45.750113"><ele>2508.0</ele></trkpt>
   <trkpt lon="6.807445" lat="45.750135"><ele>2510.0</ele></trkpt>
   <trkpt lon="6.807358" lat="45.750168"><ele>2511.5</ele></trkpt>
   <trkpt lon="6.807251" lat="45.750315"><ele>2513.0</ele></trkpt>
   <trkpt lon="6.807260" lat="45.750375"><ele>2513.25</ele></trkpt>
   <trkpt lon="6.807324" lat="45.750485"><ele>2512.75</ele></trkpt>
   <trkpt lon="6.807342" lat="45.750556"><ele>2512.25</ele></trkpt>
   <trkpt lon="6.807307" lat="45.750661"><ele>2512.25</ele></trkpt>
   <trkpt lon="6.807241" lat="45.750754"><ele>2512.5</ele></trkpt>
   <trkpt lon="6.807079" lat="45.750935"><ele>2512.0</ele></trkpt>
   <trkpt lon="6.807084" lat="45.751022"><ele>2512.25</ele></trkpt>
   <trkpt lon="6.807138" lat="45.751106"><ele>2511.75</ele></trkpt>
   <trkpt lon="6.807153" lat="45.751168"><ele>2511.75</ele></trkpt>
   <trkpt lon="6.807213" lat="45.751264"><ele>2511.5</ele></trkpt>
   <trkpt lon="6.807302" lat="45.751306"><ele>2510.75</ele></trkpt>
   <trkpt lon="6.807356" lat="45.751307"><ele>2510.25</ele></trkpt>
   <trkpt lon="6.807417" lat="45.751265"><ele>2509.25</ele></trkpt>
   <trkpt lon="6.807495" lat="45.751243"><ele>2508.5</ele></trkpt>
   <trkpt lon="6.807578" lat="45.751235"><ele>2507.5</ele></trkpt>
   <trkpt lon="6.807700" lat="45.751194"><ele>2506.25</ele></trkpt>
   <trkpt lon="6.807701" lat="45.751054"><ele>2506.25</ele></trkpt>
   <trkpt lon="6.807746" lat="45.750997"><ele>2505.5</ele></trkpt>
   <trkpt lon="6.807822" lat="45.750942"><ele>2504.0</ele></trkpt>
   <trkpt lon="6.807945" lat="45.750912"><ele>2502.5</ele></trkpt>
   <trkpt lon="6.808097" lat="45.750933"><ele>2500.75</ele></trkpt>
   <trkpt lon="6.808197" lat="45.750981"><ele>2499.5</ele></trkpt>
   <trkpt lon="6.808276" lat="45.751005"><ele>2498.25</ele></trkpt>
   <trkpt lon="6.808349" lat="45.751055"><ele>2496.75</ele></trkpt>
   <trkpt lon="6.808451" lat="45.751096"><ele>2496.0</ele></trkpt>
   <trkpt lon="6.808537" lat="45.751139"><ele>2495.75</ele></trkpt>
   <trkpt lon="6.808652" lat="45.751182"><ele>2495.0</ele></trkpt>
   <trkpt lon="6.808782" lat="45.751183"><ele>2493.25</ele></trkpt>
   <trkpt lon="6.809012" lat="45.751178"><ele>2490.25</ele></trkpt>
   <trkpt lon="6.809128" lat="45.751201"><ele>2488.75</ele></trkpt>
   <trkpt lon="6.809229" lat="45.751230"><ele>2487.0</ele></trkpt>
   <trkpt lon="6.809335" lat="45.751276"><ele>2485.25</ele></trkpt>
   <trkpt lon="6.809534" lat="45.751294"><ele>2482.5</ele></trkpt>
   <trkpt lon="6.809642" lat="45.751335"><ele>2480.25</ele></trkpt>
   <trkpt lon="6.809696" lat="45.751330"><ele>2479.25</ele></trkpt>
   <trkpt lon="6.809792" lat="45.751338"><ele>2478.75</ele></trkpt>
   <trkpt lon="6.809876" lat="45.751398"><ele>2477.75</ele></trkpt>
   <trkpt lon="6.809991" lat="45.751461"><ele>2476.25</ele></trkpt>
   <trkpt lon="6.810181" lat="45.751510"><ele>2472.75</ele></trkpt>
   <trkpt lon="6.810327" lat="45.751539"><ele>2470.75</ele></trkpt>
   <trkpt lon="6.810461" lat="45.751555"><ele>2468.75</ele></trkpt>
   <trkpt lon="6.810671" lat="45.751542"><ele>2466.75</ele></trkpt>
   <trkpt lon="6.810821" lat="45.751589"><ele>2465.25</ele></trkpt>
   <trkpt lon="6.811008" lat="45.751599"><ele>2463.5</ele></trkpt>
   <trkpt lon="6.811349" lat="45.751683"><ele>2457.25</ele></trkpt>
   <trkpt lon="6.811426" lat="45.751694"><ele>2455.5</ele></trkpt>
   <trkpt lon="6.811543" lat="45.751722"><ele>2452.25</ele></trkpt>
   <trkpt lon="6.811656" lat="45.751726"><ele>2449.75</ele></trkpt>
   <trkpt lon="6.811771" lat="45.751708"><ele>2449.0</ele></trkpt>
   <trkpt lon="6.811861" lat="45.751671"><ele>2448.5</ele></trkpt>
   <trkpt lon="6.811912" lat="45.751609"><ele>2447.5</ele></trkpt>
   <trkpt lon="6.812016" lat="45.751530"><ele>2445.5</ele></trkpt>
   <trkpt lon="6.812149" lat="45.751512"><ele>2444.25</ele></trkpt>
   <trkpt lon="6.812272" lat="45.751512"><ele>2442.75</ele></trkpt>
   <trkpt lon="6.812409" lat="45.751527"><ele>2440.0</ele></trkpt>
   <trkpt lon="6.812547" lat="45.751559"><ele>2438.0</ele></trkpt>
   <trkpt lon="6.813100" lat="45.751640"><ele>2429.25</ele></trkpt>
   <trkpt lon="6.813148" lat="45.751667"><ele>2429.0</ele></trkpt>
   <trkpt lon="6.813254" lat="45.751703"><ele>2427.5</ele></trkpt>
   <trkpt lon="6.813329" lat="45.751737"><ele>2427.0</ele></trkpt>
   <trkpt lon="6.813421" lat="45.751736"><ele>2424.5</ele></trkpt>
   <trkpt lon="6.813494" lat="45.751742"><ele>2422.5</ele></trkpt>
   <trkpt lon="6.813607" lat="45.751791"><ele>2421.0</ele></trkpt>
   <trkpt lon="6.813659" lat="45.751831"><ele>2420.75</ele></trkpt>
   <trkpt lon="6.813797" lat="45.751875"><ele>2417.5</ele></trkpt>
   <trkpt lon="6.813915" lat="45.751894"><ele>2414.5</ele></trkpt>
   <trkpt lon="6.814172" lat="45.751928"><ele>2408.25</ele></trkpt>
   <trkpt lon="6.814214" lat="45.751916"><ele>2406.75</ele></trkpt>
   <trkpt lon="6.814267" lat="45.751931"><ele>2405.25</ele></trkpt>
   <trkpt lon="6.814299" lat="45.751912"><ele>2404.0</ele></trkpt>
   <trkpt lon="6.814339" lat="45.751913"><ele>2402.75</ele></trkpt>
   <trkpt lon="6.814398" lat="45.751901"><ele>2400.75</ele></trkpt>
   <trkpt lon="6.814451" lat="45.751915"><ele>2399.5</ele></trkpt>
   <trkpt lon="6.814552" lat="45.751908"><ele>2396.5</ele></trkpt>
   <trkpt lon="6.814650" lat="45.751932"><ele>2394.0</ele></trkpt>
   <trkpt lon="6.814676" lat="45.751998"><ele>2394.0</ele></trkpt>
   <trkpt lon="6.814738" lat="45.752054"><ele>2392.5</ele></trkpt>
   <trkpt lon="6.814815" lat="45.752093"><ele>2389.75</ele></trkpt>
   <trkpt lon="6.814988" lat="45.752194"><ele>2384.0</ele></trkpt>
   <trkpt lon="6.815227" lat="45.752288"><ele>2379.75</ele></trkpt>
   <trkpt lon="6.815287" lat="45.752320"><ele>2379.25</ele></trkpt>
   <trkpt lon="6.815379" lat="45.752339"><ele>2377.75</ele></trkpt>
   <trkpt lon="6.815547" lat="45.752386"><ele>2374.5</ele></trkpt>
   <trkpt lon="6.815638" lat="45.752444"><ele>2372.75</ele></trkpt>
   <trkpt lon="6.815707" lat="45.752476"><ele>2370.75</ele></trkpt>
   <trkpt lon="6.815801" lat="45.752482"><ele>2368.0</ele></trkpt>
   <trkpt lon="6.816010" lat="45.752531"><ele>2362.5</ele></trkpt>
   <trkpt lon="6.816079" lat="45.752520"><ele>2361.0</ele></trkpt>
   <trkpt lon="6.816304" lat="45.752622"><ele>2354.0</ele></trkpt>
   <trkpt lon="6.816386" lat="45.752622"><ele>2352.5</ele></trkpt>
   <trkpt lon="6.816477" lat="45.752608"><ele>2351.25</ele></trkpt>
   <trkpt lon="6.816613" lat="45.752579"><ele>2349.75</ele></trkpt>
   <trkpt lon="6.816739" lat="45.752561"><ele>2347.75</ele></trkpt>
   <trkpt lon="6.816824" lat="45.752578"><ele>2345.75</ele></trkpt>
   <trkpt lon="6.817031" lat="45.752597"><ele>2340.75</ele></trkpt>
   <trkpt lon="6.817315" lat="45.752560"><ele>2335.25</ele></trkpt>
   <trkpt lon="6.817330" lat="45.752597"><ele>2334.0</ele></trkpt>
   <trkpt lon="6.817384" lat="45.752604"><ele>2332.5</ele></trkpt>
   <trkpt lon="6.817426" lat="45.752626"><ele>2331.25</ele></trkpt>
   <trkpt lon="6.817553" lat="45.752658"><ele>2328.25</ele></trkpt>
   <trkpt lon="6.817683" lat="45.752735"><ele>2324.5</ele></trkpt>
   <trkpt lon="6.817769" lat="45.752862"><ele>2320.25</ele></trkpt>
   <trkpt lon="6.817862" lat="45.752953"><ele>2317.0</ele></trkpt>
   <trkpt lon="6.818005" lat="45.753134"><ele>2311.75</ele></trkpt>
   <trkpt lon="6.818068" lat="45.753226"><ele>2309.0</ele></trkpt>
   <trkpt lon="6.818131" lat="45.753275"><ele>2307.5</ele></trkpt>
   <trkpt lon="6.818153" lat="45.753303"><ele>2306.75</ele></trkpt>
   <trkpt lon="6.818129" lat="45.753320"><ele>2306.5</ele></trkpt>
   <trkpt lon="6.818115" lat="45.753354"><ele>2306.5</ele></trkpt>
   <trkpt lon="6.818176" lat="45.753430"><ele>2306.0</ele></trkpt>
   <trkpt lon="6.818312" lat="45.753512"><ele>2304.5</ele></trkpt>
   <trkpt lon="6.818647" lat="45.753782"><ele>2300.75</ele></trkpt>
   <trkpt lon="6.818831" lat="45.753869"><ele>2299.25</ele></trkpt>
   <trkpt lon="6.818942" lat="45.753906"><ele>2297.75</ele></trkpt>
   <trkpt lon="6.818951" lat="45.753954"><ele>2297.25</ele></trkpt>
   <trkpt lon="6.818907" lat="45.754035"><ele>2297.25</ele></trkpt>
   <trkpt lon="6.818891" lat="45.754095"><ele>2296.75</ele></trkpt>
   <trkpt lon="6.818906" lat="45.754102"><ele>2296.5</ele></trkpt>
   <trkpt lon="6.819070" lat="45.754182"><ele>2297.0</ele></trkpt>
   <trkpt lon="6.819124" lat="45.754192"><ele>2297.5</ele></trkpt>
   <trkpt lon="6.819154" lat="45.754169"><ele>2297.0</ele></trkpt>
   <trkpt lon="6.819187" lat="45.754154"><ele>2296.5</ele></trkpt>
   <trkpt lon="6.819273" lat="45.754155"><ele>2295.25</ele></trkpt>
   <trkpt lon="6.819511" lat="45.754277"><ele>2296.25</ele></trkpt>
   <trkpt lon="6.819616" lat="45.754293"><ele>2295.5</ele></trkpt>
   <trkpt lon="6.819727" lat="45.754345"><ele>2296.25</ele></trkpt>
   <trkpt lon="6.819824" lat="45.754346"><ele>2296.0</ele></trkpt>
   <trkpt lon="6.819998" lat="45.754334"><ele>2295.0</ele></trkpt>
   <trkpt lon="6.820255" lat="45.754333"><ele>2295.0</ele></trkpt>
   <trkpt lon="6.820402" lat="45.754355"><ele>2294.75</ele></trkpt>
   <trkpt lon="6.820477" lat="45.754353"><ele>2294.25</ele></trkpt>
   <trkpt lon="6.820765" lat="45.754319"><ele>2292.25</ele></trkpt>
   <trkpt lon="6.820988" lat="45.754369"><ele>2292.75</ele></trkpt>
   <trkpt lon="6.821085" lat="45.754370"><ele>2292.0</ele></trkpt>
   <trkpt lon="6.821226" lat="45.754333"><ele>2288.75</ele></trkpt>
   <trkpt lon="6.821335" lat="45.754329"><ele>2287.25</ele></trkpt>
   <trkpt lon="6.821405" lat="45.754333"><ele>2286.5</ele></trkpt>
   <trkpt lon="6.821466" lat="45.754368"><ele>2287.25</ele></trkpt>
   <trkpt lon="6.821513" lat="45.754421"><ele>2289.0</ele></trkpt>
   <trkpt lon="6.821582" lat="45.754439"><ele>2288.5</ele></trkpt>
   <trkpt lon="6.821802" lat="45.754439"><ele>2285.75</ele></trkpt>
   <trkpt lon="6.821888" lat="45.754449"><ele>2285.5</ele></trkpt>
   <trkpt lon="6.821945" lat="45.754468"><ele>2285.75</ele></trkpt>
   <trkpt lon="6.822037" lat="45.754516"><ele>2284.75</ele></trkpt>
   <trkpt lon="6.822102" lat="45.754564"><ele>2284.5</ele></trkpt>
   <trkpt lon="6.822428" lat="45.754692"><ele>2282.25</ele></trkpt>
   <trkpt lon="6.822533" lat="45.754804"><ele>2285.0</ele></trkpt>
   <trkpt lon="6.822769" lat="45.754888"><ele>2283.25</ele></trkpt>
   <trkpt lon="6.823001" lat="45.755022"><ele>2283.0</ele></trkpt>
   <trkpt lon="6.823228" lat="45.755129"><ele>2281.25</ele></trkpt>
   <trkpt lon="6.823344" lat="45.755206"><ele>2281.0</ele></trkpt>
   <trkpt lon="6.823466" lat="45.755256"><ele>2280.75</ele></trkpt>
   <trkpt lon="6.823891" lat="45.755431"><ele>2275.75</ele></trkpt>
   <trkpt lon="6.824049" lat="45.755464"><ele>2273.25</ele></trkpt>
   <trkpt lon="6.824291" lat="45.755550"><ele>2269.25</ele></trkpt>
   <trkpt lon="6.824523" lat="45.755647"><ele>2266.0</ele></trkpt>
   <trkpt lon="6.824865" lat="45.755778"><ele>2261.5</ele></trkpt>
   <trkpt lon="6.824948" lat="45.755823"><ele>2260.75</ele></trkpt>
   <trkpt lon="6.825022" lat="45.755915"><ele>2260.5</ele></trkpt>
   <trkpt lon="6.825093" lat="45.755981"><ele>2259.75</ele></trkpt>
   <trkpt lon="6.825222" lat="45.756043"><ele>2257.5</ele></trkpt>
   <trkpt lon="6.825279" lat="45.756094"><ele>2256.75</ele></trkpt>
   <trkpt lon="6.825755" lat="45.756323"><ele>2252.25</ele></trkpt>
   <trkpt lon="6.825877" lat="45.756367"><ele>2250.0</ele></trkpt>
   <trkpt lon="6.825958" lat="45.756412"><ele>2248.25</ele></trkpt>
   <trkpt lon="6.826077" lat="45.756513"><ele>2246.5</ele></trkpt>
   <trkpt lon="6.826290" lat="45.756656"><ele>2244.75</ele></trkpt>
   <trkpt lon="6.826414" lat="45.756724"><ele>2242.5</ele></trkpt>
   <trkpt lon="6.826494" lat="45.756778"><ele>2241.0</ele></trkpt>
   <trkpt lon="6.826547" lat="45.756828"><ele>2240.25</ele></trkpt>
   <trkpt lon="6.826624" lat="45.756881"><ele>2239.0</ele></trkpt>
   <trkpt lon="6.826665" lat="45.756941"><ele>2238.75</ele></trkpt>
   <trkpt lon="6.826705" lat="45.757066"><ele>2236.75</ele></trkpt>
   <trkpt lon="6.826763" lat="45.757139"><ele>2235.0</ele></trkpt>
   <trkpt lon="6.826903" lat="45.757241"><ele>2232.0</ele></trkpt>
   <trkpt lon="6.826998" lat="45.757320"><ele>2231.5</ele></trkpt>
   <trkpt lon="6.827153" lat="45.757386"><ele>2229.25</ele></trkpt>
   <trkpt lon="6.827353" lat="45.757527"><ele>2229.0</ele></trkpt>
   <trkpt lon="6.827524" lat="45.757593"><ele>2227.75</ele></trkpt>
   <trkpt lon="6.827682" lat="45.757680"><ele>2226.0</ele></trkpt>
   <trkpt lon="6.827760" lat="45.757731"><ele>2225.0</ele></trkpt>
   <trkpt lon="6.827936" lat="45.757789"><ele>2221.25</ele></trkpt>
   <trkpt lon="6.828318" lat="45.757978"><ele>2216.75</ele></trkpt>
   <trkpt lon="6.828440" lat="45.758047"><ele>2215.5</ele></trkpt>
   <trkpt lon="6.828527" lat="45.758118"><ele>2214.5</ele></trkpt>
   <trkpt lon="6.828636" lat="45.758249"><ele>2213.75</ele></trkpt>
   <trkpt lon="6.828730" lat="45.758306"><ele>2212.5</ele></trkpt>
   <trkpt lon="6.829332" lat="45.758541"><ele>2208.25</ele></trkpt>
   <trkpt lon="6.829551" lat="45.758597"><ele>2206.0</ele></trkpt>
   <trkpt lon="6.829693" lat="45.758671"><ele>2205.75</ele></trkpt>
   <trkpt lon="6.829792" lat="45.758713"><ele>2205.0</ele></trkpt>
   <trkpt lon="6.829925" lat="45.758743"><ele>2203.25</ele></trkpt>
   <trkpt lon="6.829995" lat="45.758774"><ele>2202.75</ele></trkpt>
   <trkpt lon="6.830159" lat="45.758865"><ele>2199.5</ele></trkpt>
   <trkpt lon="6.830527" lat="45.759097"><ele>2191.5</ele></trkpt>
   <trkpt lon="6.830614" lat="45.759169"><ele>2189.5</ele></trkpt>
   <trkpt lon="6.830772" lat="45.759252"><ele>2186.5</ele></trkpt>
   <trkpt lon="6.831383" lat="45.759550"><ele>2173.75</ele></trkpt>
   <trkpt lon="6.831750" lat="45.759694"><ele>2168.75</ele></trkpt>
   <trkpt lon="6.832038" lat="45.759857"><ele>2165.0</ele></trkpt>
   <trkpt lon="6.832195" lat="45.759948"><ele>2164.25</ele></trkpt>
   <trkpt lon="6.832384" lat="45.760071"><ele>2163.75</ele></trkpt>
   <trkpt lon="6.832539" lat="45.760159"><ele>2163.25</ele></trkpt>
   <trkpt lon="6.833044" lat="45.760506"><ele>2162.0</ele></trkpt>
   <trkpt lon="6.833227" lat="45.760618"><ele>2161.5</ele></trkpt>
   <trkpt lon="6.833540" lat="45.760777"><ele>2160.25</ele></trkpt>
   <trkpt lon="6.833653" lat="45.760847"><ele>2159.75</ele></trkpt>
   <trkpt lon="6.833735" lat="45.760960"><ele>2159.75</ele></trkpt>
   <trkpt lon="6.833923" lat="45.761133"><ele>2159.25</ele></trkpt>
   <trkpt lon="6.834028" lat="45.761255"><ele>2159.75</ele></trkpt>
   <trkpt lon="6.834124" lat="45.761340"><ele>2158.75</ele></trkpt>
   <trkpt lon="6.834266" lat="45.761431"><ele>2158.0</ele></trkpt>
   <trkpt lon="6.834349" lat="45.761539"><ele>2158.0</ele></trkpt>
   <trkpt lon="6.834443" lat="45.761688"><ele>2157.25</ele></trkpt>
   <trkpt lon="6.834546" lat="45.761820"><ele>2157.75</ele></trkpt>
   <trkpt lon="6.834818" lat="45.762075"><ele>2156.75</ele></trkpt>
   <trkpt lon="6.835022" lat="45.762209"><ele>2154.75</ele></trkpt>
   <trkpt lon="6.835398" lat="45.762418"><ele>2154.25</ele></trkpt>
   <trkpt lon="6.835764" lat="45.762686"><ele>2153.0</ele></trkpt>
   <trkpt lon="6.835832" lat="45.762784"><ele>2153.0</ele></trkpt>
   <trkpt lon="6.835930" lat="45.762896"><ele>2153.0</ele></trkpt>
   <trkpt lon="6.836012" lat="45.762964"><ele>2152.75</ele></trkpt>
   <trkpt lon="6.836179" lat="45.763067"><ele>2151.75</ele></trkpt>
   <trkpt lon="6.836321" lat="45.763176"><ele>2151.5</ele></trkpt>
   <trkpt lon="6.836408" lat="45.763264"><ele>2150.75</ele></trkpt>
   <trkpt lon="6.836472" lat="45.763358"><ele>2150.75</ele></trkpt>
   <trkpt lon="6.836632" lat="45.763651"><ele>2150.75</ele></trkpt>
   <trkpt lon="6.836652" lat="45.763722"><ele>2151.25</ele></trkpt>
   <trkpt lon="6.836685" lat="45.763776"><ele>2151.5</ele></trkpt>
   <trkpt lon="6.836738" lat="45.763800"><ele>2151.0</ele></trkpt>
   <trkpt lon="6.836764" lat="45.763841"><ele>2150.75</ele></trkpt>
   <trkpt lon="6.836963" lat="45.764076"><ele>2150.5</ele></trkpt>
   <trkpt lon="6.837041" lat="45.764120"><ele>2150.0</ele></trkpt>
   <trkpt lon="6.837223" lat="45.764260"><ele>2150.5</ele></trkpt>
   <trkpt lon="6.837320" lat="45.764323"><ele>2150.75</ele></trkpt>
   <trkpt lon="6.837404" lat="45.764392"><ele>2150.5</ele></trkpt>
   <trkpt lon="6.837515" lat="45.764434"><ele>2148.75</ele></trkpt>
   <trkpt lon="6.837587" lat="45.764479"><ele>2148.75</ele></trkpt>
   <trkpt lon="6.837655" lat="45.764540"><ele>2148.75</ele></trkpt>
   <trkpt lon="6.837963" lat="45.764778"><ele>2146.25</ele></trkpt>
   <trkpt lon="6.838174" lat="45.765184"><ele>2146.5</ele></trkpt>
   <trkpt lon="6.838227" lat="45.765260"><ele>2146.25</ele></trkpt>
   <trkpt lon="6.838425" lat="45.765418"><ele>2145.5</ele></trkpt>
   <trkpt lon="6.838501" lat="45.765527"><ele>2146.0</ele></trkpt>
   <trkpt lon="6.838571" lat="45.765715"><ele>2146.75</ele></trkpt>
   <trkpt lon="6.838571" lat="45.765819"><ele>2146.75</ele></trkpt>
   <trkpt lon="6.838615" lat="45.765917"><ele>2148.5</ele></trkpt>
   <trkpt lon="6.838672" lat="45.766004"><ele>2150.0</ele></trkpt>
   <trkpt lon="6.838718" lat="45.766049"><ele>2150.5</ele></trkpt>
   <trkpt lon="6.838741" lat="45.766071"><ele>2150.5</ele></trkpt>
   <trkpt lon="6.838747" lat="45.766121"><ele>2150.75</ele></trkpt>
   <trkpt lon="6.838700" lat="45.766225"><ele>2151.0</ele></trkpt>
   <trkpt lon="6.838729" lat="45.766296"><ele>2150.5</ele></trkpt>
   <trkpt lon="6.838787" lat="45.766393"><ele>2149.0</ele></trkpt>
   <trkpt lon="6.838935" lat="45.766308"><ele>2146.75</ele></trkpt>
   <trkpt lon="6.839206" lat="45.766223"><ele>2144.75</ele></trkpt>
   <trkpt lon="6.839683" lat="45.766188"><ele>2138.0</ele></trkpt>
   <trkpt lon="6.840042" lat="45.766141"><ele>2134.0</ele></trkpt>
   <trkpt lon="6.840356" lat="45.766080"><ele>2130.5</ele></trkpt>
   <trkpt lon="6.840534" lat="45.766073"><ele>2127.25</ele></trkpt>
   <trkpt lon="6.840715" lat="45.766055"><ele>2123.5</ele></trkpt>
   <trkpt lon="6.840976" lat="45.765953"><ele>2121.0</ele></trkpt>
   <trkpt lon="6.841129" lat="45.765919"><ele>2118.25</ele></trkpt>
   <trkpt lon="6.841166" lat="45.765924"><ele>2116.5</ele></trkpt>
   <trkpt lon="6.841189" lat="45.765940"><ele>2115.0</ele></trkpt>
   <trkpt lon="6.841336" lat="45.766021"><ele>2109.0</ele></trkpt>
   <trkpt lon="6.841677" lat="45.766296"><ele>2094.5</ele></trkpt>
   <trkpt lon="6.841982" lat="45.766464"><ele>2084.25</ele></trkpt>
   <trkpt lon="6.842018" lat="45.766522"><ele>2080.75</ele></trkpt>
   <trkpt lon="6.841911" lat="45.766664"><ele>2077.5</ele></trkpt>
   <trkpt lon="6.842036" lat="45.766864"><ele>2066.75</ele></trkpt>
   <trkpt lon="6.842102" lat="45.767199"><ele>2054.75</ele></trkpt>
   <trkpt lon="6.842234" lat="45.767274"><ele>2049.25</ele></trkpt>
   <trkpt lon="6.842198" lat="45.767407"><ele>2047.25</ele></trkpt>
   <trkpt lon="6.842356" lat="45.767569"><ele>2041.5</ele></trkpt>
   <trkpt lon="6.842556" lat="45.767607"><ele>2038.5</ele></trkpt>
   <trkpt lon="6.842887" lat="45.767634"><ele>2034.75</ele></trkpt>
   <trkpt lon="6.843125" lat="45.767615"><ele>2033.75</ele></trkpt>
   <trkpt lon="6.843396" lat="45.767559"><ele>2034.0</ele></trkpt>
   <trkpt lon="6.843510" lat="45.767572"><ele>2034.0</ele></trkpt>
   <trkpt lon="6.843679" lat="45.767745"><ele>2032.25</ele></trkpt>
   <trkpt lon="6.843836" lat="45.767806"><ele>2032.0</ele></trkpt>
   <trkpt lon="6.844016" lat="45.767891"><ele>2031.0</ele></trkpt>
   <trkpt lon="6.844370" lat="45.768081"><ele>2027.0</ele></trkpt>
   <trkpt lon="6.844762" lat="45.768200"><ele>2022.75</ele></trkpt>
   <trkpt lon="6.845168" lat="45.768290"><ele>2018.0</ele></trkpt>
   <trkpt lon="6.845433" lat="45.768298"><ele>2014.5</ele></trkpt>
   <trkpt lon="6.845693" lat="45.768220"><ele>2013.0</ele></trkpt>
   <trkpt lon="6.845958" lat="45.768192"><ele>2009.25</ele></trkpt>
   <trkpt lon="6.846150" lat="45.768208"><ele>2005.75</ele></trkpt>
   <trkpt lon="6.846313" lat="45.768294"><ele>2003.5</ele></trkpt>
   <trkpt lon="6.846516" lat="45.768385"><ele>2002.0</ele></trkpt>
   <trkpt lon="6.846866" lat="45.768440"><ele>1996.5</ele></trkpt>
   <trkpt lon="6.847216" lat="45.768464"><ele>1992.0</ele></trkpt>
   <trkpt lon="6.847515" lat="45.768460"><ele>1988.25</ele></trkpt>
   <trkpt lon="6.847632" lat="45.768402"><ele>1986.75</ele></trkpt>
   <trkpt lon="6.847974" lat="45.768371"><ele>1983.5</ele></trkpt>
   <trkpt lon="6.848170" lat="45.768381"><ele>1982.5</ele></trkpt>
   <trkpt lon="6.848770" lat="45.768533"><ele>1979.25</ele></trkpt>
   <trkpt lon="6.852220" lat="45.769497"><ele>1968.75</ele></trkpt>
   <trkpt lon="6.853739" lat="45.769917"><ele>1966.0</ele></trkpt>
   <trkpt lon="6.855073" lat="45.770273"><ele>1964.0</ele></trkpt>
   <trkpt lon="6.857574" lat="45.770983"><ele>1961.75</ele></trkpt>
   <trkpt lon="6.858825" lat="45.771440"><ele>1961.25</ele></trkpt>
   <trkpt lon="6.859331" lat="45.771644"><ele>1961.25</ele></trkpt>
   <trkpt lon="6.859563" lat="45.771752"><ele>1960.5</ele></trkpt>
   <trkpt lon="6.859808" lat="45.771846"><ele>1959.75</ele></trkpt>
   <trkpt lon="6.860288" lat="45.772047"><ele>1960.0</ele></trkpt>
   <trkpt lon="6.860528" lat="45.772167"><ele>1959.0</ele></trkpt>
   <trkpt lon="6.860842" lat="45.772366"><ele>1958.75</ele></trkpt>
   <trkpt lon="6.861025" lat="45.772425"><ele>1958.25</ele></trkpt>
   <trkpt lon="6.861264" lat="45.772479"><ele>1957.75</ele></trkpt>
   <trkpt lon="6.861368" lat="45.772496"><ele>1958.0</ele></trkpt>
   <trkpt lon="6.861510" lat="45.772510"><ele>1957.75</ele></trkpt>
   <trkpt lon="6.861728" lat="45.772520"><ele>1957.75</ele></trkpt>
   <trkpt lon="6.862838" lat="45.772483"><ele>1957.25</ele></trkpt>
   <trkpt lon="6.862980" lat="45.772488"><ele>1957.25</ele></trkpt>
   <trkpt lon="6.863104" lat="45.772516"><ele>1956.75</ele></trkpt>
   <trkpt lon="6.863500" lat="45.772679"><ele>1957.0</ele></trkpt>
   <trkpt lon="6.863663" lat="45.772738"><ele>1956.5</ele></trkpt>
   <trkpt lon="6.863830" lat="45.772764"><ele>1956.25</ele></trkpt>
   <trkpt lon="6.864004" lat="45.772800"><ele>1956.25</ele></trkpt>
   <trkpt lon="6.864153" lat="45.772852"><ele>1956.25</ele></trkpt>
   <trkpt lon="6.864282" lat="45.772917"><ele>1958.25</ele></trkpt>
   <trkpt lon="6.864534" lat="45.773085"><ele>1955.75</ele></trkpt>
   <trkpt lon="6.864605" lat="45.773253"><ele>1955.0</ele></trkpt>
   <trkpt lon="6.864675" lat="45.773382"><ele>1954.5</ele></trkpt>
   <trkpt lon="6.864749" lat="45.773498"><ele>1954.5</ele></trkpt>
   <trkpt lon="6.864838" lat="45.773599"><ele>1954.25</ele></trkpt>
   <trkpt lon="6.864956" lat="45.773687"><ele>1954.5</ele></trkpt>
   <trkpt lon="6.865054" lat="45.773742"><ele>1954.5</ele></trkpt>
   <trkpt lon="6.865190" lat="45.773795"><ele>1954.75</ele></trkpt>
   <trkpt lon="6.865374" lat="45.773843"><ele>1955.0</ele></trkpt>
   <trkpt lon="6.865557" lat="45.773868"><ele>1955.0</ele></trkpt>
   <trkpt lon="6.865791" lat="45.773865"><ele>1955.0</ele></trkpt>
   <trkpt lon="6.866341" lat="45.773850"><ele>1957.75</ele></trkpt>
   <trkpt lon="6.866579" lat="45.773951"><ele>1961.0</ele></trkpt>
   <trkpt lon="6.867108" lat="45.774168"><ele>1959.5</ele></trkpt>
   <trkpt lon="6.867323" lat="45.774287"><ele>1961.75</ele></trkpt>
   <trkpt lon="6.867510" lat="45.774447"><ele>1958.25</ele></trkpt>
   <trkpt lon="6.867737" lat="45.774532"><ele>1962.5</ele></trkpt>
   <trkpt lon="6.867913" lat="45.774615"><ele>1962.25</ele></trkpt>
   <trkpt lon="6.868471" lat="45.774906"><ele>1960.75</ele></trkpt>
   <trkpt lon="6.868726" lat="45.775002"><ele>1959.25</ele></trkpt>
   <trkpt lon="6.869003" lat="45.775074"><ele>1962.25</ele></trkpt>
   <trkpt lon="6.869355" lat="45.775193"><ele>1961.5</ele></trkpt>
   <trkpt lon="6.869514" lat="45.775237"><ele>1961.0</ele></trkpt>
   <trkpt lon="6.869741" lat="45.775321"><ele>1960.25</ele></trkpt>
   <trkpt lon="6.869927" lat="45.775398"><ele>1961.25</ele></trkpt>
   <trkpt lon="6.870443" lat="45.775565"><ele>1959.75</ele></trkpt>
   <trkpt lon="6.871101" lat="45.775799"><ele>1959.25</ele></trkpt>
   <trkpt lon="6.871171" lat="45.775856"><ele>1957.25</ele></trkpt>
   <trkpt lon="6.871208" lat="45.775911"><ele>1956.75</ele></trkpt>
   <trkpt lon="6.871198" lat="45.775963"><ele>1955.5</ele></trkpt>
   <trkpt lon="6.871136" lat="45.776199"><ele>1954.75</ele></trkpt>
   <trkpt lon="6.871090" lat="45.776324"><ele>1957.75</ele></trkpt>
   <trkpt lon="6.871235" lat="45.776363"><ele>1957.5</ele></trkpt>
   <trkpt lon="6.871331" lat="45.776367"><ele>1957.0</ele></trkpt>
   <trkpt lon="6.871624" lat="45.776342"><ele>1956.5</ele></trkpt>
   <trkpt lon="6.871835" lat="45.776333"><ele>1955.5</ele></trkpt>
   <trkpt lon="6.872098" lat="45.776372"><ele>1954.0</ele></trkpt>
   <trkpt lon="6.872340" lat="45.776420"><ele>1953.25</ele></trkpt>
   <trkpt lon="6.872764" lat="45.776572"><ele>1953.0</ele></trkpt>
   <trkpt lon="6.873876" lat="45.777053"><ele>1945.5</ele></trkpt>
   <trkpt lon="6.874071" lat="45.777097"><ele>1945.5</ele></trkpt>
   <trkpt lon="6.874280" lat="45.777075"><ele>1945.75</ele></trkpt>
   <trkpt lon="6.875040" lat="45.776944"><ele>1943.5</ele></trkpt>
   <trkpt lon="6.875589" lat="45.776923"><ele>1942.0</ele></trkpt>
   <trkpt lon="6.876107" lat="45.776942"><ele>1938.0</ele></trkpt>
   <trkpt lon="6.876766" lat="45.777048"><ele>1933.75</ele></trkpt>
   <trkpt lon="6.876964" lat="45.777115"><ele>1932.25</ele></trkpt>
   <trkpt lon="6.877430" lat="45.777442"><ele>1926.75</ele></trkpt>
   <trkpt lon="6.877968" lat="45.777646"><ele>1918.75</ele></trkpt>
   <trkpt lon="6.878730" lat="45.778179"><ele>1909.5</ele></trkpt>
   <trkpt lon="6.879014" lat="45.778272"><ele>1905.75</ele></trkpt>
   <trkpt lon="6.879320" lat="45.778317"><ele>1902.25</ele></trkpt>
   <trkpt lon="6.879925" lat="45.778445"><ele>1899.5</ele></trkpt>
   <trkpt lon="6.880519" lat="45.778413"><ele>1894.0</ele></trkpt>
   <trkpt lon="6.881009" lat="45.778310"><ele>1888.25</ele></trkpt>
   <trkpt lon="6.881874" lat="45.778122"><ele>1886.25</ele></trkpt>
   <trkpt lon="6.882490" lat="45.778162"><ele>1882.5</ele></trkpt>
   <trkpt lon="6.882978" lat="45.778109"><ele>1876.25</ele></trkpt>
   <trkpt lon="6.883323" lat="45.778010"><ele>1870.75</ele></trkpt>
   <trkpt lon="6.883543" lat="45.778047"><ele>1868.75</ele></trkpt>
   <trkpt lon="6.884037" lat="45.778254"><ele>1867.0</ele></trkpt>
   <trkpt lon="6.884477" lat="45.778286"><ele>1865.0</ele></trkpt>
   <trkpt lon="6.887763" lat="45.779237"><ele>1837.75</ele></trkpt>
   <trkpt lon="6.888236" lat="45.779457"><ele>1831.0</ele></trkpt>
   <trkpt lon="6.889464" lat="45.779796"><ele>1816.5</ele></trkpt>
   <trkpt lon="6.890334" lat="45.780273"><ele>1804.25</ele></trkpt>
   <trkpt lon="6.890764" lat="45.780445"><ele>1799.5</ele></trkpt>
   <trkpt lon="6.891699" lat="45.781077"><ele>1790.25</ele></trkpt>
   <trkpt lon="6.892106" lat="45.781273"><ele>1786.25</ele></trkpt>
   <trkpt lon="6.892471" lat="45.781379"><ele>1781.25</ele></trkpt>
   <trkpt lon="6.893781" lat="45.782115"><ele>1761.0</ele></trkpt>
   <trkpt lon="6.894066" lat="45.782392"><ele>1755.0</ele></trkpt>
   <trkpt lon="6.894211" lat="45.782562"><ele>1752.0</ele></trkpt>
   <trkpt lon="6.894258" lat="45.782525"><ele>1750.25</ele></trkpt>
   <trkpt lon="6.894376" lat="45.782557"><ele>1746.75</ele></trkpt>
   <trkpt lon="6.894470" lat="45.782537"><ele>1743.5</ele></trkpt>
   <trkpt lon="6.894593" lat="45.782496"><ele>1739.5</ele></trkpt>
   <trkpt lon="6.894680" lat="45.782459"><ele>1736.75</ele></trkpt>
   <trkpt lon="6.894847" lat="45.782515"><ele>1731.75</ele></trkpt>
   <trkpt lon="6.895019" lat="45.782540"><ele>1726.25</ele></trkpt>
   <trkpt lon="6.895132" lat="45.782617"><ele>1724.0</ele></trkpt>
   <trkpt lon="6.895112" lat="45.782682"><ele>1724.5</ele></trkpt>
   <trkpt lon="6.895199" lat="45.782734"><ele>1723.5</ele></trkpt>
   <trkpt lon="6.895366" lat="45.782884"><ele>1722.0</ele></trkpt>
   <trkpt lon="6.895434" lat="45.782949"><ele>1721.0</ele></trkpt>
   <trkpt lon="6.895791" lat="45.783229"><ele>1715.75</ele></trkpt>
   <trkpt lon="6.896541" lat="45.783761"><ele>1706.5</ele></trkpt>
   <trkpt lon="6.896672" lat="45.783819"><ele>1705.25</ele></trkpt>
   <trkpt lon="6.896937" lat="45.783875"><ele>1702.5</ele></trkpt>
   <trkpt lon="6.897282" lat="45.783914"><ele>1698.25</ele></trkpt>
   <trkpt lon="6.897615" lat="45.784043"><ele>1693.75</ele></trkpt>
   <trkpt lon="6.898171" lat="45.784306"><ele>1686.5</ele></trkpt>
   <trkpt lon="6.898292" lat="45.784378"><ele>1684.25</ele></trkpt>
   <trkpt lon="6.898585" lat="45.784657"><ele>1681.25</ele></trkpt>
   <trkpt lon="6.898788" lat="45.784803"><ele>1678.5</ele></trkpt>
   <trkpt lon="6.898991" lat="45.785035"><ele>1675.5</ele></trkpt>
   <trkpt lon="6.899138" lat="45.785283"><ele>1673.25</ele></trkpt>
   <trkpt lon="6.899185" lat="45.785363"><ele>1673.0</ele></trkpt>
   <trkpt lon="6.899238" lat="45.785419"><ele>1672.25</ele></trkpt>
   <trkpt lon="6.899309" lat="45.785446"><ele>1670.5</ele></trkpt>
   <trkpt lon="6.899458" lat="45.785483"><ele>1666.5</ele></trkpt>
   <trkpt lon="6.899961" lat="45.785557"><ele>1668.25</ele></trkpt>
   <trkpt lon="6.900122" lat="45.785580"><ele>1669.5</ele></trkpt>
   <trkpt lon="6.900252" lat="45.785600"><ele>1670.25</ele></trkpt>
   <trkpt lon="6.900508" lat="45.785641"><ele>1669.5</ele></trkpt>
   <trkpt lon="6.900700" lat="45.785674"><ele>1668.5</ele></trkpt>
   <trkpt lon="6.900859" lat="45.785721"><ele>1667.5</ele></trkpt>
   <trkpt lon="6.901008" lat="45.785790"><ele>1667.0</ele></trkpt>
   <trkpt lon="6.901150" lat="45.785868"><ele>1666.5</ele></trkpt>
   <trkpt lon="6.901491" lat="45.786159"><ele>1664.25</ele></trkpt>
   <trkpt lon="6.902065" lat="45.786648"><ele>1660.0</ele></trkpt>
   <trkpt lon="6.902320" lat="45.786805"><ele>1656.0</ele></trkpt>
   <trkpt lon="6.902563" lat="45.786883"><ele>1657.75</ele></trkpt>
   <trkpt lon="6.902802" lat="45.786933"><ele>1656.0</ele></trkpt>
   <trkpt lon="6.903301" lat="45.787019"><ele>1651.75</ele></trkpt>
   <trkpt lon="6.903399" lat="45.787035"><ele>1651.25</ele></trkpt>
   <trkpt lon="6.903780" lat="45.787094"><ele>1647.75</ele></trkpt>
   <trkpt lon="6.903890" lat="45.787097"><ele>1647.0</ele></trkpt>
   <trkpt lon="6.903994" lat="45.787082"><ele>1646.25</ele></trkpt>
   <trkpt lon="6.904238" lat="45.787022"><ele>1645.25</ele></trkpt>
   <trkpt lon="6.904406" lat="45.787002"><ele>1644.5</ele></trkpt>
   <trkpt lon="6.904600" lat="45.787000"><ele>1643.5</ele></trkpt>
   <trkpt lon="6.904903" lat="45.787018"><ele>1643.0</ele></trkpt>
   <trkpt lon="6.905009" lat="45.787037"><ele>1642.5</ele></trkpt>
   <trkpt lon="6.905208" lat="45.787074"><ele>1644.0</ele></trkpt>
   <trkpt lon="6.905534" lat="45.787201"><ele>1640.25</ele></trkpt>
   <trkpt lon="6.905803" lat="45.787384"><ele>1638.0</ele></trkpt>
   <trkpt lon="6.906132" lat="45.787606"><ele>1633.75</ele></trkpt>
   <trkpt lon="6.906147" lat="45.787644"><ele>1632.75</ele></trkpt>
   <trkpt lon="6.906137" lat="45.787684"><ele>1631.25</ele></trkpt>
   <trkpt lon="6.906116" lat="45.787722"><ele>1629.75</ele></trkpt>
   <trkpt lon="6.906293" lat="45.787725"><ele>1631.5</ele></trkpt>
   <trkpt lon="6.907087" lat="45.788005"><ele>1622.5</ele></trkpt>
   <trkpt lon="6.907560" lat="45.788192"><ele>1619.5</ele></trkpt>
   <trkpt lon="6.907837" lat="45.788344"><ele>1619.75</ele></trkpt>
   <trkpt lon="6.908407" lat="45.788791"><ele>1612.0</ele></trkpt>
   <trkpt lon="6.908796" lat="45.789010"><ele>1610.75</ele></trkpt>
   <trkpt lon="6.909227" lat="45.789207"><ele>1611.0</ele></trkpt>
   <trkpt lon="6.909780" lat="45.789471"><ele>1612.5</ele></trkpt>
   <trkpt lon="6.910357" lat="45.789602"><ele>1618.75</ele></trkpt>
   <trkpt lon="6.911057" lat="45.789788"><ele>1627.75</ele></trkpt>
   <trkpt lon="6.911503" lat="45.789978"><ele>1629.25</ele></trkpt>
   <trkpt lon="6.912403" lat="45.790439"><ele>1630.0</ele></trkpt>
   <trkpt lon="6.912718" lat="45.790566"><ele>1626.5</ele></trkpt>
   <trkpt lon="6.914297" lat="45.791009"><ele>1637.75</ele></trkpt>
   <trkpt lon="6.914549" lat="45.791064"><ele>1639.75</ele></trkpt>
   <trkpt lon="6.915088" lat="45.791215"><ele>1641.0</ele></trkpt>
   <trkpt lon="6.915851" lat="45.791494"><ele>1643.0</ele></trkpt>
   <trkpt lon="6.916146" lat="45.791581"><ele>1644.75</ele></trkpt>
   <trkpt lon="6.916443" lat="45.791721"><ele>1641.75</ele></trkpt>
   <trkpt lon="6.916956" lat="45.791997"><ele>1637.0</ele></trkpt>
   <trkpt lon="6.917116" lat="45.792064"><ele>1636.0</ele></trkpt>
   <trkpt lon="6.917272" lat="45.792082"><ele>1636.75</ele></trkpt>
   <trkpt lon="6.917418" lat="45.792117"><ele>1636.0</ele></trkpt>
   <trkpt lon="6.917593" lat="45.792256"><ele>1632.5</ele></trkpt>
   <trkpt lon="6.917900" lat="45.792635"><ele>1622.0</ele></trkpt>
   <trkpt lon="6.918063" lat="45.792711"><ele>1620.0</ele></trkpt>
   <trkpt lon="6.918409" lat="45.792923"><ele>1611.0</ele></trkpt>
   <trkpt lon="6.919128" lat="45.793474"><ele>1597.75</ele></trkpt>
   <trkpt lon="6.919562" lat="45.793677"><ele>1595.75</ele></trkpt>
   <trkpt lon="6.920312" lat="45.793966"><ele>1592.25</ele></trkpt>
   <trkpt lon="6.921220" lat="45.794402"><ele>1597.75</ele></trkpt>
   <trkpt lon="6.921506" lat="45.794512"><ele>1599.5</ele></trkpt>
   <trkpt lon="6.921860" lat="45.794639"><ele>1603.0</ele></trkpt>
   <trkpt lon="6.922191" lat="45.794801"><ele>1601.0</ele></trkpt>
   <trkpt lon="6.922781" lat="45.795134"><ele>1598.25</ele></trkpt>
   <trkpt lon="6.923033" lat="45.795243"><ele>1599.0</ele></trkpt>
   <trkpt lon="6.923622" lat="45.795353"><ele>1607.5</ele></trkpt>
   <trkpt lon="6.923860" lat="45.795428"><ele>1608.75</ele></trkpt>
   <trkpt lon="6.924097" lat="45.795587"><ele>1605.0</ele></trkpt>
   <trkpt lon="6.924488" lat="45.795823"><ele>1606.0</ele></trkpt>
   <trkpt lon="6.924785" lat="45.795955"><ele>1607.75</ele></trkpt>
   <trkpt lon="6.925061" lat="45.796100"><ele>1610.5</ele></trkpt>
   <trkpt lon="6.925128" lat="45.796219"><ele>1612.0</ele></trkpt>
   <trkpt lon="6.925216" lat="45.796439"><ele>1612.75</ele></trkpt>
   <trkpt lon="6.925327" lat="45.796561"><ele>1614.75</ele></trkpt>
   <trkpt lon="6.925370" lat="45.796622"><ele>1615.0</ele></trkpt>
   <trkpt lon="6.925660" lat="45.796864"><ele>1619.25</ele></trkpt>
   <trkpt lon="6.925955" lat="45.797299"><ele>1619.75</ele></trkpt>
   <trkpt lon="6.926168" lat="45.797462"><ele>1625.25</ele></trkpt>
   <trkpt lon="6.926229" lat="45.797484"><ele>1627.0</ele></trkpt>
   <trkpt lon="6.926302" lat="45.797441"><ele>1630.25</ele></trkpt>
   <trkpt lon="6.926443" lat="45.797524"><ele>1633.5</ele></trkpt>
   <trkpt lon="6.926609" lat="45.797590"><ele>1637.5</ele></trkpt>
   <trkpt lon="6.926752" lat="45.797702"><ele>1639.75</ele></trkpt>
   <trkpt lon="6.926843" lat="45.797735"><ele>1641.5</ele></trkpt>
   <trkpt lon="6.926938" lat="45.797722"><ele>1644.5</ele></trkpt>
   <trkpt lon="6.927357" lat="45.797998"><ele>1652.0</ele></trkpt>
   <trkpt lon="6.927687" lat="45.798140"><ele>1656.75</ele></trkpt>
   <trkpt lon="6.927941" lat="45.798463"><ele>1654.25</ele></trkpt>
   <trkpt lon="6.928123" lat="45.798650"><ele>1655.5</ele></trkpt>
   <trkpt lon="6.928562" lat="45.798845"><ele>1660.0</ele></trkpt>
   <trkpt lon="6.929155" lat="45.799013"><ele>1665.5</ele></trkpt>
   <trkpt lon="6.929613" lat="45.799338"><ele>1666.75</ele></trkpt>
   <trkpt lon="6.929809" lat="45.799410"><ele>1670.5</ele></trkpt>
   <trkpt lon="6.930002" lat="45.799408"><ele>1677.5</ele></trkpt>
   <trkpt lon="6.930196" lat="45.799432"><ele>1683.5</ele></trkpt>
   <trkpt lon="6.930490" lat="45.799516"><ele>1687.5</ele></trkpt>
   <trkpt lon="6.930469" lat="45.799398"><ele>1692.25</ele></trkpt>
   <trkpt lon="6.930399" lat="45.799258"><ele>1696.75</ele></trkpt>
   <trkpt lon="6.930234" lat="45.798986"><ele>1705.0</ele></trkpt>
   <trkpt lon="6.929594" lat="45.798433"><ele>1724.25</ele></trkpt>
   <trkpt lon="6.929307" lat="45.798215"><ele>1731.0</ele></trkpt>
   <trkpt lon="6.929170" lat="45.798085"><ele>1733.0</ele></trkpt>
   <trkpt lon="6.928961" lat="45.797844"><ele>1735.25</ele></trkpt>
   <trkpt lon="6.928760" lat="45.797571"><ele>1737.25</ele></trkpt>
   <trkpt lon="6.928548" lat="45.797265"><ele>1740.25</ele></trkpt>
   <trkpt lon="6.928269" lat="45.797010"><ele>1741.75</ele></trkpt>
   <trkpt lon="6.927969" lat="45.796756"><ele>1742.75</ele></trkpt>
   <trkpt lon="6.927802" lat="45.796588"><ele>1744.0</ele></trkpt>
   <trkpt lon="6.927615" lat="45.796023"><ele>1751.75</ele></trkpt>
   <trkpt lon="6.927475" lat="45.795660"><ele>1753.5</ele></trkpt>
   <trkpt lon="6.927415" lat="45.795237"><ele>1761.0</ele></trkpt>
   <trkpt lon="6.927347" lat="45.794860"><ele>1768.0</ele></trkpt>
   <trkpt lon="6.927357" lat="45.794537"><ele>1775.5</ele></trkpt>
   <trkpt lon="6.927309" lat="45.794375"><ele>1778.0</ele></trkpt>
   <trkpt lon="6.927151" lat="45.794101"><ele>1779.5</ele></trkpt>
   <trkpt lon="6.926776" lat="45.793507"><ele>1786.5</ele></trkpt>
   <trkpt lon="6.926822" lat="45.793416"><ele>1790.0</ele></trkpt>
   <trkpt lon="6.926826" lat="45.793383"><ele>1791.0</ele></trkpt>
   <trkpt lon="6.926813" lat="45.793339"><ele>1792.0</ele></trkpt>
   <trkpt lon="6.926773" lat="45.793260"><ele>1793.75</ele></trkpt>
   <trkpt lon="6.926776" lat="45.793199"><ele>1796.0</ele></trkpt>
   <trkpt lon="6.926793" lat="45.793143"><ele>1798.5</ele></trkpt>
   <trkpt lon="6.926809" lat="45.793099"><ele>1800.5</ele></trkpt>
   <trkpt lon="6.926806" lat="45.792952"><ele>1804.75</ele></trkpt>
   <trkpt lon="6.926835" lat="45.792716"><ele>1813.75</ele></trkpt>
   <trkpt lon="6.926820" lat="45.792613"><ele>1818.5</ele></trkpt>
   <trkpt lon="6.926697" lat="45.792502"><ele>1822.25</ele></trkpt>
   <trkpt lon="6.926604" lat="45.792371"><ele>1825.0</ele></trkpt>
   <trkpt lon="6.926574" lat="45.792186"><ele>1831.75</ele></trkpt>
   <trkpt lon="6.926600" lat="45.792070"><ele>1837.5</ele></trkpt>
   <trkpt lon="6.926745" lat="45.791941"><ele>1846.0</ele></trkpt>
   <trkpt lon="6.926992" lat="45.791863"><ele>1855.75</ele></trkpt>
   <trkpt lon="6.927283" lat="45.791816"><ele>1865.75</ele></trkpt>
   <trkpt lon="6.927775" lat="45.791985"><ele>1875.0</ele></trkpt>
   <trkpt lon="6.928032" lat="45.791988"><ele>1883.25</ele></trkpt>
   <trkpt lon="6.928216" lat="45.791959"><ele>1891.0</ele></trkpt>
   <trkpt lon="6.928390" lat="45.792069"><ele>1893.5</ele></trkpt>
   <trkpt lon="6.928719" lat="45.792179"><ele>1902.5</ele></trkpt>
   <trkpt lon="6.929191" lat="45.792234"><ele>1917.5</ele></trkpt>
   <trkpt lon="6.929417" lat="45.792094"><ele>1927.75</ele></trkpt>
   <trkpt lon="6.929610" lat="45.792100"><ele>1933.25</ele></trkpt>
   <trkpt lon="6.929709" lat="45.791984"><ele>1938.75</ele></trkpt>
   <trkpt lon="6.929838" lat="45.791966"><ele>1942.5</ele></trkpt>
   <trkpt lon="6.929881" lat="45.791891"><ele>1946.0</ele></trkpt>
   <trkpt lon="6.929723" lat="45.791796"><ele>1946.25</ele></trkpt>
   <trkpt lon="6.929712" lat="45.791635"><ele>1952.25</ele></trkpt>
   <trkpt lon="6.929639" lat="45.791486"><ele>1954.25</ele></trkpt>
   <trkpt lon="6.929598" lat="45.791372"><ele>1956.0</ele></trkpt>
   <trkpt lon="6.929619" lat="45.791337"><ele>1956.25</ele></trkpt>
   <trkpt lon="6.929687" lat="45.791307"><ele>1957.0</ele></trkpt>
   <trkpt lon="6.929815" lat="45.791290"><ele>1957.5</ele></trkpt>
   <trkpt lon="6.929961" lat="45.791235"><ele>1957.5</ele></trkpt>
   <trkpt lon="6.930281" lat="45.791135"><ele>1955.25</ele></trkpt>
   <trkpt lon="6.930545" lat="45.791082"><ele>1954.75</ele></trkpt>
   <trkpt lon="6.930753" lat="45.791011"><ele>1956.25</ele></trkpt>
   <trkpt lon="6.930977" lat="45.790958"><ele>1956.75</ele></trkpt>
   <trkpt lon="6.931134" lat="45.790909"><ele>1956.0</ele></trkpt>
   <trkpt lon="6.931203" lat="45.790880"><ele>1955.0</ele></trkpt>
   <trkpt lon="6.931248" lat="45.790868"><ele>1954.5</ele></trkpt>
   <trkpt lon="6.931441" lat="45.790909"><ele>1953.25</ele></trkpt>
   <trkpt lon="6.931755" lat="45.790986"><ele>1950.5</ele></trkpt>
   <trkpt lon="6.931972" lat="45.791012"><ele>1950.25</ele></trkpt>
   <trkpt lon="6.932208" lat="45.791022"><ele>1950.75</ele></trkpt>
   <trkpt lon="6.932369" lat="45.791036"><ele>1951.75</ele></trkpt>
   <trkpt lon="6.932360" lat="45.791006"><ele>1951.5</ele></trkpt>
   <trkpt lon="6.932354" lat="45.790765"><ele>1950.0</ele></trkpt>
   <trkpt lon="6.932409" lat="45.790688"><ele>1949.0</ele></trkpt>
   <trkpt lon="6.932472" lat="45.790508"><ele>1947.25</ele></trkpt>
   <trkpt lon="6.932568" lat="45.790340"><ele>1946.5</ele></trkpt>
   <trkpt lon="6.932676" lat="45.790182"><ele>1945.25</ele></trkpt>
   <trkpt lon="6.932801" lat="45.790068"><ele>1944.25</ele></trkpt>
   <trkpt lon="6.932953" lat="45.789971"><ele>1944.0</ele></trkpt>
   <trkpt lon="6.933012" lat="45.789829"><ele>1944.0</ele></trkpt>
   <trkpt lon="6.933103" lat="45.789695"><ele>1944.0</ele></trkpt>
   <trkpt lon="6.933170" lat="45.789551"><ele>1944.25</ele></trkpt>
   <trkpt lon="6.933219" lat="45.789423"><ele>1944.25</ele></trkpt>
   <trkpt lon="6.933258" lat="45.789368"><ele>1944.25</ele></trkpt>
   <trkpt lon="6.933246" lat="45.789326"><ele>1944.5</ele></trkpt>
   <trkpt lon="6.933263" lat="45.789246"><ele>1944.5</ele></trkpt>
   <trkpt lon="6.933224" lat="45.789224"><ele>1945.0</ele></trkpt>
   <trkpt lon="6.932961" lat="45.788972"><ele>1952.75</ele></trkpt>
   <trkpt lon="6.932813" lat="45.788891"><ele>1956.25</ele></trkpt>
   <trkpt lon="6.932618" lat="45.788811"><ele>1960.75</ele></trkpt>
   <trkpt lon="6.932477" lat="45.788730"><ele>1964.5</ele></trkpt>
   <trkpt lon="6.932423" lat="45.788622"><ele>1966.25</ele></trkpt>
   <trkpt lon="6.932455" lat="45.788504"><ele>1966.5</ele></trkpt>
   <trkpt lon="6.932549" lat="45.788244"><ele>1967.0</ele></trkpt>
   <trkpt lon="6.932622" lat="45.788081"><ele>1967.75</ele></trkpt>
   <trkpt lon="6.932723" lat="45.787920"><ele>1971.25</ele></trkpt>
   <trkpt lon="6.932871" lat="45.787761"><ele>1972.5</ele></trkpt>
   <trkpt lon="6.933041" lat="45.787616"><ele>1972.75</ele></trkpt>
   <trkpt lon="6.933140" lat="45.787509"><ele>1973.75</ele></trkpt>
   <trkpt lon="6.933196" lat="45.787407"><ele>1974.25</ele></trkpt>
   <trkpt lon="6.933179" lat="45.787256"><ele>1978.0</ele></trkpt>
   <trkpt lon="6.933138" lat="45.787021"><ele>1983.75</ele></trkpt>
   <trkpt lon="6.933071" lat="45.786843"><ele>1987.25</ele></trkpt>
   <trkpt lon="6.932734" lat="45.786521"><ele>1996.5</ele></trkpt>
   <trkpt lon="6.932630" lat="45.786359"><ele>2000.0</ele></trkpt>
   <trkpt lon="6.932472" lat="45.785991"><ele>2005.75</ele></trkpt>
   <trkpt lon="6.932309" lat="45.786021"><ele>2006.75</ele></trkpt>
   <trkpt lon="6.932058" lat="45.786034"><ele>2009.75</ele></trkpt>
   <trkpt lon="6.931827" lat="45.786025"><ele>2013.5</ele></trkpt>
   <trkpt lon="6.931482" lat="45.785999"><ele>2020.0</ele></trkpt>
   <trkpt lon="6.931016" lat="45.785937"><ele>2031.0</ele></trkpt>
  </trkseg>
  </trk>
</gpx>
