<?xml version="1.0" encoding="UTF-8"?>
<gpx xmlns="http://www.topografix.com/GPX/1/1" xmlns:xsi="http://www.w3.org/2001/XMLSchema-instance" xsi:schemaLocation="http://www.topografix.com/GPX/1/1 http://www.topografix.com/GPX/1/1/gpx.xsd" version="1.1" creator="tmb2027 build-gpx (BRouter hiking-mountain)">
  <metadata>
    <name>TMB 2027 Day 8 · La Fouly → Praz de Fort → Champex-Lac</name>
    <desc>라 풀리 → 프라 드 포르 → 샹페 호수 · 경유 4지점 · 참고용 산길 경로. 실제 길 찾기는 공식 지도·현장 표지 우선.</desc>
    <copyright author="OpenStreetMap contributors"><license>https://www.openstreetmap.org/copyright</license></copyright>
    <link href="https://brouter.de/"><text>Routing: BRouter hiking-mountain</text></link>
    <time>2026-09-18T00:00:00Z</time>
  </metadata>
  <wpt lat="45.933" lon="7.096"><ele>1600</ele><name>La Fouly</name><type>lodging</type></wpt>
  <wpt lat="45.977" lon="7.107"><ele>1151</ele><name>Praz de Fort</name><type>waypoint</type></wpt>
  <wpt lat="45.994" lon="7.112"><ele>1055</ele><name>Issert</name><type>waypoint</type></wpt>
  <wpt lat="46.03" lon="7.115"><ele>1466</ele><name>Champex-Lac</name><type>lodging</type></wpt>
  <trk>
    <name>TMB 2027 Day 8 · La Fouly → Praz de Fort → Champex-Lac</name>
    <trkseg>
   <trkpt lon="7.095395" lat="45.932915"><ele>1595.0</ele></trkpt>
   <trkpt lon="7.095320" lat="45.933091"><ele>1592.25</ele></trkpt>
   <trkpt lon="7.095346" lat="45.933129"><ele>1592.0</ele></trkpt>
   <trkpt lon="7.095404" lat="45.933269"><ele>1590.75</ele></trkpt>
   <trkpt lon="7.095403" lat="45.933328"><ele>1590.25</ele></trkpt>
   <trkpt lon="7.095375" lat="45.933364"><ele>1589.5</ele></trkpt>
   <trkpt lon="7.095353" lat="45.933462"><ele>1588.5</ele></trkpt>
   <trkpt lon="7.095315" lat="45.933563"><ele>1588.25</ele></trkpt>
   <trkpt lon="7.095297" lat="45.933651"><ele>1588.75</ele></trkpt>
   <trkpt lon="7.095278" lat="45.933748"><ele>1588.75</ele></trkpt>
   <trkpt lon="7.095146" lat="45.933887"><ele>1589.75</ele></trkpt>
   <trkpt lon="7.094970" lat="45.934046"><ele>1591.5</ele></trkpt>
   <trkpt lon="7.094938" lat="45.934088"><ele>1592.0</ele></trkpt>
   <trkpt lon="7.094846" lat="45.934139"><ele>1592.5</ele></trkpt>
   <trkpt lon="7.094475" lat="45.934341"><ele>1593.25</ele></trkpt>
   <trkpt lon="7.094427" lat="45.934373"><ele>1593.25</ele></trkpt>
   <trkpt lon="7.094407" lat="45.934385"><ele>1593.25</ele></trkpt>
   <trkpt lon="7.094217" lat="45.934524"><ele>1593.0</ele></trkpt>
   <trkpt lon="7.094037" lat="45.934662"><ele>1593.25</ele></trkpt>
   <trkpt lon="7.093993" lat="45.934729"><ele>1593.0</ele></trkpt>
   <trkpt lon="7.093932" lat="45.934858"><ele>1592.75</ele></trkpt>
   <trkpt lon="7.093896" lat="45.935092"><ele>1591.25</ele></trkpt>
   <trkpt lon="7.093837" lat="45.935397"><ele>1589.75</ele></trkpt>
   <trkpt lon="7.094039" lat="45.935563"><ele>1588.25</ele></trkpt>
   <trkpt lon="7.094128" lat="45.935734"><ele>1586.75</ele></trkpt>
   <trkpt lon="7.094169" lat="45.935801"><ele>1586.0</ele></trkpt>
   <trkpt lon="7.094243" lat="45.935883"><ele>1585.0</ele></trkpt>
   <trkpt lon="7.094278" lat="45.935941"><ele>1584.5</ele></trkpt>
   <trkpt lon="7.094282" lat="45.935987"><ele>1584.0</ele></trkpt>
   <trkpt lon="7.094276" lat="45.936016"><ele>1583.75</ele></trkpt>
   <trkpt lon="7.094240" lat="45.936093"><ele>1583.0</ele></trkpt>
   <trkpt lon="7.094208" lat="45.936213"><ele>1582.5</ele></trkpt>
   <trkpt lon="7.094206" lat="45.936257"><ele>1582.25</ele></trkpt>
   <trkpt lon="7.094232" lat="45.936323"><ele>1581.75</ele></trkpt>
   <trkpt lon="7.094557" lat="45.936680"><ele>1578.5</ele></trkpt>
   <trkpt lon="7.094633" lat="45.936793"><ele>1577.5</ele></trkpt>
   <trkpt lon="7.094710" lat="45.936926"><ele>1577.0</ele></trkpt>
   <trkpt lon="7.094775" lat="45.937066"><ele>1576.25</ele></trkpt>
   <trkpt lon="7.094841" lat="45.937173"><ele>1575.5</ele></trkpt>
   <trkpt lon="7.094896" lat="45.937222"><ele>1575.25</ele></trkpt>
   <trkpt lon="7.094938" lat="45.937249"><ele>1575.0</ele></trkpt>
   <trkpt lon="7.094996" lat="45.937275"><ele>1575.0</ele></trkpt>
   <trkpt lon="7.095196" lat="45.937328"><ele>1574.0</ele></trkpt>
   <trkpt lon="7.095298" lat="45.937357"><ele>1573.25</ele></trkpt>
   <trkpt lon="7.095361" lat="45.937397"><ele>1572.5</ele></trkpt>
   <trkpt lon="7.095453" lat="45.937456"><ele>1571.75</ele></trkpt>
   <trkpt lon="7.095547" lat="45.937551"><ele>1570.75</ele></trkpt>
   <trkpt lon="7.095610" lat="45.937622"><ele>1569.5</ele></trkpt>
   <trkpt lon="7.095630" lat="45.937783"><ele>1568.5</ele></trkpt>
   <trkpt lon="7.095631" lat="45.937871"><ele>1568.25</ele></trkpt>
   <trkpt lon="7.095430" lat="45.938176"><ele>1568.0</ele></trkpt>
   <trkpt lon="7.095421" lat="45.938244"><ele>1567.25</ele></trkpt>
   <trkpt lon="7.095456" lat="45.938343"><ele>1566.25</ele></trkpt>
   <trkpt lon="7.095554" lat="45.938477"><ele>1564.75</ele></trkpt>
   <trkpt lon="7.095560" lat="45.938719"><ele>1563.5</ele></trkpt>
   <trkpt lon="7.095596" lat="45.938823"><ele>1563.0</ele></trkpt>
   <trkpt lon="7.095661" lat="45.938881"><ele>1562.5</ele></trkpt>
   <trkpt lon="7.095657" lat="45.938950"><ele>1561.75</ele></trkpt>
   <trkpt lon="7.095635" lat="45.939020"><ele>1561.25</ele></trkpt>
   <trkpt lon="7.095568" lat="45.939080"><ele>1560.75</ele></trkpt>
   <trkpt lon="7.095469" lat="45.939256"><ele>1560.0</ele></trkpt>
   <trkpt lon="7.095387" lat="45.939391"><ele>1559.25</ele></trkpt>
   <trkpt lon="7.095350" lat="45.939530"><ele>1557.75</ele></trkpt>
   <trkpt lon="7.095360" lat="45.939569"><ele>1557.5</ele></trkpt>
   <trkpt lon="7.095413" lat="45.939672"><ele>1556.0</ele></trkpt>
   <trkpt lon="7.095432" lat="45.939740"><ele>1555.25</ele></trkpt>
   <trkpt lon="7.095436" lat="45.939814"><ele>1554.75</ele></trkpt>
   <trkpt lon="7.095492" lat="45.939924"><ele>1553.75</ele></trkpt>
   <trkpt lon="7.095563" lat="45.940027"><ele>1552.5</ele></trkpt>
   <trkpt lon="7.095605" lat="45.940116"><ele>1550.75</ele></trkpt>
   <trkpt lon="7.095620" lat="45.940174"><ele>1549.75</ele></trkpt>
   <trkpt lon="7.095582" lat="45.940360"><ele>1548.75</ele></trkpt>
   <trkpt lon="7.095589" lat="45.940446"><ele>1548.5</ele></trkpt>
   <trkpt lon="7.095638" lat="45.940563"><ele>1548.0</ele></trkpt>
   <trkpt lon="7.095710" lat="45.940695"><ele>1546.75</ele></trkpt>
   <trkpt lon="7.095782" lat="45.940756"><ele>1545.75</ele></trkpt>
   <trkpt lon="7.095837" lat="45.940793"><ele>1545.0</ele></trkpt>
   <trkpt lon="7.095933" lat="45.940884"><ele>1543.75</ele></trkpt>
   <trkpt lon="7.095958" lat="45.940892"><ele>1543.75</ele></trkpt>
   <trkpt lon="7.096142" lat="45.941083"><ele>1541.5</ele></trkpt>
   <trkpt lon="7.096129" lat="45.941157"><ele>1541.0</ele></trkpt>
   <trkpt lon="7.096195" lat="45.941330"><ele>1539.25</ele></trkpt>
   <trkpt lon="7.096262" lat="45.941397"><ele>1538.75</ele></trkpt>
   <trkpt lon="7.096302" lat="45.941416"><ele>1538.75</ele></trkpt>
   <trkpt lon="7.096221" lat="45.941533"><ele>1538.25</ele></trkpt>
   <trkpt lon="7.096228" lat="45.941657"><ele>1538.0</ele></trkpt>
   <trkpt lon="7.096179" lat="45.941806"><ele>1537.25</ele></trkpt>
   <trkpt lon="7.096152" lat="45.941972"><ele>1536.5</ele></trkpt>
   <trkpt lon="7.096125" lat="45.942031"><ele>1536.5</ele></trkpt>
   <trkpt lon="7.096111" lat="45.942259"><ele>1535.5</ele></trkpt>
   <trkpt lon="7.096067" lat="45.942325"><ele>1535.0</ele></trkpt>
   <trkpt lon="7.096027" lat="45.942363"><ele>1534.75</ele></trkpt>
   <trkpt lon="7.095927" lat="45.942440"><ele>1534.75</ele></trkpt>
   <trkpt lon="7.095864" lat="45.942500"><ele>1534.75</ele></trkpt>
   <trkpt lon="7.095838" lat="45.942534"><ele>1534.75</ele></trkpt>
   <trkpt lon="7.095820" lat="45.942579"><ele>1535.0</ele></trkpt>
   <trkpt lon="7.095834" lat="45.942635"><ele>1534.75</ele></trkpt>
   <trkpt lon="7.095916" lat="45.942726"><ele>1534.0</ele></trkpt>
   <trkpt lon="7.095928" lat="45.942790"><ele>1534.0</ele></trkpt>
   <trkpt lon="7.095917" lat="45.942858"><ele>1534.25</ele></trkpt>
   <trkpt lon="7.095908" lat="45.943107"><ele>1534.5</ele></trkpt>
   <trkpt lon="7.095931" lat="45.943250"><ele>1533.0</ele></trkpt>
   <trkpt lon="7.096077" lat="45.943489"><ele>1529.25</ele></trkpt>
   <trkpt lon="7.096150" lat="45.943662"><ele>1527.0</ele></trkpt>
   <trkpt lon="7.096189" lat="45.943775"><ele>1525.75</ele></trkpt>
   <trkpt lon="7.096232" lat="45.943958"><ele>1524.75</ele></trkpt>
   <trkpt lon="7.096361" lat="45.944359"><ele>1526.5</ele></trkpt>
   <trkpt lon="7.096420" lat="45.944463"><ele>1527.0</ele></trkpt>
   <trkpt lon="7.096473" lat="45.944513"><ele>1527.75</ele></trkpt>
   <trkpt lon="7.096515" lat="45.944536"><ele>1528.0</ele></trkpt>
   <trkpt lon="7.096836" lat="45.944706"><ele>1530.0</ele></trkpt>
   <trkpt lon="7.096949" lat="45.944734"><ele>1530.0</ele></trkpt>
   <trkpt lon="7.097072" lat="45.944785"><ele>1529.75</ele></trkpt>
   <trkpt lon="7.097266" lat="45.944880"><ele>1529.25</ele></trkpt>
   <trkpt lon="7.097434" lat="45.944991"><ele>1529.25</ele></trkpt>
   <trkpt lon="7.097492" lat="45.945021"><ele>1529.25</ele></trkpt>
   <trkpt lon="7.097517" lat="45.945081"><ele>1529.5</ele></trkpt>
   <trkpt lon="7.097622" lat="45.945189"><ele>1529.5</ele></trkpt>
   <trkpt lon="7.097724" lat="45.945220"><ele>1529.0</ele></trkpt>
   <trkpt lon="7.097817" lat="45.945319"><ele>1529.75</ele></trkpt>
   <trkpt lon="7.097946" lat="45.945411"><ele>1529.0</ele></trkpt>
   <trkpt lon="7.097983" lat="45.945479"><ele>1529.5</ele></trkpt>
   <trkpt lon="7.098119" lat="45.945516"><ele>1528.25</ele></trkpt>
   <trkpt lon="7.098269" lat="45.945518"><ele>1526.25</ele></trkpt>
   <trkpt lon="7.098326" lat="45.945532"><ele>1525.75</ele></trkpt>
   <trkpt lon="7.098539" lat="45.945700"><ele>1523.5</ele></trkpt>
   <trkpt lon="7.098619" lat="45.945735"><ele>1522.0</ele></trkpt>
   <trkpt lon="7.098714" lat="45.945813"><ele>1520.25</ele></trkpt>
   <trkpt lon="7.098843" lat="45.946068"><ele>1519.25</ele></trkpt>
   <trkpt lon="7.098976" lat="45.946153"><ele>1517.5</ele></trkpt>
   <trkpt lon="7.099013" lat="45.946281"><ele>1517.25</ele></trkpt>
   <trkpt lon="7.099082" lat="45.946335"><ele>1516.25</ele></trkpt>
   <trkpt lon="7.099119" lat="45.946418"><ele>1515.75</ele></trkpt>
   <trkpt lon="7.099120" lat="45.946499"><ele>1515.75</ele></trkpt>
   <trkpt lon="7.099135" lat="45.946558"><ele>1515.5</ele></trkpt>
   <trkpt lon="7.099230" lat="45.946636"><ele>1513.5</ele></trkpt>
   <trkpt lon="7.099279" lat="45.946730"><ele>1512.75</ele></trkpt>
   <trkpt lon="7.099390" lat="45.946852"><ele>1510.75</ele></trkpt>
   <trkpt lon="7.099384" lat="45.946905"><ele>1511.0</ele></trkpt>
   <trkpt lon="7.099420" lat="45.946953"><ele>1510.25</ele></trkpt>
   <trkpt lon="7.099460" lat="45.947097"><ele>1508.75</ele></trkpt>
   <trkpt lon="7.099539" lat="45.947264"><ele>1505.25</ele></trkpt>
   <trkpt lon="7.099549" lat="45.947315"><ele>1505.0</ele></trkpt>
   <trkpt lon="7.099613" lat="45.947413"><ele>1503.25</ele></trkpt>
   <trkpt lon="7.099631" lat="45.947491"><ele>1503.0</ele></trkpt>
   <trkpt lon="7.099666" lat="45.947563"><ele>1502.25</ele></trkpt>
   <trkpt lon="7.099679" lat="45.947629"><ele>1501.75</ele></trkpt>
   <trkpt lon="7.099668" lat="45.947749"><ele>1501.75</ele></trkpt>
   <trkpt lon="7.099758" lat="45.947889"><ele>1498.75</ele></trkpt>
   <trkpt lon="7.099815" lat="45.947923"><ele>1497.25</ele></trkpt>
   <trkpt lon="7.099894" lat="45.948150"><ele>1494.0</ele></trkpt>
   <trkpt lon="7.099852" lat="45.948309"><ele>1494.0</ele></trkpt>
   <trkpt lon="7.099902" lat="45.948445"><ele>1494.5</ele></trkpt>
   <trkpt lon="7.100040" lat="45.948582"><ele>1493.25</ele></trkpt>
   <trkpt lon="7.100036" lat="45.948617"><ele>1493.5</ele></trkpt>
   <trkpt lon="7.100143" lat="45.948690"><ele>1493.75</ele></trkpt>
   <trkpt lon="7.100170" lat="45.948748"><ele>1494.5</ele></trkpt>
   <trkpt lon="7.100271" lat="45.948783"><ele>1493.5</ele></trkpt>
   <trkpt lon="7.100277" lat="45.948863"><ele>1494.5</ele></trkpt>
   <trkpt lon="7.100375" lat="45.948946"><ele>1493.5</ele></trkpt>
   <trkpt lon="7.100466" lat="45.949085"><ele>1495.25</ele></trkpt>
   <trkpt lon="7.100576" lat="45.949193"><ele>1496.25</ele></trkpt>
   <trkpt lon="7.100662" lat="45.949257"><ele>1496.75</ele></trkpt>
   <trkpt lon="7.100814" lat="45.949309"><ele>1495.75</ele></trkpt>
   <trkpt lon="7.100909" lat="45.949428"><ele>1499.0</ele></trkpt>
   <trkpt lon="7.101079" lat="45.949524"><ele>1500.0</ele></trkpt>
   <trkpt lon="7.101180" lat="45.949632"><ele>1501.5</ele></trkpt>
   <trkpt lon="7.101524" lat="45.949925"><ele>1499.5</ele></trkpt>
   <trkpt lon="7.101635" lat="45.950011"><ele>1497.75</ele></trkpt>
   <trkpt lon="7.101700" lat="45.950113"><ele>1497.75</ele></trkpt>
   <trkpt lon="7.101736" lat="45.950185"><ele>1498.0</ele></trkpt>
   <trkpt lon="7.101694" lat="45.950248"><ele>1499.75</ele></trkpt>
   <trkpt lon="7.101683" lat="45.950309"><ele>1500.75</ele></trkpt>
   <trkpt lon="7.101679" lat="45.950362"><ele>1501.25</ele></trkpt>
   <trkpt lon="7.101702" lat="45.950404"><ele>1501.0</ele></trkpt>
   <trkpt lon="7.101882" lat="45.950470"><ele>1497.5</ele></trkpt>
   <trkpt lon="7.101968" lat="45.950487"><ele>1495.5</ele></trkpt>
   <trkpt lon="7.102051" lat="45.950522"><ele>1493.5</ele></trkpt>
   <trkpt lon="7.102077" lat="45.950631"><ele>1492.5</ele></trkpt>
   <trkpt lon="7.101994" lat="45.950768"><ele>1493.25</ele></trkpt>
   <trkpt lon="7.101892" lat="45.950822"><ele>1495.25</ele></trkpt>
   <trkpt lon="7.101877" lat="45.950859"><ele>1495.0</ele></trkpt>
   <trkpt lon="7.101918" lat="45.950917"><ele>1492.25</ele></trkpt>
   <trkpt lon="7.101894" lat="45.950991"><ele>1491.25</ele></trkpt>
   <trkpt lon="7.101885" lat="45.951099"><ele>1489.25</ele></trkpt>
   <trkpt lon="7.101891" lat="45.951187"><ele>1486.75</ele></trkpt>
   <trkpt lon="7.101922" lat="45.951301"><ele>1482.25</ele></trkpt>
   <trkpt lon="7.102112" lat="45.951548"><ele>1475.25</ele></trkpt>
   <trkpt lon="7.102200" lat="45.951607"><ele>1472.75</ele></trkpt>
   <trkpt lon="7.102298" lat="45.951695"><ele>1469.75</ele></trkpt>
   <trkpt lon="7.102457" lat="45.951931"><ele>1469.75</ele></trkpt>
   <trkpt lon="7.102585" lat="45.952093"><ele>1465.5</ele></trkpt>
   <trkpt lon="7.102636" lat="45.952190"><ele>1463.5</ele></trkpt>
   <trkpt lon="7.102648" lat="45.952256"><ele>1462.5</ele></trkpt>
   <trkpt lon="7.102643" lat="45.952349"><ele>1460.75</ele></trkpt>
   <trkpt lon="7.102626" lat="45.952423"><ele>1459.75</ele></trkpt>
   <trkpt lon="7.102590" lat="45.952509"><ele>1458.75</ele></trkpt>
   <trkpt lon="7.102523" lat="45.952621"><ele>1458.25</ele></trkpt>
   <trkpt lon="7.102432" lat="45.952738"><ele>1458.25</ele></trkpt>
   <trkpt lon="7.102408" lat="45.952887"><ele>1456.25</ele></trkpt>
   <trkpt lon="7.102402" lat="45.953002"><ele>1454.5</ele></trkpt>
   <trkpt lon="7.102422" lat="45.953105"><ele>1453.0</ele></trkpt>
   <trkpt lon="7.102487" lat="45.953237"><ele>1450.0</ele></trkpt>
   <trkpt lon="7.102560" lat="45.953360"><ele>1448.25</ele></trkpt>
   <trkpt lon="7.102680" lat="45.953505"><ele>1446.25</ele></trkpt>
   <trkpt lon="7.102740" lat="45.953596"><ele>1444.75</ele></trkpt>
   <trkpt lon="7.102775" lat="45.953688"><ele>1443.75</ele></trkpt>
   <trkpt lon="7.102877" lat="45.954145"><ele>1442.5</ele></trkpt>
   <trkpt lon="7.103024" lat="45.954391"><ele>1441.25</ele></trkpt>
   <trkpt lon="7.103515" lat="45.954922"><ele>1439.0</ele></trkpt>
   <trkpt lon="7.103652" lat="45.955123"><ele>1438.5</ele></trkpt>
   <trkpt lon="7.103728" lat="45.955192"><ele>1438.0</ele></trkpt>
   <trkpt lon="7.103887" lat="45.955284"><ele>1437.0</ele></trkpt>
   <trkpt lon="7.104179" lat="45.955513"><ele>1434.5</ele></trkpt>
   <trkpt lon="7.104407" lat="45.955718"><ele>1431.25</ele></trkpt>
   <trkpt lon="7.104548" lat="45.955866"><ele>1431.5</ele></trkpt>
   <trkpt lon="7.104811" lat="45.956027"><ele>1429.25</ele></trkpt>
   <trkpt lon="7.104964" lat="45.956159"><ele>1428.75</ele></trkpt>
   <trkpt lon="7.105083" lat="45.956276"><ele>1427.25</ele></trkpt>
   <trkpt lon="7.105158" lat="45.956381"><ele>1426.5</ele></trkpt>
   <trkpt lon="7.105225" lat="45.956533"><ele>1425.5</ele></trkpt>
   <trkpt lon="7.105234" lat="45.956650"><ele>1425.5</ele></trkpt>
   <trkpt lon="7.105222" lat="45.956817"><ele>1425.5</ele></trkpt>
   <trkpt lon="7.105200" lat="45.956946"><ele>1425.5</ele></trkpt>
   <trkpt lon="7.105161" lat="45.957002"><ele>1425.75</ele></trkpt>
   <trkpt lon="7.105148" lat="45.957077"><ele>1425.5</ele></trkpt>
   <trkpt lon="7.105144" lat="45.957216"><ele>1424.25</ele></trkpt>
   <trkpt lon="7.105172" lat="45.957329"><ele>1424.75</ele></trkpt>
   <trkpt lon="7.105247" lat="45.957463"><ele>1423.0</ele></trkpt>
   <trkpt lon="7.105392" lat="45.957574"><ele>1421.25</ele></trkpt>
   <trkpt lon="7.105475" lat="45.957651"><ele>1420.25</ele></trkpt>
   <trkpt lon="7.105542" lat="45.957736"><ele>1419.0</ele></trkpt>
   <trkpt lon="7.105694" lat="45.957959"><ele>1418.25</ele></trkpt>
   <trkpt lon="7.105788" lat="45.958066"><ele>1415.5</ele></trkpt>
   <trkpt lon="7.105888" lat="45.958219"><ele>1413.75</ele></trkpt>
   <trkpt lon="7.105976" lat="45.958310"><ele>1411.75</ele></trkpt>
   <trkpt lon="7.106031" lat="45.958423"><ele>1410.5</ele></trkpt>
   <trkpt lon="7.106065" lat="45.958522"><ele>1409.25</ele></trkpt>
   <trkpt lon="7.106073" lat="45.958614"><ele>1409.5</ele></trkpt>
   <trkpt lon="7.106116" lat="45.958700"><ele>1408.0</ele></trkpt>
   <trkpt lon="7.106211" lat="45.958812"><ele>1406.25</ele></trkpt>
   <trkpt lon="7.106328" lat="45.958904"><ele>1405.25</ele></trkpt>
   <trkpt lon="7.106498" lat="45.958988"><ele>1404.5</ele></trkpt>
   <trkpt lon="7.106795" lat="45.959060"><ele>1400.5</ele></trkpt>
   <trkpt lon="7.106959" lat="45.959131"><ele>1397.75</ele></trkpt>
   <trkpt lon="7.107170" lat="45.959225"><ele>1394.5</ele></trkpt>
   <trkpt lon="7.107671" lat="45.959505"><ele>1390.75</ele></trkpt>
   <trkpt lon="7.107810" lat="45.959566"><ele>1390.75</ele></trkpt>
   <trkpt lon="7.107919" lat="45.959606"><ele>1390.25</ele></trkpt>
   <trkpt lon="7.107998" lat="45.959627"><ele>1389.0</ele></trkpt>
   <trkpt lon="7.108085" lat="45.959639"><ele>1387.0</ele></trkpt>
   <trkpt lon="7.108196" lat="45.959667"><ele>1385.0</ele></trkpt>
   <trkpt lon="7.108318" lat="45.959734"><ele>1382.75</ele></trkpt>
   <trkpt lon="7.108410" lat="45.959806"><ele>1382.5</ele></trkpt>
   <trkpt lon="7.108467" lat="45.959869"><ele>1382.5</ele></trkpt>
   <trkpt lon="7.108607" lat="45.960077"><ele>1378.75</ele></trkpt>
   <trkpt lon="7.108621" lat="45.960205"><ele>1378.0</ele></trkpt>
   <trkpt lon="7.108638" lat="45.960279"><ele>1377.25</ele></trkpt>
   <trkpt lon="7.108742" lat="45.960487"><ele>1374.25</ele></trkpt>
   <trkpt lon="7.108737" lat="45.960638"><ele>1373.5</ele></trkpt>
   <trkpt lon="7.108644" lat="45.961091"><ele>1372.25</ele></trkpt>
   <trkpt lon="7.108573" lat="45.961372"><ele>1372.25</ele></trkpt>
   <trkpt lon="7.108568" lat="45.961477"><ele>1372.5</ele></trkpt>
   <trkpt lon="7.108584" lat="45.961591"><ele>1372.25</ele></trkpt>
   <trkpt lon="7.108668" lat="45.961869"><ele>1371.0</ele></trkpt>
   <trkpt lon="7.108671" lat="45.961926"><ele>1371.0</ele></trkpt>
   <trkpt lon="7.108654" lat="45.961986"><ele>1371.75</ele></trkpt>
   <trkpt lon="7.108621" lat="45.962058"><ele>1372.75</ele></trkpt>
   <trkpt lon="7.108546" lat="45.962222"><ele>1373.5</ele></trkpt>
   <trkpt lon="7.108439" lat="45.962501"><ele>1372.25</ele></trkpt>
   <trkpt lon="7.108435" lat="45.962613"><ele>1372.75</ele></trkpt>
   <trkpt lon="7.108357" lat="45.962821"><ele>1373.75</ele></trkpt>
   <trkpt lon="7.108352" lat="45.962874"><ele>1373.75</ele></trkpt>
   <trkpt lon="7.108337" lat="45.963004"><ele>1373.75</ele></trkpt>
   <trkpt lon="7.108319" lat="45.963063"><ele>1374.0</ele></trkpt>
   <trkpt lon="7.108319" lat="45.963141"><ele>1374.0</ele></trkpt>
   <trkpt lon="7.108191" lat="45.963430"><ele>1376.0</ele></trkpt>
   <trkpt lon="7.108195" lat="45.963525"><ele>1375.75</ele></trkpt>
   <trkpt lon="7.108239" lat="45.963797"><ele>1374.0</ele></trkpt>
   <trkpt lon="7.108275" lat="45.963923"><ele>1372.75</ele></trkpt>
   <trkpt lon="7.108364" lat="45.964145"><ele>1370.5</ele></trkpt>
   <trkpt lon="7.108374" lat="45.964225"><ele>1369.5</ele></trkpt>
   <trkpt lon="7.108368" lat="45.964412"><ele>1367.5</ele></trkpt>
   <trkpt lon="7.108429" lat="45.964674"><ele>1364.0</ele></trkpt>
   <trkpt lon="7.108405" lat="45.964811"><ele>1362.5</ele></trkpt>
   <trkpt lon="7.108342" lat="45.964941"><ele>1360.75</ele></trkpt>
   <trkpt lon="7.108297" lat="45.965089"><ele>1360.0</ele></trkpt>
   <trkpt lon="7.108287" lat="45.965154"><ele>1359.75</ele></trkpt>
   <trkpt lon="7.108318" lat="45.965208"><ele>1359.25</ele></trkpt>
   <trkpt lon="7.108261" lat="45.965297"><ele>1358.75</ele></trkpt>
   <trkpt lon="7.108128" lat="45.965313"><ele>1359.0</ele></trkpt>
   <trkpt lon="7.108055" lat="45.965425"><ele>1360.0</ele></trkpt>
   <trkpt lon="7.108093" lat="45.965630"><ele>1361.75</ele></trkpt>
   <trkpt lon="7.108075" lat="45.965721"><ele>1364.75</ele></trkpt>
   <trkpt lon="7.108137" lat="45.965884"><ele>1365.25</ele></trkpt>
   <trkpt lon="7.108189" lat="45.965991"><ele>1365.25</ele></trkpt>
   <trkpt lon="7.108196" lat="45.966084"><ele>1367.5</ele></trkpt>
   <trkpt lon="7.108258" lat="45.966145"><ele>1366.75</ele></trkpt>
   <trkpt lon="7.108311" lat="45.966227"><ele>1369.25</ele></trkpt>
   <trkpt lon="7.108395" lat="45.966304"><ele>1371.5</ele></trkpt>
   <trkpt lon="7.108537" lat="45.966331"><ele>1368.25</ele></trkpt>
   <trkpt lon="7.108681" lat="45.966387"><ele>1367.0</ele></trkpt>
   <trkpt lon="7.108758" lat="45.966467"><ele>1367.25</ele></trkpt>
   <trkpt lon="7.108823" lat="45.966602"><ele>1370.5</ele></trkpt>
   <trkpt lon="7.108884" lat="45.966697"><ele>1372.0</ele></trkpt>
   <trkpt lon="7.108906" lat="45.966838"><ele>1375.75</ele></trkpt>
   <trkpt lon="7.108966" lat="45.966980"><ele>1378.75</ele></trkpt>
   <trkpt lon="7.109061" lat="45.967039"><ele>1377.75</ele></trkpt>
   <trkpt lon="7.109116" lat="45.967252"><ele>1384.75</ele></trkpt>
   <trkpt lon="7.109198" lat="45.967400"><ele>1386.5</ele></trkpt>
   <trkpt lon="7.109204" lat="45.967482"><ele>1389.25</ele></trkpt>
   <trkpt lon="7.109290" lat="45.967628"><ele>1389.0</ele></trkpt>
   <trkpt lon="7.109325" lat="45.967705"><ele>1389.75</ele></trkpt>
   <trkpt lon="7.109320" lat="45.967961"><ele>1395.25</ele></trkpt>
   <trkpt lon="7.109240" lat="45.968255"><ele>1401.25</ele></trkpt>
   <trkpt lon="7.109246" lat="45.968375"><ele>1402.25</ele></trkpt>
   <trkpt lon="7.109269" lat="45.968445"><ele>1402.25</ele></trkpt>
   <trkpt lon="7.109282" lat="45.968566"><ele>1404.0</ele></trkpt>
   <trkpt lon="7.109290" lat="45.968843"><ele>1405.5</ele></trkpt>
   <trkpt lon="7.109268" lat="45.969061"><ele>1404.25</ele></trkpt>
   <trkpt lon="7.109234" lat="45.969184"><ele>1404.75</ele></trkpt>
   <trkpt lon="7.109157" lat="45.969273"><ele>1409.75</ele></trkpt>
   <trkpt lon="7.109166" lat="45.969323"><ele>1409.5</ele></trkpt>
   <trkpt lon="7.109251" lat="45.969374"><ele>1403.75</ele></trkpt>
   <trkpt lon="7.109279" lat="45.969432"><ele>1401.75</ele></trkpt>
   <trkpt lon="7.109288" lat="45.969521"><ele>1403.25</ele></trkpt>
   <trkpt lon="7.109422" lat="45.969679"><ele>1398.25</ele></trkpt>
   <trkpt lon="7.109487" lat="45.969819"><ele>1395.75</ele></trkpt>
   <trkpt lon="7.109581" lat="45.970106"><ele>1392.25</ele></trkpt>
   <trkpt lon="7.109583" lat="45.970158"><ele>1392.5</ele></trkpt>
   <trkpt lon="7.109575" lat="45.970192"><ele>1393.5</ele></trkpt>
   <trkpt lon="7.109650" lat="45.970258"><ele>1388.75</ele></trkpt>
   <trkpt lon="7.109666" lat="45.970298"><ele>1387.0</ele></trkpt>
   <trkpt lon="7.109659" lat="45.970329"><ele>1386.5</ele></trkpt>
   <trkpt lon="7.109612" lat="45.970424"><ele>1386.0</ele></trkpt>
   <trkpt lon="7.109494" lat="45.970540"><ele>1390.0</ele></trkpt>
   <trkpt lon="7.109469" lat="45.970599"><ele>1392.5</ele></trkpt>
   <trkpt lon="7.109413" lat="45.970650"><ele>1397.25</ele></trkpt>
   <trkpt lon="7.109401" lat="45.970696"><ele>1398.75</ele></trkpt>
   <trkpt lon="7.109460" lat="45.970744"><ele>1397.5</ele></trkpt>
   <trkpt lon="7.109576" lat="45.970768"><ele>1393.5</ele></trkpt>
   <trkpt lon="7.109643" lat="45.970812"><ele>1393.25</ele></trkpt>
   <trkpt lon="7.109766" lat="45.970791"><ele>1387.25</ele></trkpt>
   <trkpt lon="7.109842" lat="45.970832"><ele>1387.5</ele></trkpt>
   <trkpt lon="7.109867" lat="45.970811"><ele>1384.75</ele></trkpt>
   <trkpt lon="7.109990" lat="45.970838"><ele>1382.5</ele></trkpt>
   <trkpt lon="7.110111" lat="45.970959"><ele>1379.5</ele></trkpt>
   <trkpt lon="7.110207" lat="45.971083"><ele>1377.0</ele></trkpt>
   <trkpt lon="7.110197" lat="45.970917"><ele>1372.5</ele></trkpt>
   <trkpt lon="7.110223" lat="45.970821"><ele>1367.25</ele></trkpt>
   <trkpt lon="7.110298" lat="45.970890"><ele>1365.5</ele></trkpt>
   <trkpt lon="7.110362" lat="45.970921"><ele>1362.75</ele></trkpt>
   <trkpt lon="7.110366" lat="45.970883"><ele>1361.5</ele></trkpt>
   <trkpt lon="7.110405" lat="45.970861"><ele>1358.75</ele></trkpt>
   <trkpt lon="7.110463" lat="45.970886"><ele>1356.25</ele></trkpt>
   <trkpt lon="7.110496" lat="45.970962"><ele>1356.0</ele></trkpt>
   <trkpt lon="7.110465" lat="45.971073"><ele>1360.5</ele></trkpt>
   <trkpt lon="7.110512" lat="45.971098"><ele>1358.25</ele></trkpt>
   <trkpt lon="7.110595" lat="45.971093"><ele>1353.5</ele></trkpt>
   <trkpt lon="7.110771" lat="45.971151"><ele>1346.25</ele></trkpt>
   <trkpt lon="7.110880" lat="45.971277"><ele>1343.75</ele></trkpt>
   <trkpt lon="7.111058" lat="45.971461"><ele>1340.0</ele></trkpt>
   <trkpt lon="7.111313" lat="45.971528"><ele>1331.0</ele></trkpt>
   <trkpt lon="7.111403" lat="45.971614"><ele>1330.5</ele></trkpt>
   <trkpt lon="7.111439" lat="45.971671"><ele>1331.0</ele></trkpt>
   <trkpt lon="7.111443" lat="45.971854"><ele>1330.75</ele></trkpt>
   <trkpt lon="7.111494" lat="45.971904"><ele>1327.5</ele></trkpt>
   <trkpt lon="7.111541" lat="45.971995"><ele>1325.0</ele></trkpt>
   <trkpt lon="7.111518" lat="45.972067"><ele>1326.5</ele></trkpt>
   <trkpt lon="7.111599" lat="45.972305"><ele>1323.25</ele></trkpt>
   <trkpt lon="7.111610" lat="45.972414"><ele>1321.75</ele></trkpt>
   <trkpt lon="7.111596" lat="45.972496"><ele>1322.0</ele></trkpt>
   <trkpt lon="7.111663" lat="45.972562"><ele>1319.75</ele></trkpt>
   <trkpt lon="7.111668" lat="45.972744"><ele>1324.0</ele></trkpt>
   <trkpt lon="7.111762" lat="45.972771"><ele>1318.75</ele></trkpt>
   <trkpt lon="7.111865" lat="45.972932"><ele>1319.5</ele></trkpt>
   <trkpt lon="7.111883" lat="45.972992"><ele>1321.0</ele></trkpt>
   <trkpt lon="7.111911" lat="45.973029"><ele>1321.0</ele></trkpt>
   <trkpt lon="7.112026" lat="45.973417"><ele>1319.25</ele></trkpt>
   <trkpt lon="7.112024" lat="45.973638"><ele>1318.0</ele></trkpt>
   <trkpt lon="7.111987" lat="45.973737"><ele>1319.25</ele></trkpt>
   <trkpt lon="7.112027" lat="45.973848"><ele>1316.0</ele></trkpt>
   <trkpt lon="7.112015" lat="45.973906"><ele>1316.0</ele></trkpt>
   <trkpt lon="7.111952" lat="45.973975"><ele>1318.25</ele></trkpt>
   <trkpt lon="7.111952" lat="45.974073"><ele>1316.75</ele></trkpt>
   <trkpt lon="7.111917" lat="45.974178"><ele>1318.0</ele></trkpt>
   <trkpt lon="7.111918" lat="45.974281"><ele>1320.5</ele></trkpt>
   <trkpt lon="7.111962" lat="45.974345"><ele>1319.0</ele></trkpt>
   <trkpt lon="7.112024" lat="45.974467"><ele>1317.0</ele></trkpt>
   <trkpt lon="7.112085" lat="45.974637"><ele>1316.75</ele></trkpt>
   <trkpt lon="7.112125" lat="45.974777"><ele>1317.25</ele></trkpt>
   <trkpt lon="7.112230" lat="45.975049"><ele>1317.0</ele></trkpt>
   <trkpt lon="7.112358" lat="45.975180"><ele>1315.75</ele></trkpt>
   <trkpt lon="7.112486" lat="45.975291"><ele>1314.5</ele></trkpt>
   <trkpt lon="7.112557" lat="45.975373"><ele>1313.0</ele></trkpt>
   <trkpt lon="7.112582" lat="45.975449"><ele>1313.0</ele></trkpt>
   <trkpt lon="7.112591" lat="45.975569"><ele>1314.25</ele></trkpt>
   <trkpt lon="7.112631" lat="45.975707"><ele>1314.5</ele></trkpt>
   <trkpt lon="7.112779" lat="45.975873"><ele>1310.5</ele></trkpt>
   <trkpt lon="7.112814" lat="45.975982"><ele>1311.0</ele></trkpt>
   <trkpt lon="7.112797" lat="45.976122"><ele>1314.25</ele></trkpt>
   <trkpt lon="7.112838" lat="45.976219"><ele>1316.5</ele></trkpt>
   <trkpt lon="7.113012" lat="45.976362"><ele>1313.25</ele></trkpt>
   <trkpt lon="7.113173" lat="45.976510"><ele>1312.5</ele></trkpt>
   <trkpt lon="7.113304" lat="45.976643"><ele>1314.5</ele></trkpt>
   <trkpt lon="7.113422" lat="45.976958"><ele>1312.75</ele></trkpt>
   <trkpt lon="7.113412" lat="45.977036"><ele>1311.5</ele></trkpt>
   <trkpt lon="7.113374" lat="45.977109"><ele>1311.5</ele></trkpt>
   <trkpt lon="7.113305" lat="45.977187"><ele>1312.5</ele></trkpt>
   <trkpt lon="7.113289" lat="45.977316"><ele>1310.75</ele></trkpt>
   <trkpt lon="7.113155" lat="45.977542"><ele>1309.75</ele></trkpt>
   <trkpt lon="7.113089" lat="45.977858"><ele>1308.75</ele></trkpt>
   <trkpt lon="7.113115" lat="45.978054"><ele>1308.0</ele></trkpt>
   <trkpt lon="7.113127" lat="45.978229"><ele>1306.75</ele></trkpt>
   <trkpt lon="7.113112" lat="45.978302"><ele>1307.5</ele></trkpt>
   <trkpt lon="7.113113" lat="45.978513"><ele>1307.25</ele></trkpt>
   <trkpt lon="7.113092" lat="45.978588"><ele>1308.5</ele></trkpt>
   <trkpt lon="7.113037" lat="45.978677"><ele>1311.0</ele></trkpt>
   <trkpt lon="7.113064" lat="45.978730"><ele>1308.75</ele></trkpt>
   <trkpt lon="7.113057" lat="45.978826"><ele>1307.75</ele></trkpt>
   <trkpt lon="7.112968" lat="45.979065"><ele>1307.5</ele></trkpt>
   <trkpt lon="7.112908" lat="45.979136"><ele>1308.75</ele></trkpt>
   <trkpt lon="7.112858" lat="45.979250"><ele>1308.75</ele></trkpt>
   <trkpt lon="7.112830" lat="45.979365"><ele>1307.5</ele></trkpt>
   <trkpt lon="7.112756" lat="45.979468"><ele>1309.0</ele></trkpt>
   <trkpt lon="7.112765" lat="45.979739"><ele>1308.25</ele></trkpt>
   <trkpt lon="7.112680" lat="45.979641"><ele>1311.75</ele></trkpt>
   <trkpt lon="7.112596" lat="45.979558"><ele>1316.0</ele></trkpt>
   <trkpt lon="7.112519" lat="45.979231"><ele>1328.75</ele></trkpt>
   <trkpt lon="7.112560" lat="45.979039"><ele>1332.5</ele></trkpt>
   <trkpt lon="7.112543" lat="45.978942"><ele>1336.75</ele></trkpt>
   <trkpt lon="7.112507" lat="45.978811"><ele>1341.5</ele></trkpt>
   <trkpt lon="7.112483" lat="45.978639"><ele>1345.5</ele></trkpt>
   <trkpt lon="7.112160" lat="45.978228"><ele>1362.75</ele></trkpt>
   <trkpt lon="7.112076" lat="45.978180"><ele>1367.0</ele></trkpt>
   <trkpt lon="7.111975" lat="45.978084"><ele>1370.75</ele></trkpt>
   <trkpt lon="7.111869" lat="45.978021"><ele>1376.25</ele></trkpt>
   <trkpt lon="7.111765" lat="45.978000"><ele>1382.25</ele></trkpt>
   <trkpt lon="7.111697" lat="45.977970"><ele>1386.25</ele></trkpt>
   <trkpt lon="7.111579" lat="45.977694"><ele>1392.0</ele></trkpt>
   <trkpt lon="7.111493" lat="45.977607"><ele>1396.0</ele></trkpt>
   <trkpt lon="7.111367" lat="45.977506"><ele>1402.0</ele></trkpt>
   <trkpt lon="7.111182" lat="45.977285"><ele>1408.25</ele></trkpt>
   <trkpt lon="7.111061" lat="45.977232"><ele>1413.5</ele></trkpt>
   <trkpt lon="7.110960" lat="45.977145"><ele>1417.0</ele></trkpt>
   <trkpt lon="7.110864" lat="45.977081"><ele>1420.75</ele></trkpt>
   <trkpt lon="7.110676" lat="45.976929"><ele>1428.5</ele></trkpt>
   <trkpt lon="7.110543" lat="45.976801"><ele>1436.0</ele></trkpt>
   <trkpt lon="7.110451" lat="45.976687"><ele>1440.75</ele></trkpt>
   <trkpt lon="7.110377" lat="45.976617"><ele>1444.5</ele></trkpt>
   <trkpt lon="7.110339" lat="45.976557"><ele>1446.75</ele></trkpt>
   <trkpt lon="7.110346" lat="45.976514"><ele>1446.75</ele></trkpt>
   <trkpt lon="7.110266" lat="45.976430"><ele>1451.25</ele></trkpt>
   <trkpt lon="7.110215" lat="45.976349"><ele>1454.0</ele></trkpt>
   <trkpt lon="7.110124" lat="45.976231"><ele>1458.75</ele></trkpt>
   <trkpt lon="7.110078" lat="45.976112"><ele>1461.75</ele></trkpt>
   <trkpt lon="7.109986" lat="45.976011"><ele>1464.0</ele></trkpt>
   <trkpt lon="7.109853" lat="45.975937"><ele>1468.75</ele></trkpt>
   <trkpt lon="7.109277" lat="45.975819"><ele>1487.0</ele></trkpt>
   <trkpt lon="7.109853" lat="45.975937"><ele>1468.75</ele></trkpt>
   <trkpt lon="7.109986" lat="45.976011"><ele>1464.0</ele></trkpt>
   <trkpt lon="7.110078" lat="45.976112"><ele>1461.75</ele></trkpt>
   <trkpt lon="7.110124" lat="45.976231"><ele>1458.75</ele></trkpt>
   <trkpt lon="7.110215" lat="45.976349"><ele>1454.0</ele></trkpt>
   <trkpt lon="7.110266" lat="45.976430"><ele>1451.25</ele></trkpt>
   <trkpt lon="7.110346" lat="45.976514"><ele>1446.75</ele></trkpt>
   <trkpt lon="7.110339" lat="45.976557"><ele>1446.75</ele></trkpt>
   <trkpt lon="7.110377" lat="45.976617"><ele>1444.5</ele></trkpt>
   <trkpt lon="7.110451" lat="45.976687"><ele>1440.75</ele></trkpt>
   <trkpt lon="7.110543" lat="45.976801"><ele>1436.0</ele></trkpt>
   <trkpt lon="7.110676" lat="45.976929"><ele>1428.5</ele></trkpt>
   <trkpt lon="7.110864" lat="45.977081"><ele>1420.75</ele></trkpt>
   <trkpt lon="7.110960" lat="45.977145"><ele>1417.0</ele></trkpt>
   <trkpt lon="7.111061" lat="45.977232"><ele>1413.5</ele></trkpt>
   <trkpt lon="7.111182" lat="45.977285"><ele>1408.25</ele></trkpt>
   <trkpt lon="7.111367" lat="45.977506"><ele>1402.0</ele></trkpt>
   <trkpt lon="7.111493" lat="45.977607"><ele>1396.0</ele></trkpt>
   <trkpt lon="7.111579" lat="45.977694"><ele>1392.0</ele></trkpt>
   <trkpt lon="7.111697" lat="45.977970"><ele>1386.25</ele></trkpt>
   <trkpt lon="7.111765" lat="45.978000"><ele>1382.25</ele></trkpt>
   <trkpt lon="7.111869" lat="45.978021"><ele>1376.25</ele></trkpt>
   <trkpt lon="7.111975" lat="45.978084"><ele>1370.75</ele></trkpt>
   <trkpt lon="7.112076" lat="45.978180"><ele>1367.0</ele></trkpt>
   <trkpt lon="7.112160" lat="45.978228"><ele>1362.75</ele></trkpt>
   <trkpt lon="7.112483" lat="45.978639"><ele>1345.5</ele></trkpt>
   <trkpt lon="7.112507" lat="45.978811"><ele>1341.5</ele></trkpt>
   <trkpt lon="7.112543" lat="45.978942"><ele>1336.75</ele></trkpt>
   <trkpt lon="7.112560" lat="45.979039"><ele>1332.5</ele></trkpt>
   <trkpt lon="7.112519" lat="45.979231"><ele>1328.75</ele></trkpt>
   <trkpt lon="7.112596" lat="45.979558"><ele>1316.0</ele></trkpt>
   <trkpt lon="7.112680" lat="45.979641"><ele>1311.75</ele></trkpt>
   <trkpt lon="7.112765" lat="45.979739"><ele>1308.25</ele></trkpt>
   <trkpt lon="7.112687" lat="45.979779"><ele>1308.25</ele></trkpt>
   <trkpt lon="7.112563" lat="45.979877"><ele>1306.25</ele></trkpt>
   <trkpt lon="7.112448" lat="45.979985"><ele>1304.75</ele></trkpt>
   <trkpt lon="7.112374" lat="45.980066"><ele>1302.0</ele></trkpt>
   <trkpt lon="7.112292" lat="45.980131"><ele>1300.25</ele></trkpt>
   <trkpt lon="7.112223" lat="45.980201"><ele>1297.75</ele></trkpt>
   <trkpt lon="7.112141" lat="45.980302"><ele>1294.25</ele></trkpt>
   <trkpt lon="7.112100" lat="45.980369"><ele>1293.75</ele></trkpt>
   <trkpt lon="7.112112" lat="45.980547"><ele>1287.25</ele></trkpt>
   <trkpt lon="7.112097" lat="45.980627"><ele>1285.75</ele></trkpt>
   <trkpt lon="7.112105" lat="45.980706"><ele>1283.0</ele></trkpt>
   <trkpt lon="7.112081" lat="45.980881"><ele>1278.25</ele></trkpt>
   <trkpt lon="7.111961" lat="45.980997"><ele>1277.5</ele></trkpt>
   <trkpt lon="7.111814" lat="45.981195"><ele>1274.5</ele></trkpt>
   <trkpt lon="7.111741" lat="45.981339"><ele>1274.0</ele></trkpt>
   <trkpt lon="7.111809" lat="45.981463"><ele>1271.5</ele></trkpt>
   <trkpt lon="7.111900" lat="45.981598"><ele>1269.5</ele></trkpt>
   <trkpt lon="7.112051" lat="45.981750"><ele>1268.25</ele></trkpt>
   <trkpt lon="7.112193" lat="45.981857"><ele>1266.75</ele></trkpt>
   <trkpt lon="7.112266" lat="45.981944"><ele>1265.75</ele></trkpt>
   <trkpt lon="7.112442" lat="45.981868"><ele>1265.25</ele></trkpt>
   <trkpt lon="7.112497" lat="45.981824"><ele>1265.0</ele></trkpt>
   <trkpt lon="7.113325" lat="45.981784"><ele>1259.0</ele></trkpt>
   <trkpt lon="7.114120" lat="45.981745"><ele>1253.25</ele></trkpt>
   <trkpt lon="7.114166" lat="45.981743"><ele>1253.0</ele></trkpt>
   <trkpt lon="7.114610" lat="45.981595"><ele>1249.5</ele></trkpt>
   <trkpt lon="7.114935" lat="45.981447"><ele>1247.25</ele></trkpt>
   <trkpt lon="7.115099" lat="45.981403"><ele>1246.25</ele></trkpt>
   <trkpt lon="7.115288" lat="45.981364"><ele>1244.5</ele></trkpt>
   <trkpt lon="7.116659" lat="45.981700"><ele>1235.0</ele></trkpt>
   <trkpt lon="7.117462" lat="45.982140"><ele>1230.25</ele></trkpt>
   <trkpt lon="7.118471" lat="45.982739"><ele>1225.5</ele></trkpt>
   <trkpt lon="7.119247" lat="45.983183"><ele>1218.5</ele></trkpt>
   <trkpt lon="7.120013" lat="45.983607"><ele>1211.0</ele></trkpt>
   <trkpt lon="7.120181" lat="45.983691"><ele>1210.0</ele></trkpt>
   <trkpt lon="7.120277" lat="45.983743"><ele>1209.5</ele></trkpt>
   <trkpt lon="7.121589" lat="45.984765"><ele>1196.25</ele></trkpt>
   <trkpt lon="7.121528" lat="45.984883"><ele>1194.75</ele></trkpt>
   <trkpt lon="7.121425" lat="45.985013"><ele>1194.25</ele></trkpt>
   <trkpt lon="7.121407" lat="45.985034"><ele>1194.25</ele></trkpt>
   <trkpt lon="7.121349" lat="45.985159"><ele>1193.5</ele></trkpt>
   <trkpt lon="7.121338" lat="45.985229"><ele>1192.75</ele></trkpt>
   <trkpt lon="7.121335" lat="45.985370"><ele>1192.75</ele></trkpt>
   <trkpt lon="7.121398" lat="45.985553"><ele>1192.75</ele></trkpt>
   <trkpt lon="7.121684" lat="45.985963"><ele>1191.25</ele></trkpt>
   <trkpt lon="7.121721" lat="45.986076"><ele>1191.25</ele></trkpt>
   <trkpt lon="7.121731" lat="45.986212"><ele>1190.75</ele></trkpt>
   <trkpt lon="7.121680" lat="45.986305"><ele>1190.5</ele></trkpt>
   <trkpt lon="7.121635" lat="45.986363"><ele>1190.25</ele></trkpt>
   <trkpt lon="7.121534" lat="45.986467"><ele>1189.5</ele></trkpt>
   <trkpt lon="7.121471" lat="45.986599"><ele>1188.25</ele></trkpt>
   <trkpt lon="7.121463" lat="45.986709"><ele>1187.75</ele></trkpt>
   <trkpt lon="7.121493" lat="45.986818"><ele>1187.75</ele></trkpt>
   <trkpt lon="7.121576" lat="45.986953"><ele>1186.75</ele></trkpt>
   <trkpt lon="7.121668" lat="45.987058"><ele>1185.75</ele></trkpt>
   <trkpt lon="7.121478" lat="45.987749"><ele>1187.25</ele></trkpt>
   <trkpt lon="7.121482" lat="45.987845"><ele>1188.75</ele></trkpt>
   <trkpt lon="7.121522" lat="45.987928"><ele>1189.75</ele></trkpt>
   <trkpt lon="7.121423" lat="45.987961"><ele>1192.25</ele></trkpt>
   <trkpt lon="7.121283" lat="45.987960"><ele>1194.75</ele></trkpt>
   <trkpt lon="7.121158" lat="45.987879"><ele>1195.0</ele></trkpt>
   <trkpt lon="7.121037" lat="45.987935"><ele>1199.25</ele></trkpt>
   <trkpt lon="7.120954" lat="45.987933"><ele>1201.0</ele></trkpt>
   <trkpt lon="7.120827" lat="45.987884"><ele>1202.5</ele></trkpt>
   <trkpt lon="7.120758" lat="45.987923"><ele>1205.5</ele></trkpt>
   <trkpt lon="7.120973" lat="45.988201"><ele>1206.75</ele></trkpt>
   <trkpt lon="7.120906" lat="45.988244"><ele>1208.0</ele></trkpt>
   <trkpt lon="7.120804" lat="45.988238"><ele>1209.0</ele></trkpt>
   <trkpt lon="7.120560" lat="45.988192"><ele>1213.25</ele></trkpt>
   <trkpt lon="7.120373" lat="45.988275"><ele>1214.25</ele></trkpt>
   <trkpt lon="7.120245" lat="45.988415"><ele>1218.25</ele></trkpt>
   <trkpt lon="7.120054" lat="45.988476"><ele>1222.5</ele></trkpt>
   <trkpt lon="7.119914" lat="45.988464"><ele>1224.25</ele></trkpt>
   <trkpt lon="7.119815" lat="45.988505"><ele>1227.25</ele></trkpt>
   <trkpt lon="7.119861" lat="45.988587"><ele>1228.75</ele></trkpt>
   <trkpt lon="7.119993" lat="45.988705"><ele>1230.0</ele></trkpt>
   <trkpt lon="7.120186" lat="45.988849"><ele>1232.75</ele></trkpt>
   <trkpt lon="7.120246" lat="45.989035"><ele>1237.0</ele></trkpt>
   <trkpt lon="7.120363" lat="45.989144"><ele>1239.0</ele></trkpt>
   <trkpt lon="7.120499" lat="45.989196"><ele>1240.0</ele></trkpt>
   <trkpt lon="7.120554" lat="45.989349"><ele>1244.25</ele></trkpt>
   <trkpt lon="7.120631" lat="45.989455"><ele>1246.75</ele></trkpt>
   <trkpt lon="7.120568" lat="45.989578"><ele>1250.25</ele></trkpt>
   <trkpt lon="7.120620" lat="45.989887"><ele>1256.75</ele></trkpt>
   <trkpt lon="7.120565" lat="45.989958"><ele>1258.0</ele></trkpt>
   <trkpt lon="7.120415" lat="45.990108"><ele>1260.5</ele></trkpt>
   <trkpt lon="7.120451" lat="45.990369"><ele>1265.0</ele></trkpt>
   <trkpt lon="7.120390" lat="45.990603"><ele>1267.5</ele></trkpt>
   <trkpt lon="7.120299" lat="45.990757"><ele>1267.5</ele></trkpt>
   <trkpt lon="7.120255" lat="45.990866"><ele>1268.75</ele></trkpt>
   <trkpt lon="7.120256" lat="45.991008"><ele>1269.75</ele></trkpt>
   <trkpt lon="7.120199" lat="45.991089"><ele>1271.5</ele></trkpt>
   <trkpt lon="7.120127" lat="45.991099"><ele>1273.0</ele></trkpt>
   <trkpt lon="7.120054" lat="45.991076"><ele>1274.5</ele></trkpt>
   <trkpt lon="7.119895" lat="45.990990"><ele>1278.5</ele></trkpt>
   <trkpt lon="7.119826" lat="45.990923"><ele>1280.0</ele></trkpt>
   <trkpt lon="7.119782" lat="45.990920"><ele>1281.25</ele></trkpt>
   <trkpt lon="7.119739" lat="45.990780"><ele>1281.75</ele></trkpt>
   <trkpt lon="7.119617" lat="45.990600"><ele>1284.5</ele></trkpt>
   <trkpt lon="7.119477" lat="45.990505"><ele>1286.0</ele></trkpt>
   <trkpt lon="7.119194" lat="45.990373"><ele>1288.0</ele></trkpt>
   <trkpt lon="7.118966" lat="45.990255"><ele>1288.25</ele></trkpt>
   <trkpt lon="7.118727" lat="45.990089"><ele>1289.75</ele></trkpt>
   <trkpt lon="7.118595" lat="45.990012"><ele>1291.25</ele></trkpt>
   <trkpt lon="7.118463" lat="45.989948"><ele>1291.5</ele></trkpt>
   <trkpt lon="7.118117" lat="45.989852"><ele>1294.75</ele></trkpt>
   <trkpt lon="7.117936" lat="45.989750"><ele>1297.75</ele></trkpt>
   <trkpt lon="7.117849" lat="45.989638"><ele>1298.5</ele></trkpt>
   <trkpt lon="7.117800" lat="45.989531"><ele>1298.5</ele></trkpt>
   <trkpt lon="7.117688" lat="45.989391"><ele>1300.0</ele></trkpt>
   <trkpt lon="7.117705" lat="45.989626"><ele>1303.5</ele></trkpt>
   <trkpt lon="7.117783" lat="45.989951"><ele>1305.0</ele></trkpt>
   <trkpt lon="7.117870" lat="45.990169"><ele>1310.0</ele></trkpt>
   <trkpt lon="7.118112" lat="45.990438"><ele>1312.5</ele></trkpt>
   <trkpt lon="7.118314" lat="45.990703"><ele>1315.5</ele></trkpt>
   <trkpt lon="7.118548" lat="45.991039"><ele>1319.25</ele></trkpt>
   <trkpt lon="7.118787" lat="45.991351"><ele>1323.25</ele></trkpt>
   <trkpt lon="7.118850" lat="45.991441"><ele>1323.5</ele></trkpt>
   <trkpt lon="7.118903" lat="45.991534"><ele>1323.5</ele></trkpt>
   <trkpt lon="7.118936" lat="45.991662"><ele>1325.25</ele></trkpt>
   <trkpt lon="7.118931" lat="45.991741"><ele>1325.75</ele></trkpt>
   <trkpt lon="7.118918" lat="45.991804"><ele>1326.5</ele></trkpt>
   <trkpt lon="7.118895" lat="45.991862"><ele>1327.5</ele></trkpt>
   <trkpt lon="7.118824" lat="45.991975"><ele>1329.75</ele></trkpt>
   <trkpt lon="7.118620" lat="45.992185"><ele>1332.25</ele></trkpt>
   <trkpt lon="7.118594" lat="45.992249"><ele>1332.75</ele></trkpt>
   <trkpt lon="7.118576" lat="45.992336"><ele>1334.5</ele></trkpt>
   <trkpt lon="7.118599" lat="45.992469"><ele>1335.75</ele></trkpt>
   <trkpt lon="7.118652" lat="45.992554"><ele>1336.25</ele></trkpt>
   <trkpt lon="7.118752" lat="45.992768"><ele>1339.0</ele></trkpt>
   <trkpt lon="7.118782" lat="45.992879"><ele>1339.25</ele></trkpt>
   <trkpt lon="7.118778" lat="45.992989"><ele>1340.0</ele></trkpt>
   <trkpt lon="7.118746" lat="45.993039"><ele>1340.75</ele></trkpt>
   <trkpt lon="7.118701" lat="45.993086"><ele>1341.5</ele></trkpt>
   <trkpt lon="7.118300" lat="45.993466"><ele>1346.5</ele></trkpt>
   <trkpt lon="7.118216" lat="45.993568"><ele>1347.5</ele></trkpt>
   <trkpt lon="7.118100" lat="45.993795"><ele>1349.75</ele></trkpt>
   <trkpt lon="7.118060" lat="45.993920"><ele>1350.75</ele></trkpt>
   <trkpt lon="7.118027" lat="45.994058"><ele>1352.75</ele></trkpt>
   <trkpt lon="7.118024" lat="45.994346"><ele>1355.75</ele></trkpt>
   <trkpt lon="7.117971" lat="45.994935"><ele>1361.75</ele></trkpt>
   <trkpt lon="7.117985" lat="45.995413"><ele>1367.0</ele></trkpt>
   <trkpt lon="7.118087" lat="45.995772"><ele>1368.0</ele></trkpt>
   <trkpt lon="7.118029" lat="45.995946"><ele>1369.25</ele></trkpt>
   <trkpt lon="7.117843" lat="45.996164"><ele>1374.25</ele></trkpt>
   <trkpt lon="7.117776" lat="45.996294"><ele>1376.25</ele></trkpt>
   <trkpt lon="7.117763" lat="45.996357"><ele>1376.5</ele></trkpt>
   <trkpt lon="7.117766" lat="45.996523"><ele>1378.25</ele></trkpt>
   <trkpt lon="7.117791" lat="45.996657"><ele>1379.25</ele></trkpt>
   <trkpt lon="7.117847" lat="45.996793"><ele>1380.75</ele></trkpt>
   <trkpt lon="7.117919" lat="45.996916"><ele>1382.0</ele></trkpt>
   <trkpt lon="7.117979" lat="45.997059"><ele>1383.5</ele></trkpt>
   <trkpt lon="7.118048" lat="45.997455"><ele>1387.5</ele></trkpt>
   <trkpt lon="7.118051" lat="45.997617"><ele>1389.75</ele></trkpt>
   <trkpt lon="7.118081" lat="45.997739"><ele>1390.5</ele></trkpt>
   <trkpt lon="7.118136" lat="45.997837"><ele>1391.75</ele></trkpt>
   <trkpt lon="7.118329" lat="45.998041"><ele>1395.25</ele></trkpt>
   <trkpt lon="7.118346" lat="45.998093"><ele>1395.25</ele></trkpt>
   <trkpt lon="7.118324" lat="45.998162"><ele>1395.0</ele></trkpt>
   <trkpt lon="7.118221" lat="45.998296"><ele>1397.5</ele></trkpt>
   <trkpt lon="7.118189" lat="45.998351"><ele>1398.5</ele></trkpt>
   <trkpt lon="7.118170" lat="45.998405"><ele>1399.5</ele></trkpt>
   <trkpt lon="7.118143" lat="45.998617"><ele>1400.75</ele></trkpt>
   <trkpt lon="7.118092" lat="45.998703"><ele>1401.5</ele></trkpt>
   <trkpt lon="7.118005" lat="45.998799"><ele>1403.5</ele></trkpt>
   <trkpt lon="7.117970" lat="45.998867"><ele>1404.0</ele></trkpt>
   <trkpt lon="7.117958" lat="45.998947"><ele>1405.75</ele></trkpt>
   <trkpt lon="7.117984" lat="45.999047"><ele>1407.25</ele></trkpt>
   <trkpt lon="7.118111" lat="45.999260"><ele>1407.25</ele></trkpt>
   <trkpt lon="7.118201" lat="45.999499"><ele>1412.25</ele></trkpt>
   <trkpt lon="7.118237" lat="45.999550"><ele>1414.25</ele></trkpt>
   <trkpt lon="7.118303" lat="45.999615"><ele>1415.5</ele></trkpt>
   <trkpt lon="7.118344" lat="45.999650"><ele>1415.75</ele></trkpt>
   <trkpt lon="7.118521" lat="45.999752"><ele>1414.0</ele></trkpt>
   <trkpt lon="7.118744" lat="45.999851"><ele>1412.75</ele></trkpt>
   <trkpt lon="7.118900" lat="45.999909"><ele>1413.0</ele></trkpt>
   <trkpt lon="7.118956" lat="45.999947"><ele>1415.25</ele></trkpt>
   <trkpt lon="7.118991" lat="45.999984"><ele>1417.75</ele></trkpt>
   <trkpt lon="7.119012" lat="46.000013"><ele>1418.75</ele></trkpt>
   <trkpt lon="7.119010" lat="46.000067"><ele>1418.5</ele></trkpt>
   <trkpt lon="7.119001" lat="46.000089"><ele>1418.25</ele></trkpt>
   <trkpt lon="7.119084" lat="46.000221"><ele>1417.25</ele></trkpt>
   <trkpt lon="7.119052" lat="46.000295"><ele>1416.75</ele></trkpt>
   <trkpt lon="7.119026" lat="46.000414"><ele>1415.75</ele></trkpt>
   <trkpt lon="7.119228" lat="46.000579"><ele>1406.75</ele></trkpt>
   <trkpt lon="7.119264" lat="46.000693"><ele>1403.5</ele></trkpt>
   <trkpt lon="7.119269" lat="46.000899"><ele>1399.5</ele></trkpt>
   <trkpt lon="7.119346" lat="46.001544"><ele>1383.5</ele></trkpt>
   <trkpt lon="7.119274" lat="46.001735"><ele>1381.25</ele></trkpt>
   <trkpt lon="7.119274" lat="46.001895"><ele>1374.75</ele></trkpt>
   <trkpt lon="7.119331" lat="46.002066"><ele>1367.0</ele></trkpt>
   <trkpt lon="7.119441" lat="46.002157"><ele>1366.0</ele></trkpt>
   <trkpt lon="7.119586" lat="46.002076"><ele>1366.0</ele></trkpt>
   <trkpt lon="7.119811" lat="46.001968"><ele>1360.25</ele></trkpt>
   <trkpt lon="7.119790" lat="46.002210"><ele>1358.75</ele></trkpt>
   <trkpt lon="7.119746" lat="46.002331"><ele>1353.0</ele></trkpt>
   <trkpt lon="7.119716" lat="46.002346"><ele>1352.5</ele></trkpt>
   <trkpt lon="7.119667" lat="46.002357"><ele>1351.5</ele></trkpt>
   <trkpt lon="7.119573" lat="46.002335"><ele>1352.75</ele></trkpt>
   <trkpt lon="7.119253" lat="46.002319"><ele>1348.0</ele></trkpt>
   <trkpt lon="7.119156" lat="46.002328"><ele>1344.5</ele></trkpt>
   <trkpt lon="7.118983" lat="46.002371"><ele>1340.75</ele></trkpt>
   <trkpt lon="7.118895" lat="46.002539"><ele>1333.75</ele></trkpt>
   <trkpt lon="7.118770" lat="46.002649"><ele>1331.25</ele></trkpt>
   <trkpt lon="7.118660" lat="46.002759"><ele>1328.5</ele></trkpt>
   <trkpt lon="7.118517" lat="46.002986"><ele>1322.75</ele></trkpt>
   <trkpt lon="7.118441" lat="46.003153"><ele>1320.25</ele></trkpt>
   <trkpt lon="7.118428" lat="46.003222"><ele>1319.25</ele></trkpt>
   <trkpt lon="7.118433" lat="46.003286"><ele>1317.75</ele></trkpt>
   <trkpt lon="7.118474" lat="46.003426"><ele>1314.0</ele></trkpt>
   <trkpt lon="7.118543" lat="46.003550"><ele>1309.5</ele></trkpt>
   <trkpt lon="7.118609" lat="46.003650"><ele>1304.75</ele></trkpt>
   <trkpt lon="7.118658" lat="46.003757"><ele>1301.5</ele></trkpt>
   <trkpt lon="7.118705" lat="46.004048"><ele>1300.5</ele></trkpt>
   <trkpt lon="7.118736" lat="46.004106"><ele>1299.5</ele></trkpt>
   <trkpt lon="7.118779" lat="46.004132"><ele>1297.0</ele></trkpt>
   <trkpt lon="7.118837" lat="46.004132"><ele>1293.0</ele></trkpt>
   <trkpt lon="7.118871" lat="46.004101"><ele>1290.25</ele></trkpt>
   <trkpt lon="7.118873" lat="46.004046"><ele>1289.5</ele></trkpt>
   <trkpt lon="7.118891" lat="46.004026"><ele>1288.25</ele></trkpt>
   <trkpt lon="7.118900" lat="46.003998"><ele>1287.25</ele></trkpt>
   <trkpt lon="7.118969" lat="46.004058"><ele>1283.25</ele></trkpt>
   <trkpt lon="7.118983" lat="46.004146"><ele>1283.25</ele></trkpt>
   <trkpt lon="7.119041" lat="46.004239"><ele>1281.75</ele></trkpt>
   <trkpt lon="7.119128" lat="46.004319"><ele>1278.75</ele></trkpt>
   <trkpt lon="7.119300" lat="46.004434"><ele>1273.25</ele></trkpt>
   <trkpt lon="7.119379" lat="46.004584"><ele>1268.5</ele></trkpt>
   <trkpt lon="7.119431" lat="46.004852"><ele>1263.75</ele></trkpt>
   <trkpt lon="7.119501" lat="46.005000"><ele>1258.75</ele></trkpt>
   <trkpt lon="7.119495" lat="46.005183"><ele>1257.25</ele></trkpt>
   <trkpt lon="7.119372" lat="46.005568"><ele>1254.0</ele></trkpt>
   <trkpt lon="7.119233" lat="46.005799"><ele>1251.0</ele></trkpt>
   <trkpt lon="7.119200" lat="46.006058"><ele>1249.0</ele></trkpt>
   <trkpt lon="7.119150" lat="46.006213"><ele>1246.75</ele></trkpt>
   <trkpt lon="7.119034" lat="46.006314"><ele>1245.5</ele></trkpt>
   <trkpt lon="7.118505" lat="46.006546"><ele>1242.75</ele></trkpt>
   <trkpt lon="7.118410" lat="46.006610"><ele>1239.0</ele></trkpt>
   <trkpt lon="7.118226" lat="46.006672"><ele>1236.0</ele></trkpt>
   <trkpt lon="7.117965" lat="46.006662"><ele>1240.75</ele></trkpt>
   <trkpt lon="7.117672" lat="46.006725"><ele>1253.75</ele></trkpt>
   <trkpt lon="7.117718" lat="46.006787"><ele>1254.5</ele></trkpt>
   <trkpt lon="7.117830" lat="46.006845"><ele>1254.25</ele></trkpt>
   <trkpt lon="7.117960" lat="46.006870"><ele>1252.75</ele></trkpt>
   <trkpt lon="7.118257" lat="46.006971"><ele>1254.75</ele></trkpt>
   <trkpt lon="7.118420" lat="46.007044"><ele>1253.25</ele></trkpt>
   <trkpt lon="7.118489" lat="46.007127"><ele>1252.75</ele></trkpt>
   <trkpt lon="7.118492" lat="46.007331"><ele>1256.75</ele></trkpt>
   <trkpt lon="7.118529" lat="46.007363"><ele>1256.0</ele></trkpt>
   <trkpt lon="7.118808" lat="46.007524"><ele>1249.5</ele></trkpt>
   <trkpt lon="7.119118" lat="46.007674"><ele>1242.25</ele></trkpt>
   <trkpt lon="7.119232" lat="46.007742"><ele>1241.25</ele></trkpt>
   <trkpt lon="7.119270" lat="46.007809"><ele>1241.5</ele></trkpt>
   <trkpt lon="7.119324" lat="46.007990"><ele>1239.25</ele></trkpt>
   <trkpt lon="7.119364" lat="46.008064"><ele>1237.5</ele></trkpt>
   <trkpt lon="7.119432" lat="46.008150"><ele>1235.75</ele></trkpt>
   <trkpt lon="7.119572" lat="46.008279"><ele>1232.75</ele></trkpt>
   <trkpt lon="7.119740" lat="46.008397"><ele>1230.25</ele></trkpt>
   <trkpt lon="7.119837" lat="46.008456"><ele>1230.5</ele></trkpt>
   <trkpt lon="7.119906" lat="46.008483"><ele>1230.0</ele></trkpt>
   <trkpt lon="7.120016" lat="46.008495"><ele>1228.25</ele></trkpt>
   <trkpt lon="7.120243" lat="46.008566"><ele>1227.75</ele></trkpt>
   <trkpt lon="7.120790" lat="46.008703"><ele>1223.25</ele></trkpt>
   <trkpt lon="7.120860" lat="46.008733"><ele>1222.0</ele></trkpt>
   <trkpt lon="7.120886" lat="46.008756"><ele>1221.5</ele></trkpt>
   <trkpt lon="7.120886" lat="46.008784"><ele>1221.75</ele></trkpt>
   <trkpt lon="7.120868" lat="46.008837"><ele>1223.0</ele></trkpt>
   <trkpt lon="7.120810" lat="46.008946"><ele>1225.0</ele></trkpt>
   <trkpt lon="7.120795" lat="46.009034"><ele>1224.5</ele></trkpt>
   <trkpt lon="7.120797" lat="46.009285"><ele>1220.75</ele></trkpt>
   <trkpt lon="7.120748" lat="46.009399"><ele>1221.25</ele></trkpt>
   <trkpt lon="7.120527" lat="46.009729"><ele>1217.0</ele></trkpt>
   <trkpt lon="7.120476" lat="46.009764"><ele>1215.5</ele></trkpt>
   <trkpt lon="7.120308" lat="46.009837"><ele>1214.0</ele></trkpt>
   <trkpt lon="7.120039" lat="46.009938"><ele>1214.0</ele></trkpt>
   <trkpt lon="7.119950" lat="46.009982"><ele>1213.75</ele></trkpt>
   <trkpt lon="7.119853" lat="46.010103"><ele>1212.5</ele></trkpt>
   <trkpt lon="7.119792" lat="46.010387"><ele>1208.0</ele></trkpt>
   <trkpt lon="7.119850" lat="46.010694"><ele>1200.25</ele></trkpt>
   <trkpt lon="7.119845" lat="46.010765"><ele>1199.75</ele></trkpt>
   <trkpt lon="7.119815" lat="46.010844"><ele>1199.5</ele></trkpt>
   <trkpt lon="7.119741" lat="46.010894"><ele>1199.25</ele></trkpt>
   <trkpt lon="7.119603" lat="46.010967"><ele>1197.25</ele></trkpt>
   <trkpt lon="7.119575" lat="46.011021"><ele>1192.75</ele></trkpt>
   <trkpt lon="7.119440" lat="46.011083"><ele>1186.25</ele></trkpt>
   <trkpt lon="7.119310" lat="46.011076"><ele>1188.75</ele></trkpt>
   <trkpt lon="7.119061" lat="46.010938"><ele>1205.5</ele></trkpt>
   <trkpt lon="7.118729" lat="46.011059"><ele>1202.0</ele></trkpt>
   <trkpt lon="7.118391" lat="46.011218"><ele>1208.25</ele></trkpt>
   <trkpt lon="7.118102" lat="46.011281"><ele>1211.25</ele></trkpt>
   <trkpt lon="7.117817" lat="46.011410"><ele>1213.0</ele></trkpt>
   <trkpt lon="7.117859" lat="46.011446"><ele>1213.75</ele></trkpt>
   <trkpt lon="7.117891" lat="46.011502"><ele>1216.5</ele></trkpt>
   <trkpt lon="7.117961" lat="46.011529"><ele>1216.5</ele></trkpt>
   <trkpt lon="7.118097" lat="46.011504"><ele>1212.25</ele></trkpt>
   <trkpt lon="7.118275" lat="46.011556"><ele>1214.25</ele></trkpt>
   <trkpt lon="7.118432" lat="46.011611"><ele>1217.5</ele></trkpt>
   <trkpt lon="7.118695" lat="46.011647"><ele>1219.25</ele></trkpt>
   <trkpt lon="7.118866" lat="46.011657"><ele>1220.75</ele></trkpt>
   <trkpt lon="7.119070" lat="46.011740"><ele>1225.0</ele></trkpt>
   <trkpt lon="7.119203" lat="46.011762"><ele>1225.25</ele></trkpt>
   <trkpt lon="7.119435" lat="46.011821"><ele>1226.5</ele></trkpt>
   <trkpt lon="7.119516" lat="46.011855"><ele>1226.0</ele></trkpt>
   <trkpt lon="7.119551" lat="46.011911"><ele>1227.75</ele></trkpt>
   <trkpt lon="7.119652" lat="46.012041"><ele>1227.25</ele></trkpt>
   <trkpt lon="7.119670" lat="46.012125"><ele>1227.0</ele></trkpt>
   <trkpt lon="7.119644" lat="46.012258"><ele>1229.75</ele></trkpt>
   <trkpt lon="7.119652" lat="46.012492"><ele>1236.0</ele></trkpt>
   <trkpt lon="7.119671" lat="46.012619"><ele>1239.25</ele></trkpt>
   <trkpt lon="7.119836" lat="46.012933"><ele>1245.25</ele></trkpt>
   <trkpt lon="7.119934" lat="46.013053"><ele>1248.75</ele></trkpt>
   <trkpt lon="7.120105" lat="46.013159"><ele>1249.25</ele></trkpt>
   <trkpt lon="7.120224" lat="46.013276"><ele>1251.75</ele></trkpt>
   <trkpt lon="7.120371" lat="46.013388"><ele>1254.0</ele></trkpt>
   <trkpt lon="7.120666" lat="46.013560"><ele>1257.75</ele></trkpt>
   <trkpt lon="7.120792" lat="46.013653"><ele>1260.25</ele></trkpt>
   <trkpt lon="7.120855" lat="46.013740"><ele>1263.75</ele></trkpt>
   <trkpt lon="7.120927" lat="46.013808"><ele>1265.5</ele></trkpt>
   <trkpt lon="7.120968" lat="46.013860"><ele>1267.5</ele></trkpt>
   <trkpt lon="7.120953" lat="46.013899"><ele>1269.25</ele></trkpt>
   <trkpt lon="7.120887" lat="46.013932"><ele>1270.0</ele></trkpt>
   <trkpt lon="7.120791" lat="46.013937"><ele>1271.75</ele></trkpt>
   <trkpt lon="7.120669" lat="46.013882"><ele>1275.0</ele></trkpt>
   <trkpt lon="7.120572" lat="46.013867"><ele>1275.5</ele></trkpt>
   <trkpt lon="7.120419" lat="46.013889"><ele>1279.25</ele></trkpt>
   <trkpt lon="7.120315" lat="46.013922"><ele>1280.5</ele></trkpt>
   <trkpt lon="7.120135" lat="46.014048"><ele>1283.25</ele></trkpt>
   <trkpt lon="7.119963" lat="46.014238"><ele>1285.0</ele></trkpt>
   <trkpt lon="7.119732" lat="46.014236"><ele>1295.0</ele></trkpt>
   <trkpt lon="7.119687" lat="46.014396"><ele>1296.25</ele></trkpt>
   <trkpt lon="7.119695" lat="46.014595"><ele>1297.75</ele></trkpt>
   <trkpt lon="7.119640" lat="46.014994"><ele>1304.5</ele></trkpt>
   <trkpt lon="7.119756" lat="46.015087"><ele>1299.75</ele></trkpt>
   <trkpt lon="7.119795" lat="46.015274"><ele>1303.5</ele></trkpt>
   <trkpt lon="7.119828" lat="46.015531"><ele>1306.75</ele></trkpt>
   <trkpt lon="7.119795" lat="46.015641"><ele>1310.75</ele></trkpt>
   <trkpt lon="7.119773" lat="46.015787"><ele>1314.5</ele></trkpt>
   <trkpt lon="7.119777" lat="46.015931"><ele>1314.25</ele></trkpt>
   <trkpt lon="7.119732" lat="46.016022"><ele>1315.75</ele></trkpt>
   <trkpt lon="7.119730" lat="46.016121"><ele>1313.75</ele></trkpt>
   <trkpt lon="7.119703" lat="46.016147"><ele>1312.25</ele></trkpt>
   <trkpt lon="7.119659" lat="46.016158"><ele>1311.75</ele></trkpt>
   <trkpt lon="7.119594" lat="46.016158"><ele>1312.25</ele></trkpt>
   <trkpt lon="7.119518" lat="46.016172"><ele>1312.0</ele></trkpt>
   <trkpt lon="7.119442" lat="46.016197"><ele>1311.0</ele></trkpt>
   <trkpt lon="7.119380" lat="46.016237"><ele>1310.5</ele></trkpt>
   <trkpt lon="7.119234" lat="46.016387"><ele>1307.0</ele></trkpt>
   <trkpt lon="7.119245" lat="46.016420"><ele>1307.0</ele></trkpt>
   <trkpt lon="7.119281" lat="46.016463"><ele>1306.0</ele></trkpt>
   <trkpt lon="7.119287" lat="46.016508"><ele>1306.5</ele></trkpt>
   <trkpt lon="7.119259" lat="46.016603"><ele>1309.25</ele></trkpt>
   <trkpt lon="7.119250" lat="46.016667"><ele>1310.75</ele></trkpt>
   <trkpt lon="7.119236" lat="46.016714"><ele>1309.75</ele></trkpt>
   <trkpt lon="7.119051" lat="46.016928"><ele>1311.75</ele></trkpt>
   <trkpt lon="7.118998" lat="46.017139"><ele>1309.75</ele></trkpt>
   <trkpt lon="7.118962" lat="46.017201"><ele>1309.75</ele></trkpt>
   <trkpt lon="7.118975" lat="46.017298"><ele>1309.25</ele></trkpt>
   <trkpt lon="7.118961" lat="46.017339"><ele>1310.0</ele></trkpt>
   <trkpt lon="7.118982" lat="46.017375"><ele>1309.5</ele></trkpt>
   <trkpt lon="7.118982" lat="46.017402"><ele>1309.5</ele></trkpt>
   <trkpt lon="7.118911" lat="46.017514"><ele>1313.25</ele></trkpt>
   <trkpt lon="7.118907" lat="46.017565"><ele>1314.25</ele></trkpt>
   <trkpt lon="7.118881" lat="46.017629"><ele>1316.0</ele></trkpt>
   <trkpt lon="7.118880" lat="46.017674"><ele>1316.75</ele></trkpt>
   <trkpt lon="7.118899" lat="46.017722"><ele>1316.75</ele></trkpt>
   <trkpt lon="7.119028" lat="46.017828"><ele>1318.0</ele></trkpt>
   <trkpt lon="7.119194" lat="46.017928"><ele>1320.25</ele></trkpt>
   <trkpt lon="7.119392" lat="46.018099"><ele>1324.75</ele></trkpt>
   <trkpt lon="7.119580" lat="46.018201"><ele>1327.75</ele></trkpt>
   <trkpt lon="7.119662" lat="46.018256"><ele>1329.5</ele></trkpt>
   <trkpt lon="7.119833" lat="46.018425"><ele>1335.75</ele></trkpt>
   <trkpt lon="7.119967" lat="46.018519"><ele>1337.25</ele></trkpt>
   <trkpt lon="7.119979" lat="46.018555"><ele>1338.75</ele></trkpt>
   <trkpt lon="7.119992" lat="46.018657"><ele>1341.75</ele></trkpt>
   <trkpt lon="7.120084" lat="46.018821"><ele>1340.5</ele></trkpt>
   <trkpt lon="7.120144" lat="46.018873"><ele>1339.0</ele></trkpt>
   <trkpt lon="7.120203" lat="46.019054"><ele>1332.75</ele></trkpt>
   <trkpt lon="7.120253" lat="46.019121"><ele>1329.0</ele></trkpt>
   <trkpt lon="7.120286" lat="46.019222"><ele>1326.75</ele></trkpt>
   <trkpt lon="7.120273" lat="46.019270"><ele>1327.5</ele></trkpt>
   <trkpt lon="7.120258" lat="46.019404"><ele>1328.5</ele></trkpt>
   <trkpt lon="7.120278" lat="46.019505"><ele>1329.5</ele></trkpt>
   <trkpt lon="7.120325" lat="46.019600"><ele>1330.25</ele></trkpt>
   <trkpt lon="7.120453" lat="46.019763"><ele>1330.75</ele></trkpt>
   <trkpt lon="7.120589" lat="46.019888"><ele>1332.25</ele></trkpt>
   <trkpt lon="7.120666" lat="46.019951"><ele>1333.25</ele></trkpt>
   <trkpt lon="7.120867" lat="46.020077"><ele>1329.0</ele></trkpt>
   <trkpt lon="7.120853" lat="46.020115"><ele>1329.0</ele></trkpt>
   <trkpt lon="7.120708" lat="46.020265"><ele>1333.75</ele></trkpt>
   <trkpt lon="7.120626" lat="46.020315"><ele>1335.0</ele></trkpt>
   <trkpt lon="7.120514" lat="46.020353"><ele>1335.75</ele></trkpt>
   <trkpt lon="7.120432" lat="46.020370"><ele>1334.75</ele></trkpt>
   <trkpt lon="7.120447" lat="46.020383"><ele>1334.0</ele></trkpt>
   <trkpt lon="7.120437" lat="46.020407"><ele>1332.75</ele></trkpt>
   <trkpt lon="7.120320" lat="46.020483"><ele>1330.25</ele></trkpt>
   <trkpt lon="7.120221" lat="46.020574"><ele>1330.0</ele></trkpt>
   <trkpt lon="7.120205" lat="46.020623"><ele>1330.5</ele></trkpt>
   <trkpt lon="7.120242" lat="46.020672"><ele>1328.75</ele></trkpt>
   <trkpt lon="7.120160" lat="46.020770"><ele>1331.75</ele></trkpt>
   <trkpt lon="7.120104" lat="46.021080"><ele>1340.0</ele></trkpt>
   <trkpt lon="7.120072" lat="46.021254"><ele>1346.25</ele></trkpt>
   <trkpt lon="7.120109" lat="46.021460"><ele>1351.5</ele></trkpt>
   <trkpt lon="7.120010" lat="46.021485"><ele>1356.0</ele></trkpt>
   <trkpt lon="7.120026" lat="46.021793"><ele>1366.5</ele></trkpt>
   <trkpt lon="7.120057" lat="46.021841"><ele>1367.25</ele></trkpt>
   <trkpt lon="7.120048" lat="46.021869"><ele>1368.5</ele></trkpt>
   <trkpt lon="7.120030" lat="46.021899"><ele>1370.25</ele></trkpt>
   <trkpt lon="7.120180" lat="46.022228"><ele>1380.5</ele></trkpt>
   <trkpt lon="7.120167" lat="46.022243"><ele>1381.25</ele></trkpt>
   <trkpt lon="7.120228" lat="46.022302"><ele>1380.75</ele></trkpt>
   <trkpt lon="7.120246" lat="46.022332"><ele>1380.75</ele></trkpt>
   <trkpt lon="7.120265" lat="46.022379"><ele>1381.25</ele></trkpt>
   <trkpt lon="7.120275" lat="46.022439"><ele>1382.5</ele></trkpt>
   <trkpt lon="7.120278" lat="46.022496"><ele>1383.75</ele></trkpt>
   <trkpt lon="7.120266" lat="46.022531"><ele>1384.5</ele></trkpt>
   <trkpt lon="7.120248" lat="46.022535"><ele>1385.25</ele></trkpt>
   <trkpt lon="7.120177" lat="46.022579"><ele>1388.0</ele></trkpt>
   <trkpt lon="7.120099" lat="46.022659"><ele>1391.0</ele></trkpt>
   <trkpt lon="7.120081" lat="46.022755"><ele>1392.25</ele></trkpt>
   <trkpt lon="7.120086" lat="46.022817"><ele>1393.75</ele></trkpt>
   <trkpt lon="7.120189" lat="46.022949"><ele>1395.5</ele></trkpt>
   <trkpt lon="7.120220" lat="46.023049"><ele>1398.25</ele></trkpt>
   <trkpt lon="7.120519" lat="46.023300"><ele>1402.25</ele></trkpt>
   <trkpt lon="7.120602" lat="46.023438"><ele>1405.5</ele></trkpt>
   <trkpt lon="7.120623" lat="46.023524"><ele>1408.25</ele></trkpt>
   <trkpt lon="7.120626" lat="46.023598"><ele>1411.0</ele></trkpt>
   <trkpt lon="7.120612" lat="46.023810"><ele>1415.0</ele></trkpt>
   <trkpt lon="7.120599" lat="46.023889"><ele>1416.5</ele></trkpt>
   <trkpt lon="7.120612" lat="46.023947"><ele>1417.25</ele></trkpt>
   <trkpt lon="7.120694" lat="46.023970"><ele>1417.0</ele></trkpt>
   <trkpt lon="7.120928" lat="46.023991"><ele>1416.5</ele></trkpt>
   <trkpt lon="7.120985" lat="46.023997"><ele>1417.0</ele></trkpt>
   <trkpt lon="7.120944" lat="46.024228"><ele>1419.25</ele></trkpt>
   <trkpt lon="7.120944" lat="46.024266"><ele>1419.75</ele></trkpt>
   <trkpt lon="7.120974" lat="46.024349"><ele>1421.0</ele></trkpt>
   <trkpt lon="7.121011" lat="46.024410"><ele>1421.75</ele></trkpt>
   <trkpt lon="7.121089" lat="46.024457"><ele>1422.25</ele></trkpt>
   <trkpt lon="7.121259" lat="46.024514"><ele>1423.0</ele></trkpt>
   <trkpt lon="7.121363" lat="46.024560"><ele>1423.5</ele></trkpt>
   <trkpt lon="7.121595" lat="46.024700"><ele>1432.75</ele></trkpt>
   <trkpt lon="7.121578" lat="46.025024"><ele>1437.25</ele></trkpt>
   <trkpt lon="7.121533" lat="46.025144"><ele>1439.25</ele></trkpt>
   <trkpt lon="7.121477" lat="46.025249"><ele>1440.25</ele></trkpt>
   <trkpt lon="7.121413" lat="46.025329"><ele>1441.75</ele></trkpt>
   <trkpt lon="7.121220" lat="46.025474"><ele>1443.75</ele></trkpt>
   <trkpt lon="7.121089" lat="46.025657"><ele>1447.0</ele></trkpt>
   <trkpt lon="7.121063" lat="46.025740"><ele>1449.0</ele></trkpt>
   <trkpt lon="7.121052" lat="46.025918"><ele>1452.75</ele></trkpt>
   <trkpt lon="7.121035" lat="46.026016"><ele>1453.75</ele></trkpt>
   <trkpt lon="7.121039" lat="46.026041"><ele>1454.25</ele></trkpt>
   <trkpt lon="7.121061" lat="46.026050"><ele>1455.25</ele></trkpt>
   <trkpt lon="7.121087" lat="46.026043"><ele>1456.0</ele></trkpt>
   <trkpt lon="7.121232" lat="46.025847"><ele>1458.75</ele></trkpt>
   <trkpt lon="7.121291" lat="46.025789"><ele>1459.25</ele></trkpt>
   <trkpt lon="7.121392" lat="46.025707"><ele>1460.0</ele></trkpt>
   <trkpt lon="7.121508" lat="46.025637"><ele>1460.25</ele></trkpt>
   <trkpt lon="7.121691" lat="46.025576"><ele>1463.75</ele></trkpt>
   <trkpt lon="7.121831" lat="46.025502"><ele>1464.5</ele></trkpt>
   <trkpt lon="7.121984" lat="46.025410"><ele>1466.0</ele></trkpt>
   <trkpt lon="7.122097" lat="46.025397"><ele>1467.0</ele></trkpt>
   <trkpt lon="7.122218" lat="46.025419"><ele>1468.25</ele></trkpt>
   <trkpt lon="7.122339" lat="46.025449"><ele>1468.75</ele></trkpt>
   <trkpt lon="7.122448" lat="46.025460"><ele>1469.0</ele></trkpt>
   <trkpt lon="7.122467" lat="46.025500"><ele>1469.5</ele></trkpt>
   <trkpt lon="7.122459" lat="46.025589"><ele>1469.5</ele></trkpt>
   <trkpt lon="7.122393" lat="46.025666"><ele>1468.5</ele></trkpt>
   <trkpt lon="7.122378" lat="46.025680"><ele>1468.25</ele></trkpt>
   <trkpt lon="7.122431" lat="46.025749"><ele>1467.75</ele></trkpt>
   <trkpt lon="7.122517" lat="46.025857"><ele>1467.5</ele></trkpt>
   <trkpt lon="7.122544" lat="46.025891"><ele>1468.75</ele></trkpt>
   <trkpt lon="7.122523" lat="46.026083"><ele>1470.75</ele></trkpt>
   <trkpt lon="7.122321" lat="46.026326"><ele>1471.0</ele></trkpt>
   <trkpt lon="7.122220" lat="46.026406"><ele>1468.5</ele></trkpt>
   <trkpt lon="7.122095" lat="46.026483"><ele>1468.0</ele></trkpt>
   <trkpt lon="7.121857" lat="46.026602"><ele>1468.0</ele></trkpt>
   <trkpt lon="7.121600" lat="46.026715"><ele>1468.5</ele></trkpt>
   <trkpt lon="7.121226" lat="46.026962"><ele>1469.5</ele></trkpt>
   <trkpt lon="7.121099" lat="46.027046"><ele>1470.0</ele></trkpt>
   <trkpt lon="7.120910" lat="46.027134"><ele>1469.25</ele></trkpt>
   <trkpt lon="7.120849" lat="46.027162"><ele>1468.75</ele></trkpt>
   <trkpt lon="7.120752" lat="46.027187"><ele>1468.75</ele></trkpt>
   <trkpt lon="7.120664" lat="46.027177"><ele>1468.75</ele></trkpt>
   <trkpt lon="7.120611" lat="46.027167"><ele>1469.0</ele></trkpt>
   <trkpt lon="7.120566" lat="46.027250"><ele>1469.0</ele></trkpt>
   <trkpt lon="7.120507" lat="46.027229"><ele>1468.75</ele></trkpt>
   <trkpt lon="7.120499" lat="46.027221"><ele>1468.75</ele></trkpt>
   <trkpt lon="7.120455" lat="46.027261"><ele>1468.5</ele></trkpt>
   <trkpt lon="7.120351" lat="46.027468"><ele>1467.75</ele></trkpt>
   <trkpt lon="7.120348" lat="46.027640"><ele>1467.75</ele></trkpt>
   <trkpt lon="7.120337" lat="46.027701"><ele>1467.5</ele></trkpt>
   <trkpt lon="7.120298" lat="46.027794"><ele>1467.25</ele></trkpt>
   <trkpt lon="7.120239" lat="46.027881"><ele>1467.75</ele></trkpt>
   <trkpt lon="7.120163" lat="46.027951"><ele>1468.0</ele></trkpt>
   <trkpt lon="7.120056" lat="46.028026"><ele>1467.5</ele></trkpt>
   <trkpt lon="7.119960" lat="46.028073"><ele>1467.25</ele></trkpt>
   <trkpt lon="7.119870" lat="46.028111"><ele>1468.0</ele></trkpt>
   <trkpt lon="7.119777" lat="46.028135"><ele>1468.5</ele></trkpt>
   <trkpt lon="7.119507" lat="46.028161"><ele>1469.5</ele></trkpt>
   <trkpt lon="7.119212" lat="46.028172"><ele>1469.5</ele></trkpt>
   <trkpt lon="7.118999" lat="46.028187"><ele>1469.25</ele></trkpt>
   <trkpt lon="7.118854" lat="46.028209"><ele>1469.0</ele></trkpt>
   <trkpt lon="7.118505" lat="46.028295"><ele>1467.5</ele></trkpt>
   <trkpt lon="7.118402" lat="46.028334"><ele>1467.25</ele></trkpt>
   <trkpt lon="7.118341" lat="46.028371"><ele>1467.25</ele></trkpt>
   <trkpt lon="7.118210" lat="46.028468"><ele>1468.0</ele></trkpt>
   <trkpt lon="7.118070" lat="46.028586"><ele>1468.0</ele></trkpt>
   <trkpt lon="7.117884" lat="46.028802"><ele>1468.25</ele></trkpt>
   <trkpt lon="7.117705" lat="46.028977"><ele>1467.5</ele></trkpt>
   <trkpt lon="7.117469" lat="46.029132"><ele>1467.75</ele></trkpt>
   <trkpt lon="7.117285" lat="46.029290"><ele>1468.0</ele></trkpt>
   <trkpt lon="7.117223" lat="46.029364"><ele>1467.5</ele></trkpt>
   <trkpt lon="7.117015" lat="46.029713"><ele>1467.25</ele></trkpt>
   <trkpt lon="7.116857" lat="46.029876"><ele>1467.0</ele></trkpt>
   <trkpt lon="7.116685" lat="46.029992"><ele>1467.75</ele></trkpt>
   <trkpt lon="7.116352" lat="46.030201"><ele>1468.25</ele></trkpt>
   <trkpt lon="7.116188" lat="46.030284"><ele>1468.0</ele></trkpt>
   <trkpt lon="7.115852" lat="46.030415"><ele>1468.0</ele></trkpt>
   <trkpt lon="7.115746" lat="46.030453"><ele>1468.0</ele></trkpt>
   <trkpt lon="7.115313" lat="46.030570"><ele>1468.0</ele></trkpt>
   <trkpt lon="7.115174" lat="46.030600"><ele>1468.25</ele></trkpt>
   <trkpt lon="7.115115" lat="46.030570"><ele>1468.0</ele></trkpt>
   <trkpt lon="7.114980" lat="46.030559"><ele>1468.0</ele></trkpt>
   <trkpt lon="7.114986" lat="46.030386"><ele>1468.0</ele></trkpt>
   <trkpt lon="7.114957" lat="46.030257"><ele>1467.75</ele></trkpt>
  </trkseg>
  </trk>
</gpx>
