<?xml version="1.0" encoding="UTF-8"?>
<gpx xmlns="http://www.topografix.com/GPX/1/1" xmlns:xsi="http://www.w3.org/2001/XMLSchema-instance" xsi:schemaLocation="http://www.topografix.com/GPX/1/1 http://www.topografix.com/GPX/1/1/gpx.xsd" version="1.1" creator="tmb2027 build-gpx (BRouter hiking-mountain)">
  <metadata>
    <name>TMB 2027 Day 6 · Bertone → Rifugio Bonatti → Arnouvaz → Rifugio Elena</name>
    <desc>베르토네 → 보나티 → 아르누바 → 엘레나 · 경유 4지점 · 참고용 산길 경로. 실제 길 찾기는 공식 지도·현장 표지 우선.</desc>
    <copyright author="OpenStreetMap contributors"><license>https://www.openstreetmap.org/copyright</license></copyright>
    <link href="https://brouter.de/"><text>Routing: BRouter hiking-mountain</text></link>
    <time>2026-09-18T00:00:00Z</time>
  </metadata>
  <wpt lat="45.813" lon="6.979"><ele>1989</ele><name>Rifugio Bertone</name><type>lodging</type></wpt>
  <wpt lat="45.845" lon="7.03"><ele>2025</ele><name>Rifugio Bonatti</name><type>waypoint</type></wpt>
  <wpt lat="45.877" lon="7.062"><ele>1769</ele><name>Arnouvaz</name><type>waypoint</type></wpt>
  <wpt lat="45.8817" lon="7.0625"><ele>2062</ele><name>Rifugio Elena</name><type>lodging</type></wpt>
  <trk>
    <name>TMB 2027 Day 6 · Bertone → Rifugio Bonatti → Arnouvaz → Rifugio Elena</name>
    <trkseg>
   <trkpt lon="6.978402" lat="45.812860"><ele>2024.5</ele></trkpt>
   <trkpt lon="6.978207" lat="45.812990"><ele>2020.25</ele></trkpt>
   <trkpt lon="6.978148" lat="45.813090"><ele>2018.0</ele></trkpt>
   <trkpt lon="6.978148" lat="45.813297"><ele>2012.25</ele></trkpt>
   <trkpt lon="6.978178" lat="45.813484"><ele>2009.5</ele></trkpt>
   <trkpt lon="6.978233" lat="45.813585"><ele>2010.0</ele></trkpt>
   <trkpt lon="6.978213" lat="45.813740"><ele>2007.25</ele></trkpt>
   <trkpt lon="6.978253" lat="45.813851"><ele>2008.0</ele></trkpt>
   <trkpt lon="6.978302" lat="45.814422"><ele>2007.0</ele></trkpt>
   <trkpt lon="6.978272" lat="45.814602"><ele>2007.0</ele></trkpt>
   <trkpt lon="6.978128" lat="45.814665"><ele>2007.0</ele></trkpt>
   <trkpt lon="6.977984" lat="45.814648"><ele>2005.0</ele></trkpt>
   <trkpt lon="6.977834" lat="45.814692"><ele>2005.25</ele></trkpt>
   <trkpt lon="6.977801" lat="45.814772"><ele>2006.5</ele></trkpt>
   <trkpt lon="6.977781" lat="45.815021"><ele>2006.75</ele></trkpt>
   <trkpt lon="6.977920" lat="45.815336"><ele>2006.75</ele></trkpt>
   <trkpt lon="6.977935" lat="45.815496"><ele>2004.0</ele></trkpt>
   <trkpt lon="6.977960" lat="45.815586"><ele>2002.5</ele></trkpt>
   <trkpt lon="6.978074" lat="45.815721"><ele>2003.25</ele></trkpt>
   <trkpt lon="6.978138" lat="45.815859"><ele>2000.25</ele></trkpt>
   <trkpt lon="6.978412" lat="45.816139"><ele>1998.0</ele></trkpt>
   <trkpt lon="6.978486" lat="45.816261"><ele>1995.25</ele></trkpt>
   <trkpt lon="6.978650" lat="45.816503"><ele>1992.0</ele></trkpt>
   <trkpt lon="6.978769" lat="45.816645"><ele>1992.5</ele></trkpt>
   <trkpt lon="6.978809" lat="45.816745"><ele>1991.25</ele></trkpt>
   <trkpt lon="6.979147" lat="45.817171"><ele>1991.75</ele></trkpt>
   <trkpt lon="6.979459" lat="45.817503"><ele>1987.5</ele></trkpt>
   <trkpt lon="6.979469" lat="45.817600"><ele>1986.25</ele></trkpt>
   <trkpt lon="6.979787" lat="45.818140"><ele>1981.25</ele></trkpt>
   <trkpt lon="6.980140" lat="45.818462"><ele>1981.5</ele></trkpt>
   <trkpt lon="6.980358" lat="45.818839"><ele>1980.0</ele></trkpt>
   <trkpt lon="6.981103" lat="45.819400"><ele>1976.25</ele></trkpt>
   <trkpt lon="6.981531" lat="45.819580"><ele>1977.75</ele></trkpt>
   <trkpt lon="6.981898" lat="45.819705"><ele>1980.0</ele></trkpt>
   <trkpt lon="6.982415" lat="45.820037"><ele>1975.75</ele></trkpt>
   <trkpt lon="6.982683" lat="45.820234"><ele>1977.25</ele></trkpt>
   <trkpt lon="6.983351" lat="45.820683"><ele>1974.0</ele></trkpt>
   <trkpt lon="6.983706" lat="45.820850"><ele>1972.5</ele></trkpt>
   <trkpt lon="6.983939" lat="45.820937"><ele>1971.75</ele></trkpt>
   <trkpt lon="6.984346" lat="45.821214"><ele>1969.75</ele></trkpt>
   <trkpt lon="6.984689" lat="45.821511"><ele>1969.75</ele></trkpt>
   <trkpt lon="6.984799" lat="45.821650"><ele>1968.0</ele></trkpt>
   <trkpt lon="6.985550" lat="45.821985"><ele>1968.5</ele></trkpt>
   <trkpt lon="6.985872" lat="45.822150"><ele>1965.5</ele></trkpt>
   <trkpt lon="6.986388" lat="45.822564"><ele>1958.75</ele></trkpt>
   <trkpt lon="6.987014" lat="45.823048"><ele>1954.5</ele></trkpt>
   <trkpt lon="6.987277" lat="45.823180"><ele>1951.75</ele></trkpt>
   <trkpt lon="6.987530" lat="45.823367"><ele>1948.0</ele></trkpt>
   <trkpt lon="6.987728" lat="45.823575"><ele>1944.0</ele></trkpt>
   <trkpt lon="6.987774" lat="45.823674"><ele>1943.25</ele></trkpt>
   <trkpt lon="6.987690" lat="45.823801"><ele>1939.5</ele></trkpt>
   <trkpt lon="6.987725" lat="45.823877"><ele>1940.0</ele></trkpt>
   <trkpt lon="6.987695" lat="45.823935"><ele>1938.5</ele></trkpt>
   <trkpt lon="6.987621" lat="45.824032"><ele>1935.25</ele></trkpt>
   <trkpt lon="6.987676" lat="45.824125"><ele>1936.0</ele></trkpt>
   <trkpt lon="6.987607" lat="45.824125"><ele>1934.5</ele></trkpt>
   <trkpt lon="6.987523" lat="45.824056"><ele>1932.5</ele></trkpt>
   <trkpt lon="6.987385" lat="45.823832"><ele>1929.0</ele></trkpt>
   <trkpt lon="6.987301" lat="45.823712"><ele>1928.0</ele></trkpt>
   <trkpt lon="6.987227" lat="45.823633"><ele>1926.75</ele></trkpt>
   <trkpt lon="6.987143" lat="45.823581"><ele>1926.75</ele></trkpt>
   <trkpt lon="6.986951" lat="45.823554"><ele>1924.25</ele></trkpt>
   <trkpt lon="6.986872" lat="45.823516"><ele>1924.0</ele></trkpt>
   <trkpt lon="6.986768" lat="45.823437"><ele>1924.5</ele></trkpt>
   <trkpt lon="6.986679" lat="45.823382"><ele>1923.75</ele></trkpt>
   <trkpt lon="6.986527" lat="45.823368"><ele>1920.0</ele></trkpt>
   <trkpt lon="6.986206" lat="45.823211"><ele>1913.0</ele></trkpt>
   <trkpt lon="6.985835" lat="45.823007"><ele>1905.75</ele></trkpt>
   <trkpt lon="6.985620" lat="45.822943"><ele>1902.5</ele></trkpt>
   <trkpt lon="6.985836" lat="45.823197"><ele>1896.5</ele></trkpt>
   <trkpt lon="6.985925" lat="45.823417"><ele>1892.5</ele></trkpt>
   <trkpt lon="6.985885" lat="45.823437"><ele>1890.0</ele></trkpt>
   <trkpt lon="6.985678" lat="45.823307"><ele>1885.5</ele></trkpt>
   <trkpt lon="6.985550" lat="45.823241"><ele>1884.5</ele></trkpt>
   <trkpt lon="6.985358" lat="45.823200"><ele>1881.5</ele></trkpt>
   <trkpt lon="6.985155" lat="45.823176"><ele>1877.0</ele></trkpt>
   <trkpt lon="6.984978" lat="45.823100"><ele>1874.25</ele></trkpt>
   <trkpt lon="6.984810" lat="45.822994"><ele>1872.75</ele></trkpt>
   <trkpt lon="6.984590" lat="45.822918"><ele>1868.75</ele></trkpt>
   <trkpt lon="6.983355" lat="45.822682"><ele>1852.75</ele></trkpt>
   <trkpt lon="6.983109" lat="45.822579"><ele>1850.25</ele></trkpt>
   <trkpt lon="6.982677" lat="45.822442"><ele>1844.0</ele></trkpt>
   <trkpt lon="6.982590" lat="45.822438"><ele>1842.25</ele></trkpt>
   <trkpt lon="6.982638" lat="45.822484"><ele>1840.75</ele></trkpt>
   <trkpt lon="6.982715" lat="45.822535"><ele>1840.0</ele></trkpt>
   <trkpt lon="6.982698" lat="45.822583"><ele>1837.75</ele></trkpt>
   <trkpt lon="6.982558" lat="45.822579"><ele>1835.0</ele></trkpt>
   <trkpt lon="6.982188" lat="45.822542"><ele>1827.75</ele></trkpt>
   <trkpt lon="6.981965" lat="45.822496"><ele>1825.5</ele></trkpt>
   <trkpt lon="6.981829" lat="45.822484"><ele>1823.0</ele></trkpt>
   <trkpt lon="6.981644" lat="45.822438"><ele>1820.5</ele></trkpt>
   <trkpt lon="6.981561" lat="45.822425"><ele>1819.5</ele></trkpt>
   <trkpt lon="6.981603" lat="45.822559"><ele>1816.25</ele></trkpt>
   <trkpt lon="6.981715" lat="45.822658"><ele>1815.75</ele></trkpt>
   <trkpt lon="6.982003" lat="45.822814"><ele>1815.0</ele></trkpt>
   <trkpt lon="6.982342" lat="45.822946"><ele>1814.75</ele></trkpt>
   <trkpt lon="6.982400" lat="45.822981"><ele>1814.0</ele></trkpt>
   <trkpt lon="6.982559" lat="45.823053"><ele>1812.75</ele></trkpt>
   <trkpt lon="6.982925" lat="45.823253"><ele>1808.0</ele></trkpt>
   <trkpt lon="6.983127" lat="45.823383"><ele>1804.5</ele></trkpt>
   <trkpt lon="6.983298" lat="45.823480"><ele>1803.25</ele></trkpt>
   <trkpt lon="6.983415" lat="45.823572"><ele>1803.0</ele></trkpt>
   <trkpt lon="6.983459" lat="45.823650"><ele>1802.75</ele></trkpt>
   <trkpt lon="6.983491" lat="45.823752"><ele>1802.5</ele></trkpt>
   <trkpt lon="6.983494" lat="45.823864"><ele>1800.75</ele></trkpt>
   <trkpt lon="6.983571" lat="45.823971"><ele>1801.75</ele></trkpt>
   <trkpt lon="6.983611" lat="45.824096"><ele>1800.0</ele></trkpt>
   <trkpt lon="6.983666" lat="45.824202"><ele>1798.75</ele></trkpt>
   <trkpt lon="6.983827" lat="45.824405"><ele>1798.0</ele></trkpt>
   <trkpt lon="6.984045" lat="45.824597"><ele>1798.5</ele></trkpt>
   <trkpt lon="6.984120" lat="45.824702"><ele>1796.75</ele></trkpt>
   <trkpt lon="6.984174" lat="45.824793"><ele>1796.0</ele></trkpt>
   <trkpt lon="6.984471" lat="45.825059"><ele>1796.75</ele></trkpt>
   <trkpt lon="6.984593" lat="45.825141"><ele>1798.25</ele></trkpt>
   <trkpt lon="6.984685" lat="45.825300"><ele>1795.0</ele></trkpt>
   <trkpt lon="6.984963" lat="45.825581"><ele>1791.5</ele></trkpt>
   <trkpt lon="6.985005" lat="45.825647"><ele>1790.75</ele></trkpt>
   <trkpt lon="6.984953" lat="45.825662"><ele>1789.0</ele></trkpt>
   <trkpt lon="6.984805" lat="45.825606"><ele>1787.25</ele></trkpt>
   <trkpt lon="6.984620" lat="45.825485"><ele>1787.0</ele></trkpt>
   <trkpt lon="6.984482" lat="45.825382"><ele>1786.25</ele></trkpt>
   <trkpt lon="6.984416" lat="45.825370"><ele>1784.75</ele></trkpt>
   <trkpt lon="6.984396" lat="45.825425"><ele>1782.75</ele></trkpt>
   <trkpt lon="6.984436" lat="45.825545"><ele>1781.0</ele></trkpt>
   <trkpt lon="6.984502" lat="45.825659"><ele>1780.0</ele></trkpt>
   <trkpt lon="6.984524" lat="45.825736"><ele>1778.75</ele></trkpt>
   <trkpt lon="6.984500" lat="45.825777"><ele>1777.5</ele></trkpt>
   <trkpt lon="6.984440" lat="45.825846"><ele>1775.5</ele></trkpt>
   <trkpt lon="6.984423" lat="45.825915"><ele>1773.75</ele></trkpt>
   <trkpt lon="6.984465" lat="45.825992"><ele>1772.75</ele></trkpt>
   <trkpt lon="6.984546" lat="45.826078"><ele>1772.75</ele></trkpt>
   <trkpt lon="6.984722" lat="45.826209"><ele>1771.75</ele></trkpt>
   <trkpt lon="6.984800" lat="45.826284"><ele>1769.5</ele></trkpt>
   <trkpt lon="6.984936" lat="45.826370"><ele>1767.75</ele></trkpt>
   <trkpt lon="6.985082" lat="45.826424"><ele>1767.0</ele></trkpt>
   <trkpt lon="6.985259" lat="45.826480"><ele>1767.0</ele></trkpt>
   <trkpt lon="6.985456" lat="45.826583"><ele>1763.75</ele></trkpt>
   <trkpt lon="6.985693" lat="45.826631"><ele>1764.0</ele></trkpt>
   <trkpt lon="6.985881" lat="45.826724"><ele>1759.0</ele></trkpt>
   <trkpt lon="6.986053" lat="45.826827"><ele>1753.0</ele></trkpt>
   <trkpt lon="6.986162" lat="45.826947"><ele>1745.0</ele></trkpt>
   <trkpt lon="6.986507" lat="45.827112"><ele>1741.25</ele></trkpt>
   <trkpt lon="6.986793" lat="45.827160"><ele>1745.0</ele></trkpt>
   <trkpt lon="6.986857" lat="45.827263"><ele>1739.0</ele></trkpt>
   <trkpt lon="6.987025" lat="45.827349"><ele>1738.0</ele></trkpt>
   <trkpt lon="6.987202" lat="45.827418"><ele>1737.0</ele></trkpt>
   <trkpt lon="6.987232" lat="45.827525"><ele>1730.5</ele></trkpt>
   <trkpt lon="6.987291" lat="45.827621"><ele>1725.25</ele></trkpt>
   <trkpt lon="6.987562" lat="45.827696"><ele>1726.0</ele></trkpt>
   <trkpt lon="6.987913" lat="45.827827"><ele>1723.25</ele></trkpt>
   <trkpt lon="6.988149" lat="45.827940"><ele>1721.75</ele></trkpt>
   <trkpt lon="6.988342" lat="45.828043"><ele>1718.75</ele></trkpt>
   <trkpt lon="6.988761" lat="45.828329"><ele>1709.5</ele></trkpt>
   <trkpt lon="6.989037" lat="45.828446"><ele>1707.5</ele></trkpt>
   <trkpt lon="6.989323" lat="45.828538"><ele>1705.25</ele></trkpt>
   <trkpt lon="6.989644" lat="45.828586"><ele>1704.5</ele></trkpt>
   <trkpt lon="6.989950" lat="45.828611"><ele>1703.0</ele></trkpt>
   <trkpt lon="6.990221" lat="45.828652"><ele>1701.25</ele></trkpt>
   <trkpt lon="6.990393" lat="45.828696"><ele>1698.75</ele></trkpt>
   <trkpt lon="6.990541" lat="45.828696"><ele>1699.25</ele></trkpt>
   <trkpt lon="6.990633" lat="45.828809"><ele>1694.75</ele></trkpt>
   <trkpt lon="6.990905" lat="45.828931"><ele>1691.25</ele></trkpt>
   <trkpt lon="6.991260" lat="45.829111"><ele>1684.25</ele></trkpt>
   <trkpt lon="6.991581" lat="45.829261"><ele>1681.25</ele></trkpt>
   <trkpt lon="6.991756" lat="45.829314"><ele>1682.0</ele></trkpt>
   <trkpt lon="6.992037" lat="45.829514"><ele>1676.5</ele></trkpt>
   <trkpt lon="6.992323" lat="45.829630"><ele>1676.75</ele></trkpt>
   <trkpt lon="6.992486" lat="45.829737"><ele>1674.0</ele></trkpt>
   <trkpt lon="6.992584" lat="45.829844"><ele>1673.0</ele></trkpt>
   <trkpt lon="6.992605" lat="45.829904"><ele>1671.25</ele></trkpt>
   <trkpt lon="6.992685" lat="45.830055"><ele>1667.75</ele></trkpt>
   <trkpt lon="6.993278" lat="45.830334"><ele>1667.25</ele></trkpt>
   <trkpt lon="6.993675" lat="45.830635"><ele>1664.75</ele></trkpt>
   <trkpt lon="6.993935" lat="45.830850"><ele>1662.25</ele></trkpt>
   <trkpt lon="6.994136" lat="45.830972"><ele>1661.0</ele></trkpt>
   <trkpt lon="6.994560" lat="45.831230"><ele>1656.75</ele></trkpt>
   <trkpt lon="6.994922" lat="45.831440"><ele>1652.75</ele></trkpt>
   <trkpt lon="6.995178" lat="45.831675"><ele>1648.25</ele></trkpt>
   <trkpt lon="6.995400" lat="45.831862"><ele>1644.75</ele></trkpt>
   <trkpt lon="6.995539" lat="45.831927"><ele>1644.25</ele></trkpt>
   <trkpt lon="6.995563" lat="45.831965"><ele>1643.5</ele></trkpt>
   <trkpt lon="6.995508" lat="45.831992"><ele>1642.25</ele></trkpt>
   <trkpt lon="6.995318" lat="45.832008"><ele>1640.5</ele></trkpt>
   <trkpt lon="6.995077" lat="45.832090"><ele>1637.5</ele></trkpt>
   <trkpt lon="6.994863" lat="45.832195"><ele>1635.0</ele></trkpt>
   <trkpt lon="6.994824" lat="45.832267"><ele>1634.0</ele></trkpt>
   <trkpt lon="6.995012" lat="45.832356"><ele>1632.5</ele></trkpt>
   <trkpt lon="6.995155" lat="45.832479"><ele>1630.0</ele></trkpt>
   <trkpt lon="6.995291" lat="45.832540"><ele>1628.25</ele></trkpt>
   <trkpt lon="6.995306" lat="45.832582"><ele>1627.75</ele></trkpt>
   <trkpt lon="6.995223" lat="45.832841"><ele>1624.25</ele></trkpt>
   <trkpt lon="6.995189" lat="45.833101"><ele>1620.75</ele></trkpt>
   <trkpt lon="6.995008" lat="45.833345"><ele>1618.75</ele></trkpt>
   <trkpt lon="6.995005" lat="45.833408"><ele>1618.5</ele></trkpt>
   <trkpt lon="6.995072" lat="45.833469"><ele>1617.75</ele></trkpt>
   <trkpt lon="6.995125" lat="45.833529"><ele>1617.0</ele></trkpt>
   <trkpt lon="6.995144" lat="45.833616"><ele>1616.25</ele></trkpt>
   <trkpt lon="6.995103" lat="45.833723"><ele>1613.5</ele></trkpt>
   <trkpt lon="6.995050" lat="45.833773"><ele>1612.5</ele></trkpt>
   <trkpt lon="6.994948" lat="45.833781"><ele>1612.0</ele></trkpt>
   <trkpt lon="6.994816" lat="45.833752"><ele>1611.75</ele></trkpt>
   <trkpt lon="6.994748" lat="45.833747"><ele>1611.25</ele></trkpt>
   <trkpt lon="6.994699" lat="45.833778"><ele>1610.0</ele></trkpt>
   <trkpt lon="6.994586" lat="45.833873"><ele>1609.0</ele></trkpt>
   <trkpt lon="6.994498" lat="45.833928"><ele>1610.75</ele></trkpt>
   <trkpt lon="6.994431" lat="45.833938"><ele>1611.5</ele></trkpt>
   <trkpt lon="6.994359" lat="45.833910"><ele>1611.25</ele></trkpt>
   <trkpt lon="6.994332" lat="45.833916"><ele>1611.25</ele></trkpt>
   <trkpt lon="6.994487" lat="45.834016"><ele>1612.25</ele></trkpt>
   <trkpt lon="6.994815" lat="45.834228"><ele>1615.75</ele></trkpt>
   <trkpt lon="6.995080" lat="45.834359"><ele>1617.0</ele></trkpt>
   <trkpt lon="6.995644" lat="45.834611"><ele>1619.0</ele></trkpt>
   <trkpt lon="6.995954" lat="45.834730"><ele>1618.5</ele></trkpt>
   <trkpt lon="6.996765" lat="45.834985"><ele>1618.0</ele></trkpt>
   <trkpt lon="6.997913" lat="45.835303"><ele>1618.5</ele></trkpt>
   <trkpt lon="6.998216" lat="45.835469"><ele>1619.0</ele></trkpt>
   <trkpt lon="6.998323" lat="45.835560"><ele>1619.0</ele></trkpt>
   <trkpt lon="6.998274" lat="45.835566"><ele>1619.25</ele></trkpt>
   <trkpt lon="6.998649" lat="45.835896"><ele>1618.5</ele></trkpt>
   <trkpt lon="6.998873" lat="45.836057"><ele>1620.75</ele></trkpt>
   <trkpt lon="6.999105" lat="45.836212"><ele>1620.25</ele></trkpt>
   <trkpt lon="6.999729" lat="45.836564"><ele>1621.5</ele></trkpt>
   <trkpt lon="7.000166" lat="45.836849"><ele>1622.25</ele></trkpt>
   <trkpt lon="7.000328" lat="45.836987"><ele>1622.5</ele></trkpt>
   <trkpt lon="7.000756" lat="45.837455"><ele>1622.5</ele></trkpt>
   <trkpt lon="7.000819" lat="45.837512"><ele>1622.25</ele></trkpt>
   <trkpt lon="7.000910" lat="45.837563"><ele>1622.5</ele></trkpt>
   <trkpt lon="7.001478" lat="45.837797"><ele>1622.25</ele></trkpt>
   <trkpt lon="7.001598" lat="45.837870"><ele>1622.75</ele></trkpt>
   <trkpt lon="7.001694" lat="45.837955"><ele>1623.0</ele></trkpt>
   <trkpt lon="7.002025" lat="45.838294"><ele>1624.0</ele></trkpt>
   <trkpt lon="7.002878" lat="45.838944"><ele>1622.25</ele></trkpt>
   <trkpt lon="7.002986" lat="45.839006"><ele>1621.75</ele></trkpt>
   <trkpt lon="7.003126" lat="45.839064"><ele>1621.25</ele></trkpt>
   <trkpt lon="7.003377" lat="45.839131"><ele>1620.5</ele></trkpt>
   <trkpt lon="7.004101" lat="45.839250"><ele>1619.0</ele></trkpt>
   <trkpt lon="7.004331" lat="45.839316"><ele>1618.5</ele></trkpt>
   <trkpt lon="7.006201" lat="45.840139"><ele>1620.0</ele></trkpt>
   <trkpt lon="7.007437" lat="45.840660"><ele>1622.25</ele></trkpt>
   <trkpt lon="7.008183" lat="45.841072"><ele>1622.75</ele></trkpt>
   <trkpt lon="7.008258" lat="45.841115"><ele>1623.0</ele></trkpt>
   <trkpt lon="7.008655" lat="45.841363"><ele>1623.75</ele></trkpt>
   <trkpt lon="7.008974" lat="45.841505"><ele>1624.75</ele></trkpt>
   <trkpt lon="7.009182" lat="45.841576"><ele>1624.25</ele></trkpt>
   <trkpt lon="7.009269" lat="45.841606"><ele>1624.5</ele></trkpt>
   <trkpt lon="7.010557" lat="45.842041"><ele>1624.25</ele></trkpt>
   <trkpt lon="7.010615" lat="45.841978"><ele>1623.75</ele></trkpt>
   <trkpt lon="7.011022" lat="45.842043"><ele>1623.5</ele></trkpt>
   <trkpt lon="7.011179" lat="45.842000"><ele>1623.25</ele></trkpt>
   <trkpt lon="7.011397" lat="45.841995"><ele>1623.25</ele></trkpt>
   <trkpt lon="7.011639" lat="45.842011"><ele>1624.0</ele></trkpt>
   <trkpt lon="7.011808" lat="45.842055"><ele>1624.5</ele></trkpt>
   <trkpt lon="7.011961" lat="45.842123"><ele>1625.25</ele></trkpt>
   <trkpt lon="7.012007" lat="45.842099"><ele>1625.0</ele></trkpt>
   <trkpt lon="7.012160" lat="45.842003"><ele>1625.75</ele></trkpt>
   <trkpt lon="7.012357" lat="45.842137"><ele>1625.25</ele></trkpt>
   <trkpt lon="7.012552" lat="45.842238"><ele>1625.25</ele></trkpt>
   <trkpt lon="7.012629" lat="45.842257"><ele>1625.75</ele></trkpt>
   <trkpt lon="7.012695" lat="45.842306"><ele>1626.0</ele></trkpt>
   <trkpt lon="7.013225" lat="45.842249"><ele>1628.5</ele></trkpt>
   <trkpt lon="7.014118" lat="45.842187"><ele>1631.0</ele></trkpt>
   <trkpt lon="7.014286" lat="45.842150"><ele>1631.75</ele></trkpt>
   <trkpt lon="7.014520" lat="45.842110"><ele>1632.5</ele></trkpt>
   <trkpt lon="7.014673" lat="45.842132"><ele>1633.0</ele></trkpt>
   <trkpt lon="7.014872" lat="45.842127"><ele>1633.5</ele></trkpt>
   <trkpt lon="7.014921" lat="45.842056"><ele>1634.0</ele></trkpt>
   <trkpt lon="7.015041" lat="45.842000"><ele>1634.75</ele></trkpt>
   <trkpt lon="7.015381" lat="45.841910"><ele>1638.75</ele></trkpt>
   <trkpt lon="7.015523" lat="45.841839"><ele>1642.5</ele></trkpt>
   <trkpt lon="7.015526" lat="45.841584"><ele>1649.25</ele></trkpt>
   <trkpt lon="7.015589" lat="45.841452"><ele>1654.75</ele></trkpt>
   <trkpt lon="7.015734" lat="45.841584"><ele>1658.5</ele></trkpt>
   <trkpt lon="7.015818" lat="45.841536"><ele>1663.0</ele></trkpt>
   <trkpt lon="7.015861" lat="45.841457"><ele>1666.25</ele></trkpt>
   <trkpt lon="7.015924" lat="45.841402"><ele>1670.25</ele></trkpt>
   <trkpt lon="7.015878" lat="45.841301"><ele>1670.5</ele></trkpt>
   <trkpt lon="7.015930" lat="45.841200"><ele>1675.5</ele></trkpt>
   <trkpt lon="7.016058" lat="45.841216"><ele>1680.75</ele></trkpt>
   <trkpt lon="7.016333" lat="45.841438"><ele>1689.25</ele></trkpt>
   <trkpt lon="7.016416" lat="45.841530"><ele>1691.0</ele></trkpt>
   <trkpt lon="7.016509" lat="45.841502"><ele>1695.25</ele></trkpt>
   <trkpt lon="7.016512" lat="45.841352"><ele>1698.25</ele></trkpt>
   <trkpt lon="7.016457" lat="45.841266"><ele>1698.75</ele></trkpt>
   <trkpt lon="7.016522" lat="45.841221"><ele>1702.5</ele></trkpt>
   <trkpt lon="7.016587" lat="45.841317"><ele>1702.25</ele></trkpt>
   <trkpt lon="7.016779" lat="45.841418"><ele>1707.0</ele></trkpt>
   <trkpt lon="7.016854" lat="45.841498"><ele>1709.0</ele></trkpt>
   <trkpt lon="7.017118" lat="45.841646"><ele>1718.0</ele></trkpt>
   <trkpt lon="7.017343" lat="45.841999"><ele>1724.5</ele></trkpt>
   <trkpt lon="7.017593" lat="45.842328"><ele>1730.0</ele></trkpt>
   <trkpt lon="7.017705" lat="45.842328"><ele>1734.75</ele></trkpt>
   <trkpt lon="7.017758" lat="45.842275"><ele>1737.5</ele></trkpt>
   <trkpt lon="7.017849" lat="45.842156"><ele>1742.75</ele></trkpt>
   <trkpt lon="7.017950" lat="45.842172"><ele>1746.0</ele></trkpt>
   <trkpt lon="7.017991" lat="45.842245"><ele>1746.25</ele></trkpt>
   <trkpt lon="7.018129" lat="45.842397"><ele>1749.0</ele></trkpt>
   <trkpt lon="7.018211" lat="45.842358"><ele>1753.5</ele></trkpt>
   <trkpt lon="7.018255" lat="45.842240"><ele>1757.75</ele></trkpt>
   <trkpt lon="7.018310" lat="45.842003"><ele>1764.0</ele></trkpt>
   <trkpt lon="7.018518" lat="45.841675"><ele>1776.75</ele></trkpt>
   <trkpt lon="7.018738" lat="45.841420"><ele>1795.5</ele></trkpt>
   <trkpt lon="7.018550" lat="45.840887"><ele>1810.0</ele></trkpt>
   <trkpt lon="7.018328" lat="45.840188"><ele>1827.25</ele></trkpt>
   <trkpt lon="7.018287" lat="45.840124"><ele>1829.0</ele></trkpt>
   <trkpt lon="7.018463" lat="45.840182"><ele>1833.75</ele></trkpt>
   <trkpt lon="7.019194" lat="45.840560"><ele>1849.5</ele></trkpt>
   <trkpt lon="7.019366" lat="45.840585"><ele>1853.5</ele></trkpt>
   <trkpt lon="7.019440" lat="45.840548"><ele>1858.0</ele></trkpt>
   <trkpt lon="7.019292" lat="45.840333"><ele>1863.25</ele></trkpt>
   <trkpt lon="7.018933" lat="45.839692"><ele>1874.0</ele></trkpt>
   <trkpt lon="7.018951" lat="45.839574"><ele>1877.0</ele></trkpt>
   <trkpt lon="7.019065" lat="45.839540"><ele>1881.0</ele></trkpt>
   <trkpt lon="7.019082" lat="45.839567"><ele>1881.0</ele></trkpt>
   <trkpt lon="7.019145" lat="45.839566"><ele>1883.0</ele></trkpt>
   <trkpt lon="7.019197" lat="45.839613"><ele>1884.0</ele></trkpt>
   <trkpt lon="7.019267" lat="45.839613"><ele>1886.25</ele></trkpt>
   <trkpt lon="7.019305" lat="45.839662"><ele>1887.0</ele></trkpt>
   <trkpt lon="7.019383" lat="45.839688"><ele>1889.25</ele></trkpt>
   <trkpt lon="7.019372" lat="45.839605"><ele>1889.75</ele></trkpt>
   <trkpt lon="7.019405" lat="45.839406"><ele>1893.25</ele></trkpt>
   <trkpt lon="7.019506" lat="45.839369"><ele>1897.0</ele></trkpt>
   <trkpt lon="7.019588" lat="45.839414"><ele>1898.5</ele></trkpt>
   <trkpt lon="7.019666" lat="45.839533"><ele>1899.75</ele></trkpt>
   <trkpt lon="7.019730" lat="45.839658"><ele>1901.5</ele></trkpt>
   <trkpt lon="7.019815" lat="45.839665"><ele>1904.75</ele></trkpt>
   <trkpt lon="7.019874" lat="45.839611"><ele>1907.5</ele></trkpt>
   <trkpt lon="7.019973" lat="45.839618"><ele>1911.75</ele></trkpt>
   <trkpt lon="7.020024" lat="45.839698"><ele>1912.25</ele></trkpt>
   <trkpt lon="7.020177" lat="45.839711"><ele>1917.5</ele></trkpt>
   <trkpt lon="7.020115" lat="45.839544"><ele>1919.5</ele></trkpt>
   <trkpt lon="7.020076" lat="45.839246"><ele>1926.25</ele></trkpt>
   <trkpt lon="7.019957" lat="45.838953"><ele>1933.0</ele></trkpt>
   <trkpt lon="7.019785" lat="45.838709"><ele>1940.75</ele></trkpt>
   <trkpt lon="7.019648" lat="45.838476"><ele>1948.5</ele></trkpt>
   <trkpt lon="7.019537" lat="45.838359"><ele>1951.25</ele></trkpt>
   <trkpt lon="7.019426" lat="45.838292"><ele>1951.0</ele></trkpt>
   <trkpt lon="7.019253" lat="45.838161"><ele>1949.75</ele></trkpt>
   <trkpt lon="7.019197" lat="45.838091"><ele>1951.25</ele></trkpt>
   <trkpt lon="7.019137" lat="45.837988"><ele>1952.75</ele></trkpt>
   <trkpt lon="7.019104" lat="45.837886"><ele>1953.5</ele></trkpt>
   <trkpt lon="7.019078" lat="45.837744"><ele>1953.75</ele></trkpt>
   <trkpt lon="7.019282" lat="45.837490"><ele>1959.5</ele></trkpt>
   <trkpt lon="7.019286" lat="45.837428"><ele>1959.5</ele></trkpt>
   <trkpt lon="7.019368" lat="45.837342"><ele>1961.75</ele></trkpt>
   <trkpt lon="7.019424" lat="45.837264"><ele>1963.25</ele></trkpt>
   <trkpt lon="7.019543" lat="45.837184"><ele>1967.75</ele></trkpt>
   <trkpt lon="7.019561" lat="45.837033"><ele>1970.5</ele></trkpt>
   <trkpt lon="7.019610" lat="45.836932"><ele>1973.25</ele></trkpt>
   <trkpt lon="7.019710" lat="45.836860"><ele>1976.25</ele></trkpt>
   <trkpt lon="7.019718" lat="45.836766"><ele>1977.0</ele></trkpt>
   <trkpt lon="7.019815" lat="45.836665"><ele>1979.0</ele></trkpt>
   <trkpt lon="7.019934" lat="45.836580"><ele>1980.75</ele></trkpt>
   <trkpt lon="7.019911" lat="45.836455"><ele>1981.25</ele></trkpt>
   <trkpt lon="7.020008" lat="45.836217"><ele>1983.0</ele></trkpt>
   <trkpt lon="7.020097" lat="45.836170"><ele>1984.5</ele></trkpt>
   <trkpt lon="7.020265" lat="45.836149"><ele>1987.0</ele></trkpt>
   <trkpt lon="7.020362" lat="45.836059"><ele>1988.25</ele></trkpt>
   <trkpt lon="7.020451" lat="45.835926"><ele>1989.0</ele></trkpt>
   <trkpt lon="7.020526" lat="45.836007"><ele>1994.0</ele></trkpt>
   <trkpt lon="7.020522" lat="45.836213"><ele>1996.5</ele></trkpt>
   <trkpt lon="7.020655" lat="45.836430"><ele>2002.75</ele></trkpt>
   <trkpt lon="7.020760" lat="45.836495"><ele>2006.75</ele></trkpt>
   <trkpt lon="7.020792" lat="45.836600"><ele>2008.25</ele></trkpt>
   <trkpt lon="7.020838" lat="45.836693"><ele>2009.75</ele></trkpt>
   <trkpt lon="7.020964" lat="45.836786"><ele>2014.5</ele></trkpt>
   <trkpt lon="7.020988" lat="45.836892"><ele>2014.75</ele></trkpt>
   <trkpt lon="7.021064" lat="45.837040"><ele>2018.0</ele></trkpt>
   <trkpt lon="7.021148" lat="45.837117"><ele>2021.5</ele></trkpt>
   <trkpt lon="7.021154" lat="45.837243"><ele>2021.5</ele></trkpt>
   <trkpt lon="7.021038" lat="45.837493"><ele>2015.5</ele></trkpt>
   <trkpt lon="7.021083" lat="45.838084"><ele>2011.25</ele></trkpt>
   <trkpt lon="7.021078" lat="45.838382"><ele>2005.25</ele></trkpt>
   <trkpt lon="7.021264" lat="45.838921"><ele>1997.75</ele></trkpt>
   <trkpt lon="7.021438" lat="45.839153"><ele>1994.5</ele></trkpt>
   <trkpt lon="7.021414" lat="45.839294"><ele>1986.25</ele></trkpt>
   <trkpt lon="7.021652" lat="45.839681"><ele>1981.25</ele></trkpt>
   <trkpt lon="7.021766" lat="45.839773"><ele>1983.0</ele></trkpt>
   <trkpt lon="7.021838" lat="45.839879"><ele>1982.25</ele></trkpt>
   <trkpt lon="7.021952" lat="45.839976"><ele>1980.0</ele></trkpt>
   <trkpt lon="7.022176" lat="45.840201"><ele>1974.5</ele></trkpt>
   <trkpt lon="7.022384" lat="45.840331"><ele>1970.75</ele></trkpt>
   <trkpt lon="7.022612" lat="45.840539"><ele>1964.5</ele></trkpt>
   <trkpt lon="7.022843" lat="45.840677"><ele>1964.5</ele></trkpt>
   <trkpt lon="7.023067" lat="45.840867"><ele>1961.0</ele></trkpt>
   <trkpt lon="7.023234" lat="45.841028"><ele>1955.5</ele></trkpt>
   <trkpt lon="7.023378" lat="45.841137"><ele>1953.0</ele></trkpt>
   <trkpt lon="7.023587" lat="45.841250"><ele>1953.75</ele></trkpt>
   <trkpt lon="7.023784" lat="45.841441"><ele>1951.0</ele></trkpt>
   <trkpt lon="7.023875" lat="45.841573"><ele>1950.5</ele></trkpt>
   <trkpt lon="7.023917" lat="45.841702"><ele>1949.5</ele></trkpt>
   <trkpt lon="7.023925" lat="45.841789"><ele>1949.0</ele></trkpt>
   <trkpt lon="7.024027" lat="45.842030"><ele>1949.75</ele></trkpt>
   <trkpt lon="7.023997" lat="45.842146"><ele>1948.0</ele></trkpt>
   <trkpt lon="7.024031" lat="45.842339"><ele>1944.75</ele></trkpt>
   <trkpt lon="7.024145" lat="45.842469"><ele>1945.0</ele></trkpt>
   <trkpt lon="7.024281" lat="45.842561"><ele>1944.0</ele></trkpt>
   <trkpt lon="7.024395" lat="45.842603"><ele>1944.5</ele></trkpt>
   <trkpt lon="7.024581" lat="45.842727"><ele>1942.25</ele></trkpt>
   <trkpt lon="7.024615" lat="45.842817"><ele>1938.5</ele></trkpt>
   <trkpt lon="7.024750" lat="45.842908"><ele>1937.0</ele></trkpt>
   <trkpt lon="7.024899" lat="45.843149"><ele>1930.0</ele></trkpt>
   <trkpt lon="7.024944" lat="45.843377"><ele>1923.5</ele></trkpt>
   <trkpt lon="7.024909" lat="45.843463"><ele>1919.5</ele></trkpt>
   <trkpt lon="7.024998" lat="45.843650"><ele>1917.0</ele></trkpt>
   <trkpt lon="7.025226" lat="45.843786"><ele>1918.25</ele></trkpt>
   <trkpt lon="7.025328" lat="45.843714"><ele>1921.5</ele></trkpt>
   <trkpt lon="7.025536" lat="45.843598"><ele>1929.0</ele></trkpt>
   <trkpt lon="7.025689" lat="45.843786"><ele>1928.75</ele></trkpt>
   <trkpt lon="7.025856" lat="45.843975"><ele>1931.0</ele></trkpt>
   <trkpt lon="7.025914" lat="45.844239"><ele>1928.0</ele></trkpt>
   <trkpt lon="7.026053" lat="45.844456"><ele>1927.0</ele></trkpt>
   <trkpt lon="7.026349" lat="45.844614"><ele>1928.0</ele></trkpt>
   <trkpt lon="7.026497" lat="45.844701"><ele>1929.0</ele></trkpt>
   <trkpt lon="7.026732" lat="45.844865"><ele>1933.25</ele></trkpt>
   <trkpt lon="7.026842" lat="45.844960"><ele>1933.25</ele></trkpt>
   <trkpt lon="7.027039" lat="45.845050"><ele>1936.0</ele></trkpt>
   <trkpt lon="7.027088" lat="45.845167"><ele>1933.5</ele></trkpt>
   <trkpt lon="7.027303" lat="45.845316"><ele>1934.75</ele></trkpt>
   <trkpt lon="7.027431" lat="45.845451"><ele>1930.0</ele></trkpt>
   <trkpt lon="7.027675" lat="45.845461"><ele>1937.5</ele></trkpt>
   <trkpt lon="7.027720" lat="45.845651"><ele>1932.25</ele></trkpt>
   <trkpt lon="7.027832" lat="45.845743"><ele>1934.5</ele></trkpt>
   <trkpt lon="7.028075" lat="45.845848"><ele>1938.75</ele></trkpt>
   <trkpt lon="7.028223" lat="45.845980"><ele>1938.5</ele></trkpt>
   <trkpt lon="7.028502" lat="45.846156"><ele>1941.5</ele></trkpt>
   <trkpt lon="7.028587" lat="45.846210"><ele>1941.5</ele></trkpt>
   <trkpt lon="7.028609" lat="45.846337"><ele>1939.75</ele></trkpt>
   <trkpt lon="7.028795" lat="45.846475"><ele>1940.0</ele></trkpt>
   <trkpt lon="7.028856" lat="45.846567"><ele>1939.75</ele></trkpt>
   <trkpt lon="7.029248" lat="45.846810"><ele>1942.5</ele></trkpt>
   <trkpt lon="7.029471" lat="45.846905"><ele>1945.0</ele></trkpt>
   <trkpt lon="7.029592" lat="45.847037"><ele>1945.5</ele></trkpt>
   <trkpt lon="7.029739" lat="45.847123"><ele>1947.25</ele></trkpt>
   <trkpt lon="7.029850" lat="45.847233"><ele>1948.0</ele></trkpt>
   <trkpt lon="7.030172" lat="45.847380"><ele>1950.5</ele></trkpt>
   <trkpt lon="7.030214" lat="45.847436"><ele>1950.0</ele></trkpt>
   <trkpt lon="7.030344" lat="45.847487"><ele>1951.75</ele></trkpt>
   <trkpt lon="7.030438" lat="45.847550"><ele>1953.0</ele></trkpt>
   <trkpt lon="7.030425" lat="45.847590"><ele>1952.0</ele></trkpt>
   <trkpt lon="7.030466" lat="45.847692"><ele>1951.5</ele></trkpt>
   <trkpt lon="7.030688" lat="45.847834"><ele>1953.75</ele></trkpt>
   <trkpt lon="7.030849" lat="45.847892"><ele>1956.75</ele></trkpt>
   <trkpt lon="7.031130" lat="45.847931"><ele>1960.25</ele></trkpt>
   <trkpt lon="7.031246" lat="45.848002"><ele>1960.0</ele></trkpt>
   <trkpt lon="7.031336" lat="45.848077"><ele>1959.5</ele></trkpt>
   <trkpt lon="7.031487" lat="45.848150"><ele>1959.5</ele></trkpt>
   <trkpt lon="7.031528" lat="45.848182"><ele>1959.5</ele></trkpt>
   <trkpt lon="7.031619" lat="45.848208"><ele>1960.25</ele></trkpt>
   <trkpt lon="7.031720" lat="45.848219"><ele>1961.5</ele></trkpt>
   <trkpt lon="7.031713" lat="45.848309"><ele>1959.75</ele></trkpt>
   <trkpt lon="7.031724" lat="45.848337"><ele>1959.0</ele></trkpt>
   <trkpt lon="7.031768" lat="45.848359"><ele>1958.0</ele></trkpt>
   <trkpt lon="7.031805" lat="45.848357"><ele>1958.5</ele></trkpt>
   <trkpt lon="7.031836" lat="45.848377"><ele>1957.5</ele></trkpt>
   <trkpt lon="7.031937" lat="45.848389"><ele>1957.5</ele></trkpt>
   <trkpt lon="7.031976" lat="45.848405"><ele>1956.75</ele></trkpt>
   <trkpt lon="7.032001" lat="45.848428"><ele>1955.5</ele></trkpt>
   <trkpt lon="7.032038" lat="45.848432"><ele>1955.5</ele></trkpt>
   <trkpt lon="7.032132" lat="45.848483"><ele>1953.5</ele></trkpt>
   <trkpt lon="7.032212" lat="45.848511"><ele>1952.75</ele></trkpt>
   <trkpt lon="7.032272" lat="45.848542"><ele>1952.0</ele></trkpt>
   <trkpt lon="7.032270" lat="45.848567"><ele>1950.75</ele></trkpt>
   <trkpt lon="7.032295" lat="45.848602"><ele>1949.25</ele></trkpt>
   <trkpt lon="7.032328" lat="45.848623"><ele>1948.75</ele></trkpt>
   <trkpt lon="7.032345" lat="45.848661"><ele>1947.25</ele></trkpt>
   <trkpt lon="7.032391" lat="45.848702"><ele>1946.0</ele></trkpt>
   <trkpt lon="7.032507" lat="45.848769"><ele>1944.5</ele></trkpt>
   <trkpt lon="7.032599" lat="45.848807"><ele>1944.0</ele></trkpt>
   <trkpt lon="7.032640" lat="45.848839"><ele>1943.25</ele></trkpt>
   <trkpt lon="7.032653" lat="45.848865"><ele>1942.5</ele></trkpt>
   <trkpt lon="7.032637" lat="45.848911"><ele>1940.75</ele></trkpt>
   <trkpt lon="7.032636" lat="45.848965"><ele>1939.75</ele></trkpt>
   <trkpt lon="7.032605" lat="45.849027"><ele>1938.0</ele></trkpt>
   <trkpt lon="7.032534" lat="45.849091"><ele>1935.75</ele></trkpt>
   <trkpt lon="7.032456" lat="45.849133"><ele>1933.5</ele></trkpt>
   <trkpt lon="7.032422" lat="45.849182"><ele>1931.5</ele></trkpt>
   <trkpt lon="7.032415" lat="45.849221"><ele>1929.25</ele></trkpt>
   <trkpt lon="7.032344" lat="45.849257"><ele>1926.0</ele></trkpt>
   <trkpt lon="7.032247" lat="45.849236"><ele>1925.0</ele></trkpt>
   <trkpt lon="7.032173" lat="45.849205"><ele>1925.0</ele></trkpt>
   <trkpt lon="7.031904" lat="45.849185"><ele>1919.0</ele></trkpt>
   <trkpt lon="7.031646" lat="45.849124"><ele>1914.25</ele></trkpt>
   <trkpt lon="7.031667" lat="45.849183"><ele>1912.25</ele></trkpt>
   <trkpt lon="7.031690" lat="45.849293"><ele>1909.0</ele></trkpt>
   <trkpt lon="7.031735" lat="45.849388"><ele>1906.75</ele></trkpt>
   <trkpt lon="7.031797" lat="45.849493"><ele>1904.0</ele></trkpt>
   <trkpt lon="7.031861" lat="45.849542"><ele>1903.0</ele></trkpt>
   <trkpt lon="7.031878" lat="45.849583"><ele>1901.5</ele></trkpt>
   <trkpt lon="7.031833" lat="45.849608"><ele>1899.25</ele></trkpt>
   <trkpt lon="7.031750" lat="45.849602"><ele>1897.75</ele></trkpt>
   <trkpt lon="7.031432" lat="45.849492"><ele>1894.0</ele></trkpt>
   <trkpt lon="7.031353" lat="45.849479"><ele>1892.25</ele></trkpt>
   <trkpt lon="7.031257" lat="45.849483"><ele>1889.0</ele></trkpt>
   <trkpt lon="7.031265" lat="45.849599"><ele>1884.5</ele></trkpt>
   <trkpt lon="7.031296" lat="45.849680"><ele>1882.0</ele></trkpt>
   <trkpt lon="7.031299" lat="45.849759"><ele>1878.75</ele></trkpt>
   <trkpt lon="7.031233" lat="45.849825"><ele>1874.25</ele></trkpt>
   <trkpt lon="7.031117" lat="45.849864"><ele>1870.0</ele></trkpt>
   <trkpt lon="7.031015" lat="45.849835"><ele>1868.0</ele></trkpt>
   <trkpt lon="7.030903" lat="45.849789"><ele>1866.0</ele></trkpt>
   <trkpt lon="7.030934" lat="45.849874"><ele>1864.25</ele></trkpt>
   <trkpt lon="7.030766" lat="45.849983"><ele>1856.25</ele></trkpt>
   <trkpt lon="7.030445" lat="45.850086"><ele>1843.25</ele></trkpt>
   <trkpt lon="7.030280" lat="45.850096"><ele>1838.5</ele></trkpt>
   <trkpt lon="7.030157" lat="45.850078"><ele>1835.75</ele></trkpt>
   <trkpt lon="7.030262" lat="45.850192"><ele>1834.5</ele></trkpt>
   <trkpt lon="7.030245" lat="45.850221"><ele>1833.0</ele></trkpt>
   <trkpt lon="7.030174" lat="45.850223"><ele>1831.25</ele></trkpt>
   <trkpt lon="7.030129" lat="45.850187"><ele>1831.25</ele></trkpt>
   <trkpt lon="7.030099" lat="45.850141"><ele>1832.0</ele></trkpt>
   <trkpt lon="7.030012" lat="45.850128"><ele>1830.0</ele></trkpt>
   <trkpt lon="7.029989" lat="45.850158"><ele>1828.5</ele></trkpt>
   <trkpt lon="7.029996" lat="45.850201"><ele>1827.25</ele></trkpt>
   <trkpt lon="7.030062" lat="45.850277"><ele>1826.5</ele></trkpt>
   <trkpt lon="7.030102" lat="45.850345"><ele>1824.5</ele></trkpt>
   <trkpt lon="7.030115" lat="45.850450"><ele>1820.0</ele></trkpt>
   <trkpt lon="7.030154" lat="45.850539"><ele>1817.0</ele></trkpt>
   <trkpt lon="7.030150" lat="45.850569"><ele>1815.25</ele></trkpt>
   <trkpt lon="7.030087" lat="45.850566"><ele>1814.0</ele></trkpt>
   <trkpt lon="7.029926" lat="45.850522"><ele>1811.5</ele></trkpt>
   <trkpt lon="7.029748" lat="45.850488"><ele>1806.25</ele></trkpt>
   <trkpt lon="7.029558" lat="45.850423"><ele>1801.75</ele></trkpt>
   <trkpt lon="7.029410" lat="45.850343"><ele>1799.25</ele></trkpt>
   <trkpt lon="7.029293" lat="45.850268"><ele>1797.25</ele></trkpt>
   <trkpt lon="7.029232" lat="45.850253"><ele>1795.5</ele></trkpt>
   <trkpt lon="7.029185" lat="45.850282"><ele>1791.5</ele></trkpt>
   <trkpt lon="7.029214" lat="45.850414"><ele>1787.0</ele></trkpt>
   <trkpt lon="7.029481" lat="45.850859"><ele>1779.25</ele></trkpt>
   <trkpt lon="7.029591" lat="45.850946"><ele>1776.25</ele></trkpt>
   <trkpt lon="7.029844" lat="45.851027"><ele>1775.75</ele></trkpt>
   <trkpt lon="7.029967" lat="45.851086"><ele>1773.5</ele></trkpt>
   <trkpt lon="7.030100" lat="45.851177"><ele>1774.25</ele></trkpt>
   <trkpt lon="7.030107" lat="45.851226"><ele>1773.75</ele></trkpt>
   <trkpt lon="7.030081" lat="45.851351"><ele>1771.0</ele></trkpt>
   <trkpt lon="7.030173" lat="45.851516"><ele>1770.0</ele></trkpt>
   <trkpt lon="7.030175" lat="45.851552"><ele>1769.0</ele></trkpt>
   <trkpt lon="7.030155" lat="45.851577"><ele>1767.75</ele></trkpt>
   <trkpt lon="7.030128" lat="45.851573"><ele>1767.0</ele></trkpt>
   <trkpt lon="7.030086" lat="45.851553"><ele>1766.25</ele></trkpt>
   <trkpt lon="7.030048" lat="45.851519"><ele>1766.0</ele></trkpt>
   <trkpt lon="7.029991" lat="45.851502"><ele>1764.75</ele></trkpt>
   <trkpt lon="7.029949" lat="45.851513"><ele>1763.0</ele></trkpt>
   <trkpt lon="7.029938" lat="45.851544"><ele>1762.0</ele></trkpt>
   <trkpt lon="7.029965" lat="45.851698"><ele>1758.0</ele></trkpt>
   <trkpt lon="7.029910" lat="45.851703"><ele>1756.5</ele></trkpt>
   <trkpt lon="7.029823" lat="45.851656"><ele>1756.5</ele></trkpt>
   <trkpt lon="7.029671" lat="45.851597"><ele>1753.25</ele></trkpt>
   <trkpt lon="7.029615" lat="45.851602"><ele>1751.75</ele></trkpt>
   <trkpt lon="7.029592" lat="45.851623"><ele>1751.0</ele></trkpt>
   <trkpt lon="7.029575" lat="45.851679"><ele>1749.5</ele></trkpt>
   <trkpt lon="7.029547" lat="45.851699"><ele>1747.75</ele></trkpt>
   <trkpt lon="7.029497" lat="45.851687"><ele>1747.25</ele></trkpt>
   <trkpt lon="7.029383" lat="45.851607"><ele>1745.5</ele></trkpt>
   <trkpt lon="7.029318" lat="45.851628"><ele>1744.0</ele></trkpt>
   <trkpt lon="7.029292" lat="45.851668"><ele>1743.0</ele></trkpt>
   <trkpt lon="7.029312" lat="45.851735"><ele>1740.25</ele></trkpt>
   <trkpt lon="7.029399" lat="45.851833"><ele>1737.5</ele></trkpt>
   <trkpt lon="7.029378" lat="45.851882"><ele>1734.5</ele></trkpt>
   <trkpt lon="7.029246" lat="45.851902"><ele>1730.5</ele></trkpt>
   <trkpt lon="7.028849" lat="45.851930"><ele>1724.25</ele></trkpt>
   <trkpt lon="7.028687" lat="45.851960"><ele>1723.25</ele></trkpt>
   <trkpt lon="7.028632" lat="45.851984"><ele>1722.75</ele></trkpt>
   <trkpt lon="7.028614" lat="45.852017"><ele>1721.75</ele></trkpt>
   <trkpt lon="7.028620" lat="45.852039"><ele>1721.0</ele></trkpt>
   <trkpt lon="7.028627" lat="45.852063"><ele>1720.25</ele></trkpt>
   <trkpt lon="7.028651" lat="45.852096"><ele>1719.25</ele></trkpt>
   <trkpt lon="7.028800" lat="45.852143"><ele>1716.25</ele></trkpt>
   <trkpt lon="7.029021" lat="45.852182"><ele>1714.75</ele></trkpt>
   <trkpt lon="7.029115" lat="45.852232"><ele>1713.25</ele></trkpt>
   <trkpt lon="7.029156" lat="45.852273"><ele>1713.0</ele></trkpt>
   <trkpt lon="7.029174" lat="45.852333"><ele>1712.0</ele></trkpt>
   <trkpt lon="7.029116" lat="45.852401"><ele>1710.25</ele></trkpt>
   <trkpt lon="7.028920" lat="45.852494"><ele>1707.25</ele></trkpt>
   <trkpt lon="7.028737" lat="45.852533"><ele>1704.75</ele></trkpt>
   <trkpt lon="7.028586" lat="45.852634"><ele>1702.0</ele></trkpt>
   <trkpt lon="7.028508" lat="45.852765"><ele>1699.75</ele></trkpt>
   <trkpt lon="7.028276" lat="45.852895"><ele>1697.5</ele></trkpt>
   <trkpt lon="7.028206" lat="45.853063"><ele>1694.75</ele></trkpt>
   <trkpt lon="7.028092" lat="45.853197"><ele>1693.5</ele></trkpt>
   <trkpt lon="7.027887" lat="45.853312"><ele>1692.75</ele></trkpt>
   <trkpt lon="7.027839" lat="45.853358"><ele>1692.25</ele></trkpt>
   <trkpt lon="7.027825" lat="45.853398"><ele>1691.5</ele></trkpt>
   <trkpt lon="7.027885" lat="45.853395"><ele>1691.5</ele></trkpt>
   <trkpt lon="7.027986" lat="45.853391"><ele>1691.5</ele></trkpt>
   <trkpt lon="7.028967" lat="45.853346"><ele>1693.75</ele></trkpt>
   <trkpt lon="7.029202" lat="45.853354"><ele>1694.0</ele></trkpt>
   <trkpt lon="7.029277" lat="45.853369"><ele>1694.5</ele></trkpt>
   <trkpt lon="7.029320" lat="45.853394"><ele>1694.5</ele></trkpt>
   <trkpt lon="7.029574" lat="45.853589"><ele>1697.25</ele></trkpt>
   <trkpt lon="7.029832" lat="45.853809"><ele>1698.5</ele></trkpt>
   <trkpt lon="7.030483" lat="45.854289"><ele>1705.0</ele></trkpt>
   <trkpt lon="7.030605" lat="45.854418"><ele>1706.5</ele></trkpt>
   <trkpt lon="7.030876" lat="45.854836"><ele>1707.5</ele></trkpt>
   <trkpt lon="7.030928" lat="45.854897"><ele>1707.25</ele></trkpt>
   <trkpt lon="7.031321" lat="45.855231"><ele>1712.5</ele></trkpt>
   <trkpt lon="7.031805" lat="45.855783"><ele>1715.75</ele></trkpt>
   <trkpt lon="7.032446" lat="45.856317"><ele>1719.0</ele></trkpt>
   <trkpt lon="7.033079" lat="45.856786"><ele>1722.75</ele></trkpt>
   <trkpt lon="7.033148" lat="45.856858"><ele>1723.5</ele></trkpt>
   <trkpt lon="7.033572" lat="45.857436"><ele>1725.75</ele></trkpt>
   <trkpt lon="7.033738" lat="45.857749"><ele>1727.75</ele></trkpt>
   <trkpt lon="7.034073" lat="45.858246"><ele>1729.75</ele></trkpt>
   <trkpt lon="7.034151" lat="45.858535"><ele>1730.0</ele></trkpt>
   <trkpt lon="7.034179" lat="45.858582"><ele>1730.0</ele></trkpt>
   <trkpt lon="7.034228" lat="45.858622"><ele>1729.75</ele></trkpt>
   <trkpt lon="7.034299" lat="45.858665"><ele>1729.75</ele></trkpt>
   <trkpt lon="7.034895" lat="45.858976"><ele>1729.75</ele></trkpt>
   <trkpt lon="7.035077" lat="45.859118"><ele>1730.0</ele></trkpt>
   <trkpt lon="7.035227" lat="45.859337"><ele>1730.0</ele></trkpt>
   <trkpt lon="7.035356" lat="45.859717"><ele>1730.75</ele></trkpt>
   <trkpt lon="7.035431" lat="45.859887"><ele>1730.5</ele></trkpt>
   <trkpt lon="7.035508" lat="45.860027"><ele>1730.75</ele></trkpt>
   <trkpt lon="7.035595" lat="45.860147"><ele>1731.0</ele></trkpt>
   <trkpt lon="7.035785" lat="45.860311"><ele>1731.0</ele></trkpt>
   <trkpt lon="7.036058" lat="45.860510"><ele>1731.75</ele></trkpt>
   <trkpt lon="7.036266" lat="45.860698"><ele>1732.0</ele></trkpt>
   <trkpt lon="7.036591" lat="45.861170"><ele>1733.0</ele></trkpt>
   <trkpt lon="7.036991" lat="45.861545"><ele>1734.5</ele></trkpt>
   <trkpt lon="7.037228" lat="45.861887"><ele>1735.0</ele></trkpt>
   <trkpt lon="7.037550" lat="45.862668"><ele>1739.5</ele></trkpt>
   <trkpt lon="7.037587" lat="45.862706"><ele>1739.75</ele></trkpt>
   <trkpt lon="7.037634" lat="45.862735"><ele>1739.75</ele></trkpt>
   <trkpt lon="7.037746" lat="45.862778"><ele>1740.0</ele></trkpt>
   <trkpt lon="7.037933" lat="45.862827"><ele>1741.0</ele></trkpt>
   <trkpt lon="7.038023" lat="45.862870"><ele>1742.0</ele></trkpt>
   <trkpt lon="7.038260" lat="45.863037"><ele>1744.0</ele></trkpt>
   <trkpt lon="7.038360" lat="45.863133"><ele>1744.25</ele></trkpt>
   <trkpt lon="7.038617" lat="45.863489"><ele>1745.0</ele></trkpt>
   <trkpt lon="7.038743" lat="45.863584"><ele>1745.5</ele></trkpt>
   <trkpt lon="7.038828" lat="45.863628"><ele>1745.75</ele></trkpt>
   <trkpt lon="7.038953" lat="45.863677"><ele>1746.25</ele></trkpt>
   <trkpt lon="7.039085" lat="45.863713"><ele>1746.5</ele></trkpt>
   <trkpt lon="7.039211" lat="45.863735"><ele>1746.75</ele></trkpt>
   <trkpt lon="7.039327" lat="45.863745"><ele>1746.75</ele></trkpt>
   <trkpt lon="7.039534" lat="45.863709"><ele>1747.0</ele></trkpt>
   <trkpt lon="7.039744" lat="45.863649"><ele>1747.0</ele></trkpt>
   <trkpt lon="7.040026" lat="45.863625"><ele>1747.0</ele></trkpt>
   <trkpt lon="7.040241" lat="45.863625"><ele>1747.0</ele></trkpt>
   <trkpt lon="7.040425" lat="45.863649"><ele>1747.75</ele></trkpt>
   <trkpt lon="7.040574" lat="45.863694"><ele>1748.75</ele></trkpt>
   <trkpt lon="7.041331" lat="45.864035"><ele>1754.0</ele></trkpt>
   <trkpt lon="7.041864" lat="45.864224"><ele>1754.5</ele></trkpt>
   <trkpt lon="7.042372" lat="45.864357"><ele>1755.25</ele></trkpt>
   <trkpt lon="7.042538" lat="45.864441"><ele>1755.75</ele></trkpt>
   <trkpt lon="7.042632" lat="45.864504"><ele>1756.25</ele></trkpt>
   <trkpt lon="7.042785" lat="45.864723"><ele>1757.0</ele></trkpt>
   <trkpt lon="7.042899" lat="45.864814"><ele>1757.25</ele></trkpt>
   <trkpt lon="7.043202" lat="45.864980"><ele>1757.25</ele></trkpt>
   <trkpt lon="7.043307" lat="45.865079"><ele>1757.0</ele></trkpt>
   <trkpt lon="7.043380" lat="45.865188"><ele>1756.75</ele></trkpt>
   <trkpt lon="7.043526" lat="45.865354"><ele>1756.5</ele></trkpt>
   <trkpt lon="7.043863" lat="45.865641"><ele>1757.25</ele></trkpt>
   <trkpt lon="7.044059" lat="45.865852"><ele>1757.25</ele></trkpt>
   <trkpt lon="7.044197" lat="45.866025"><ele>1757.5</ele></trkpt>
   <trkpt lon="7.044363" lat="45.866271"><ele>1757.5</ele></trkpt>
   <trkpt lon="7.044677" lat="45.866546"><ele>1757.5</ele></trkpt>
   <trkpt lon="7.044802" lat="45.866813"><ele>1757.5</ele></trkpt>
   <trkpt lon="7.045164" lat="45.867330"><ele>1757.5</ele></trkpt>
   <trkpt lon="7.045401" lat="45.867702"><ele>1758.75</ele></trkpt>
   <trkpt lon="7.045452" lat="45.867769"><ele>1758.75</ele></trkpt>
   <trkpt lon="7.045489" lat="45.867803"><ele>1758.75</ele></trkpt>
   <trkpt lon="7.045584" lat="45.867862"><ele>1759.0</ele></trkpt>
   <trkpt lon="7.045745" lat="45.867945"><ele>1759.25</ele></trkpt>
   <trkpt lon="7.047175" lat="45.868563"><ele>1760.75</ele></trkpt>
   <trkpt lon="7.047751" lat="45.868752"><ele>1762.0</ele></trkpt>
   <trkpt lon="7.047871" lat="45.868793"><ele>1762.0</ele></trkpt>
   <trkpt lon="7.048346" lat="45.869073"><ele>1763.0</ele></trkpt>
   <trkpt lon="7.048524" lat="45.869197"><ele>1763.5</ele></trkpt>
   <trkpt lon="7.048638" lat="45.869155"><ele>1764.0</ele></trkpt>
   <trkpt lon="7.048696" lat="45.869144"><ele>1764.0</ele></trkpt>
   <trkpt lon="7.049040" lat="45.869170"><ele>1765.5</ele></trkpt>
   <trkpt lon="7.049199" lat="45.869168"><ele>1766.0</ele></trkpt>
   <trkpt lon="7.049411" lat="45.869138"><ele>1766.75</ele></trkpt>
   <trkpt lon="7.049578" lat="45.869074"><ele>1767.75</ele></trkpt>
   <trkpt lon="7.049645" lat="45.869074"><ele>1768.25</ele></trkpt>
   <trkpt lon="7.049797" lat="45.869141"><ele>1768.5</ele></trkpt>
   <trkpt lon="7.049846" lat="45.869141"><ele>1769.0</ele></trkpt>
   <trkpt lon="7.049893" lat="45.869122"><ele>1769.5</ele></trkpt>
   <trkpt lon="7.049966" lat="45.869078"><ele>1770.25</ele></trkpt>
   <trkpt lon="7.050070" lat="45.869059"><ele>1771.0</ele></trkpt>
   <trkpt lon="7.050308" lat="45.868968"><ele>1773.0</ele></trkpt>
   <trkpt lon="7.050377" lat="45.868929"><ele>1773.5</ele></trkpt>
   <trkpt lon="7.050469" lat="45.868929"><ele>1773.5</ele></trkpt>
   <trkpt lon="7.050603" lat="45.868860"><ele>1774.75</ele></trkpt>
   <trkpt lon="7.050656" lat="45.868858"><ele>1775.5</ele></trkpt>
   <trkpt lon="7.050695" lat="45.868866"><ele>1776.0</ele></trkpt>
   <trkpt lon="7.050710" lat="45.868857"><ele>1776.25</ele></trkpt>
   <trkpt lon="7.050626" lat="45.868926"><ele>1774.25</ele></trkpt>
   <trkpt lon="7.050597" lat="45.868995"><ele>1773.0</ele></trkpt>
   <trkpt lon="7.050604" lat="45.869028"><ele>1772.75</ele></trkpt>
   <trkpt lon="7.050585" lat="45.869099"><ele>1771.75</ele></trkpt>
   <trkpt lon="7.050631" lat="45.869172"><ele>1770.75</ele></trkpt>
   <trkpt lon="7.050749" lat="45.869284"><ele>1770.0</ele></trkpt>
   <trkpt lon="7.050851" lat="45.869337"><ele>1769.75</ele></trkpt>
   <trkpt lon="7.050931" lat="45.869391"><ele>1769.25</ele></trkpt>
   <trkpt lon="7.051106" lat="45.869540"><ele>1767.5</ele></trkpt>
   <trkpt lon="7.051189" lat="45.869594"><ele>1768.0</ele></trkpt>
   <trkpt lon="7.051225" lat="45.869669"><ele>1767.75</ele></trkpt>
   <trkpt lon="7.051293" lat="45.869734"><ele>1767.5</ele></trkpt>
   <trkpt lon="7.051465" lat="45.869866"><ele>1768.25</ele></trkpt>
   <trkpt lon="7.051642" lat="45.869969"><ele>1768.25</ele></trkpt>
   <trkpt lon="7.051741" lat="45.870045"><ele>1768.0</ele></trkpt>
   <trkpt lon="7.051767" lat="45.870088"><ele>1768.0</ele></trkpt>
   <trkpt lon="7.051829" lat="45.870218"><ele>1768.0</ele></trkpt>
   <trkpt lon="7.052020" lat="45.870405"><ele>1768.0</ele></trkpt>
   <trkpt lon="7.052232" lat="45.870556"><ele>1768.0</ele></trkpt>
   <trkpt lon="7.052294" lat="45.870589"><ele>1768.25</ele></trkpt>
   <trkpt lon="7.052470" lat="45.870653"><ele>1768.75</ele></trkpt>
   <trkpt lon="7.052537" lat="45.870688"><ele>1769.0</ele></trkpt>
   <trkpt lon="7.052594" lat="45.870748"><ele>1769.0</ele></trkpt>
   <trkpt lon="7.052631" lat="45.870830"><ele>1769.0</ele></trkpt>
   <trkpt lon="7.052632" lat="45.870947"><ele>1769.25</ele></trkpt>
   <trkpt lon="7.052593" lat="45.871187"><ele>1770.0</ele></trkpt>
   <trkpt lon="7.052592" lat="45.871313"><ele>1770.0</ele></trkpt>
   <trkpt lon="7.052694" lat="45.871311"><ele>1770.5</ele></trkpt>
   <trkpt lon="7.053078" lat="45.871330"><ele>1770.75</ele></trkpt>
   <trkpt lon="7.053304" lat="45.871328"><ele>1771.75</ele></trkpt>
   <trkpt lon="7.053425" lat="45.871355"><ele>1772.0</ele></trkpt>
   <trkpt lon="7.053515" lat="45.871422"><ele>1772.0</ele></trkpt>
   <trkpt lon="7.053748" lat="45.871553"><ele>1772.75</ele></trkpt>
   <trkpt lon="7.053790" lat="45.871600"><ele>1772.75</ele></trkpt>
   <trkpt lon="7.053797" lat="45.871635"><ele>1772.75</ele></trkpt>
   <trkpt lon="7.053818" lat="45.871659"><ele>1772.75</ele></trkpt>
   <trkpt lon="7.053862" lat="45.871711"><ele>1772.75</ele></trkpt>
   <trkpt lon="7.053975" lat="45.871760"><ele>1773.75</ele></trkpt>
   <trkpt lon="7.054134" lat="45.871878"><ele>1773.75</ele></trkpt>
   <trkpt lon="7.054293" lat="45.871920"><ele>1774.5</ele></trkpt>
   <trkpt lon="7.054377" lat="45.871981"><ele>1774.25</ele></trkpt>
   <trkpt lon="7.054471" lat="45.872033"><ele>1774.5</ele></trkpt>
   <trkpt lon="7.054632" lat="45.872082"><ele>1774.5</ele></trkpt>
   <trkpt lon="7.054700" lat="45.872148"><ele>1774.25</ele></trkpt>
   <trkpt lon="7.054741" lat="45.872190"><ele>1774.0</ele></trkpt>
   <trkpt lon="7.054763" lat="45.872257"><ele>1774.0</ele></trkpt>
   <trkpt lon="7.054756" lat="45.872293"><ele>1774.25</ele></trkpt>
   <trkpt lon="7.054824" lat="45.872326"><ele>1774.75</ele></trkpt>
   <trkpt lon="7.054898" lat="45.872341"><ele>1775.5</ele></trkpt>
   <trkpt lon="7.054872" lat="45.872393"><ele>1775.75</ele></trkpt>
   <trkpt lon="7.054877" lat="45.872432"><ele>1776.25</ele></trkpt>
   <trkpt lon="7.054955" lat="45.872482"><ele>1778.0</ele></trkpt>
   <trkpt lon="7.054997" lat="45.872564"><ele>1778.5</ele></trkpt>
   <trkpt lon="7.055101" lat="45.872645"><ele>1780.5</ele></trkpt>
   <trkpt lon="7.055128" lat="45.872649"><ele>1781.0</ele></trkpt>
   <trkpt lon="7.055178" lat="45.872684"><ele>1782.25</ele></trkpt>
   <trkpt lon="7.055373" lat="45.872765"><ele>1787.75</ele></trkpt>
   <trkpt lon="7.055458" lat="45.872839"><ele>1790.25</ele></trkpt>
   <trkpt lon="7.055521" lat="45.872912"><ele>1792.25</ele></trkpt>
   <trkpt lon="7.055546" lat="45.872961"><ele>1792.75</ele></trkpt>
   <trkpt lon="7.055563" lat="45.872961"><ele>1793.5</ele></trkpt>
   <trkpt lon="7.055641" lat="45.872825"><ele>1795.75</ele></trkpt>
   <trkpt lon="7.055661" lat="45.872817"><ele>1796.25</ele></trkpt>
   <trkpt lon="7.055712" lat="45.872846"><ele>1797.5</ele></trkpt>
   <trkpt lon="7.056095" lat="45.872862"><ele>1804.5</ele></trkpt>
   <trkpt lon="7.056224" lat="45.872820"><ele>1802.25</ele></trkpt>
   <trkpt lon="7.056369" lat="45.872930"><ele>1805.25</ele></trkpt>
   <trkpt lon="7.056625" lat="45.873067"><ele>1816.25</ele></trkpt>
   <trkpt lon="7.056665" lat="45.873119"><ele>1818.25</ele></trkpt>
   <trkpt lon="7.056690" lat="45.873155"><ele>1819.5</ele></trkpt>
   <trkpt lon="7.056754" lat="45.873188"><ele>1821.75</ele></trkpt>
   <trkpt lon="7.056764" lat="45.873217"><ele>1822.75</ele></trkpt>
   <trkpt lon="7.056767" lat="45.873264"><ele>1823.75</ele></trkpt>
   <trkpt lon="7.056734" lat="45.873361"><ele>1825.0</ele></trkpt>
   <trkpt lon="7.056743" lat="45.873409"><ele>1826.0</ele></trkpt>
   <trkpt lon="7.056764" lat="45.873445"><ele>1827.25</ele></trkpt>
   <trkpt lon="7.056757" lat="45.873499"><ele>1828.0</ele></trkpt>
   <trkpt lon="7.056793" lat="45.873522"><ele>1829.75</ele></trkpt>
   <trkpt lon="7.056850" lat="45.873471"><ele>1830.5</ele></trkpt>
   <trkpt lon="7.056901" lat="45.873478"><ele>1832.25</ele></trkpt>
   <trkpt lon="7.056936" lat="45.873529"><ele>1834.5</ele></trkpt>
   <trkpt lon="7.057008" lat="45.873560"><ele>1837.5</ele></trkpt>
   <trkpt lon="7.057068" lat="45.873749"><ele>1843.5</ele></trkpt>
   <trkpt lon="7.057105" lat="45.873783"><ele>1845.25</ele></trkpt>
   <trkpt lon="7.057219" lat="45.873798"><ele>1848.75</ele></trkpt>
   <trkpt lon="7.057226" lat="45.873877"><ele>1850.75</ele></trkpt>
   <trkpt lon="7.057242" lat="45.873923"><ele>1852.25</ele></trkpt>
   <trkpt lon="7.057234" lat="45.873975"><ele>1853.5</ele></trkpt>
   <trkpt lon="7.057188" lat="45.873999"><ele>1852.5</ele></trkpt>
   <trkpt lon="7.057153" lat="45.874036"><ele>1852.25</ele></trkpt>
   <trkpt lon="7.057151" lat="45.874183"><ele>1855.25</ele></trkpt>
   <trkpt lon="7.057259" lat="45.874267"><ele>1859.25</ele></trkpt>
   <trkpt lon="7.057266" lat="45.874294"><ele>1859.5</ele></trkpt>
   <trkpt lon="7.057352" lat="45.874359"><ele>1862.0</ele></trkpt>
   <trkpt lon="7.057377" lat="45.874411"><ele>1862.75</ele></trkpt>
   <trkpt lon="7.057461" lat="45.874508"><ele>1864.25</ele></trkpt>
   <trkpt lon="7.057526" lat="45.874567"><ele>1866.0</ele></trkpt>
   <trkpt lon="7.057557" lat="45.874595"><ele>1867.0</ele></trkpt>
   <trkpt lon="7.057626" lat="45.874691"><ele>1868.25</ele></trkpt>
   <trkpt lon="7.057725" lat="45.874758"><ele>1870.75</ele></trkpt>
   <trkpt lon="7.057791" lat="45.874836"><ele>1872.25</ele></trkpt>
   <trkpt lon="7.057841" lat="45.874878"><ele>1873.75</ele></trkpt>
   <trkpt lon="7.057897" lat="45.874886"><ele>1875.75</ele></trkpt>
   <trkpt lon="7.058014" lat="45.874849"><ele>1880.75</ele></trkpt>
   <trkpt lon="7.058213" lat="45.874898"><ele>1886.0</ele></trkpt>
   <trkpt lon="7.058226" lat="45.874871"><ele>1886.5</ele></trkpt>
   <trkpt lon="7.058220" lat="45.874849"><ele>1886.75</ele></trkpt>
   <trkpt lon="7.058231" lat="45.874837"><ele>1887.0</ele></trkpt>
   <trkpt lon="7.058257" lat="45.874836"><ele>1887.75</ele></trkpt>
   <trkpt lon="7.058377" lat="45.874897"><ele>1890.25</ele></trkpt>
   <trkpt lon="7.058500" lat="45.874999"><ele>1892.75</ele></trkpt>
   <trkpt lon="7.058525" lat="45.875064"><ele>1893.5</ele></trkpt>
   <trkpt lon="7.058567" lat="45.875126"><ele>1894.25</ele></trkpt>
   <trkpt lon="7.058607" lat="45.875167"><ele>1895.25</ele></trkpt>
   <trkpt lon="7.058636" lat="45.875185"><ele>1895.75</ele></trkpt>
   <trkpt lon="7.058637" lat="45.875209"><ele>1895.75</ele></trkpt>
   <trkpt lon="7.058666" lat="45.875232"><ele>1896.5</ele></trkpt>
   <trkpt lon="7.058670" lat="45.875275"><ele>1896.25</ele></trkpt>
   <trkpt lon="7.058716" lat="45.875294"><ele>1897.75</ele></trkpt>
   <trkpt lon="7.058726" lat="45.875312"><ele>1898.5</ele></trkpt>
   <trkpt lon="7.058709" lat="45.875389"><ele>1899.75</ele></trkpt>
   <trkpt lon="7.058692" lat="45.875397"><ele>1899.5</ele></trkpt>
   <trkpt lon="7.058710" lat="45.875478"><ele>1901.75</ele></trkpt>
   <trkpt lon="7.058697" lat="45.875607"><ele>1906.25</ele></trkpt>
   <trkpt lon="7.058732" lat="45.875625"><ele>1908.0</ele></trkpt>
   <trkpt lon="7.058764" lat="45.875620"><ele>1908.25</ele></trkpt>
   <trkpt lon="7.058774" lat="45.875650"><ele>1910.25</ele></trkpt>
   <trkpt lon="7.058755" lat="45.875671"><ele>1911.0</ele></trkpt>
   <trkpt lon="7.058773" lat="45.875693"><ele>1912.5</ele></trkpt>
   <trkpt lon="7.058889" lat="45.875761"><ele>1916.75</ele></trkpt>
   <trkpt lon="7.059094" lat="45.875839"><ele>1919.5</ele></trkpt>
   <trkpt lon="7.059135" lat="45.875868"><ele>1920.75</ele></trkpt>
   <trkpt lon="7.059141" lat="45.875893"><ele>1922.0</ele></trkpt>
   <trkpt lon="7.059155" lat="45.875904"><ele>1922.75</ele></trkpt>
   <trkpt lon="7.059199" lat="45.875915"><ele>1924.0</ele></trkpt>
   <trkpt lon="7.059328" lat="45.875906"><ele>1926.5</ele></trkpt>
   <trkpt lon="7.059329" lat="45.875940"><ele>1927.75</ele></trkpt>
   <trkpt lon="7.059371" lat="45.875963"><ele>1929.0</ele></trkpt>
   <trkpt lon="7.059389" lat="45.875991"><ele>1930.0</ele></trkpt>
   <trkpt lon="7.059384" lat="45.876020"><ele>1930.75</ele></trkpt>
   <trkpt lon="7.059412" lat="45.876047"><ele>1931.5</ele></trkpt>
   <trkpt lon="7.059416" lat="45.876081"><ele>1932.25</ele></trkpt>
   <trkpt lon="7.059454" lat="45.876117"><ele>1933.25</ele></trkpt>
   <trkpt lon="7.059482" lat="45.876158"><ele>1934.25</ele></trkpt>
   <trkpt lon="7.059543" lat="45.876203"><ele>1935.5</ele></trkpt>
   <trkpt lon="7.059569" lat="45.876282"><ele>1936.5</ele></trkpt>
   <trkpt lon="7.059605" lat="45.876322"><ele>1937.0</ele></trkpt>
   <trkpt lon="7.059696" lat="45.876410"><ele>1937.75</ele></trkpt>
   <trkpt lon="7.059810" lat="45.876496"><ele>1938.75</ele></trkpt>
   <trkpt lon="7.059887" lat="45.876527"><ele>1939.25</ele></trkpt>
   <trkpt lon="7.059925" lat="45.876550"><ele>1939.75</ele></trkpt>
   <trkpt lon="7.059954" lat="45.876589"><ele>1939.75</ele></trkpt>
   <trkpt lon="7.059991" lat="45.876621"><ele>1940.0</ele></trkpt>
   <trkpt lon="7.060054" lat="45.876660"><ele>1941.5</ele></trkpt>
   <trkpt lon="7.060103" lat="45.876680"><ele>1942.75</ele></trkpt>
   <trkpt lon="7.060275" lat="45.876759"><ele>1947.25</ele></trkpt>
   <trkpt lon="7.060339" lat="45.876871"><ele>1948.5</ele></trkpt>
   <trkpt lon="7.060500" lat="45.876964"><ele>1952.5</ele></trkpt>
   <trkpt lon="7.060698" lat="45.877103"><ele>1954.5</ele></trkpt>
   <trkpt lon="7.060820" lat="45.877120"><ele>1957.5</ele></trkpt>
   <trkpt lon="7.060929" lat="45.877201"><ele>1958.25</ele></trkpt>
   <trkpt lon="7.061115" lat="45.877259"><ele>1962.25</ele></trkpt>
   <trkpt lon="7.061198" lat="45.877303"><ele>1964.5</ele></trkpt>
   <trkpt lon="7.061275" lat="45.877424"><ele>1965.0</ele></trkpt>
   <trkpt lon="7.061377" lat="45.877508"><ele>1967.25</ele></trkpt>
   <trkpt lon="7.061569" lat="45.877553"><ele>1971.0</ele></trkpt>
   <trkpt lon="7.061755" lat="45.877723"><ele>1972.5</ele></trkpt>
   <trkpt lon="7.061896" lat="45.877816"><ele>1974.25</ele></trkpt>
   <trkpt lon="7.062030" lat="45.877834"><ele>1978.0</ele></trkpt>
   <trkpt lon="7.062171" lat="45.877812"><ele>1984.25</ele></trkpt>
   <trkpt lon="7.062255" lat="45.877763"><ele>1989.75</ele></trkpt>
   <trkpt lon="7.062229" lat="45.877491"><ele>2000.5</ele></trkpt>
   <trkpt lon="7.062280" lat="45.877290"><ele>2008.5</ele></trkpt>
   <trkpt lon="7.062357" lat="45.877187"><ele>2014.75</ele></trkpt>
   <trkpt lon="7.062280" lat="45.877071"><ele>2017.5</ele></trkpt>
   <trkpt lon="7.062263" lat="45.876976"><ele>2025.0</ele></trkpt>
   <trkpt lon="7.062280" lat="45.877071"><ele>2017.5</ele></trkpt>
   <trkpt lon="7.062357" lat="45.877187"><ele>2014.75</ele></trkpt>
   <trkpt lon="7.062280" lat="45.877290"><ele>2008.5</ele></trkpt>
   <trkpt lon="7.062229" lat="45.877491"><ele>2000.5</ele></trkpt>
   <trkpt lon="7.062255" lat="45.877763"><ele>1989.75</ele></trkpt>
   <trkpt lon="7.062171" lat="45.877812"><ele>1984.25</ele></trkpt>
   <trkpt lon="7.062030" lat="45.877834"><ele>1978.0</ele></trkpt>
   <trkpt lon="7.061896" lat="45.877816"><ele>1974.25</ele></trkpt>
   <trkpt lon="7.061755" lat="45.877723"><ele>1972.5</ele></trkpt>
   <trkpt lon="7.061569" lat="45.877553"><ele>1971.0</ele></trkpt>
   <trkpt lon="7.061377" lat="45.877508"><ele>1967.25</ele></trkpt>
   <trkpt lon="7.061275" lat="45.877424"><ele>1965.0</ele></trkpt>
   <trkpt lon="7.061198" lat="45.877303"><ele>1964.5</ele></trkpt>
   <trkpt lon="7.061115" lat="45.877259"><ele>1962.25</ele></trkpt>
   <trkpt lon="7.060929" lat="45.877201"><ele>1958.25</ele></trkpt>
   <trkpt lon="7.060820" lat="45.877120"><ele>1957.5</ele></trkpt>
   <trkpt lon="7.060698" lat="45.877103"><ele>1954.5</ele></trkpt>
   <trkpt lon="7.060500" lat="45.876964"><ele>1952.5</ele></trkpt>
   <trkpt lon="7.060339" lat="45.876871"><ele>1948.5</ele></trkpt>
   <trkpt lon="7.060275" lat="45.876759"><ele>1947.25</ele></trkpt>
   <trkpt lon="7.060103" lat="45.876680"><ele>1942.75</ele></trkpt>
   <trkpt lon="7.060253" lat="45.876909"><ele>1945.5</ele></trkpt>
   <trkpt lon="7.060291" lat="45.876933"><ele>1946.5</ele></trkpt>
   <trkpt lon="7.060337" lat="45.877025"><ele>1946.0</ele></trkpt>
   <trkpt lon="7.060359" lat="45.877040"><ele>1946.25</ele></trkpt>
   <trkpt lon="7.060402" lat="45.877099"><ele>1946.0</ele></trkpt>
   <trkpt lon="7.060449" lat="45.877132"><ele>1946.5</ele></trkpt>
   <trkpt lon="7.060505" lat="45.877143"><ele>1947.75</ele></trkpt>
   <trkpt lon="7.060559" lat="45.877174"><ele>1948.25</ele></trkpt>
   <trkpt lon="7.060770" lat="45.877217"><ele>1953.25</ele></trkpt>
   <trkpt lon="7.060797" lat="45.877326"><ele>1951.5</ele></trkpt>
   <trkpt lon="7.060836" lat="45.877396"><ele>1951.25</ele></trkpt>
   <trkpt lon="7.060955" lat="45.877486"><ele>1952.75</ele></trkpt>
   <trkpt lon="7.061013" lat="45.877562"><ele>1952.5</ele></trkpt>
   <trkpt lon="7.061026" lat="45.877660"><ele>1950.5</ele></trkpt>
   <trkpt lon="7.061051" lat="45.877689"><ele>1950.5</ele></trkpt>
   <trkpt lon="7.061115" lat="45.877732"><ele>1951.25</ele></trkpt>
   <trkpt lon="7.061146" lat="45.877748"><ele>1952.0</ele></trkpt>
   <trkpt lon="7.061213" lat="45.877751"><ele>1954.25</ele></trkpt>
   <trkpt lon="7.061235" lat="45.877770"><ele>1954.5</ele></trkpt>
   <trkpt lon="7.061244" lat="45.877804"><ele>1954.25</ele></trkpt>
   <trkpt lon="7.061237" lat="45.877851"><ele>1953.25</ele></trkpt>
   <trkpt lon="7.061325" lat="45.877962"><ele>1954.0</ele></trkpt>
   <trkpt lon="7.061433" lat="45.878036"><ele>1954.5</ele></trkpt>
   <trkpt lon="7.061470" lat="45.878049"><ele>1954.25</ele></trkpt>
   <trkpt lon="7.061816" lat="45.878065"><ele>1959.75</ele></trkpt>
   <trkpt lon="7.061937" lat="45.878130"><ele>1964.0</ele></trkpt>
   <trkpt lon="7.061939" lat="45.878150"><ele>1964.25</ele></trkpt>
   <trkpt lon="7.061909" lat="45.878169"><ele>1963.0</ele></trkpt>
   <trkpt lon="7.061872" lat="45.878172"><ele>1961.5</ele></trkpt>
   <trkpt lon="7.061879" lat="45.878212"><ele>1961.75</ele></trkpt>
   <trkpt lon="7.061816" lat="45.878274"><ele>1958.0</ele></trkpt>
   <trkpt lon="7.061821" lat="45.878349"><ele>1957.5</ele></trkpt>
   <trkpt lon="7.061896" lat="45.878457"><ele>1959.0</ele></trkpt>
   <trkpt lon="7.061976" lat="45.878537"><ele>1959.5</ele></trkpt>
   <trkpt lon="7.062110" lat="45.878630"><ele>1961.0</ele></trkpt>
   <trkpt lon="7.062120" lat="45.878659"><ele>1960.75</ele></trkpt>
   <trkpt lon="7.062107" lat="45.878692"><ele>1959.75</ele></trkpt>
   <trkpt lon="7.062113" lat="45.878729"><ele>1959.5</ele></trkpt>
   <trkpt lon="7.062138" lat="45.878769"><ele>1959.75</ele></trkpt>
   <trkpt lon="7.062146" lat="45.878827"><ele>1959.0</ele></trkpt>
   <trkpt lon="7.062162" lat="45.878848"><ele>1959.25</ele></trkpt>
   <trkpt lon="7.062242" lat="45.878911"><ele>1960.75</ele></trkpt>
   <trkpt lon="7.062439" lat="45.878988"><ele>1964.5</ele></trkpt>
   <trkpt lon="7.062471" lat="45.879014"><ele>1964.75</ele></trkpt>
   <trkpt lon="7.062487" lat="45.879114"><ele>1962.75</ele></trkpt>
   <trkpt lon="7.062507" lat="45.879165"><ele>1962.25</ele></trkpt>
   <trkpt lon="7.062533" lat="45.879203"><ele>1961.5</ele></trkpt>
   <trkpt lon="7.062573" lat="45.879225"><ele>1962.0</ele></trkpt>
   <trkpt lon="7.062703" lat="45.879274"><ele>1965.0</ele></trkpt>
   <trkpt lon="7.062780" lat="45.879325"><ele>1966.5</ele></trkpt>
   <trkpt lon="7.062812" lat="45.879356"><ele>1966.75</ele></trkpt>
   <trkpt lon="7.062819" lat="45.879400"><ele>1966.0</ele></trkpt>
   <trkpt lon="7.062780" lat="45.879498"><ele>1962.25</ele></trkpt>
   <trkpt lon="7.062785" lat="45.879557"><ele>1961.5</ele></trkpt>
   <trkpt lon="7.062818" lat="45.879632"><ele>1961.75</ele></trkpt>
   <trkpt lon="7.062851" lat="45.879671"><ele>1962.5</ele></trkpt>
   <trkpt lon="7.062920" lat="45.879711"><ele>1964.75</ele></trkpt>
   <trkpt lon="7.062970" lat="45.879750"><ele>1965.5</ele></trkpt>
   <trkpt lon="7.063020" lat="45.879767"><ele>1967.0</ele></trkpt>
   <trkpt lon="7.063057" lat="45.879822"><ele>1966.75</ele></trkpt>
   <trkpt lon="7.063107" lat="45.879859"><ele>1967.5</ele></trkpt>
   <trkpt lon="7.063209" lat="45.879960"><ele>1967.75</ele></trkpt>
   <trkpt lon="7.063344" lat="45.880110"><ele>1968.0</ele></trkpt>
   <trkpt lon="7.063467" lat="45.880220"><ele>1968.25</ele></trkpt>
   <trkpt lon="7.063544" lat="45.880257"><ele>1968.5</ele></trkpt>
   <trkpt lon="7.063608" lat="45.880271"><ele>1969.25</ele></trkpt>
   <trkpt lon="7.063650" lat="45.880291"><ele>1970.5</ele></trkpt>
   <trkpt lon="7.063663" lat="45.880300"><ele>1971.0</ele></trkpt>
   <trkpt lon="7.063654" lat="45.880324"><ele>1970.25</ele></trkpt>
   <trkpt lon="7.063642" lat="45.880392"><ele>1968.5</ele></trkpt>
   <trkpt lon="7.063644" lat="45.880413"><ele>1968.0</ele></trkpt>
   <trkpt lon="7.063674" lat="45.880437"><ele>1969.25</ele></trkpt>
   <trkpt lon="7.063750" lat="45.880469"><ele>1972.5</ele></trkpt>
   <trkpt lon="7.063810" lat="45.880482"><ele>1975.25</ele></trkpt>
   <trkpt lon="7.063815" lat="45.880499"><ele>1975.25</ele></trkpt>
   <trkpt lon="7.063778" lat="45.880559"><ele>1972.25</ele></trkpt>
   <trkpt lon="7.063780" lat="45.880647"><ele>1971.5</ele></trkpt>
   <trkpt lon="7.063823" lat="45.880773"><ele>1972.5</ele></trkpt>
   <trkpt lon="7.063827" lat="45.880820"><ele>1972.0</ele></trkpt>
   <trkpt lon="7.063883" lat="45.880907"><ele>1973.25</ele></trkpt>
   <trkpt lon="7.063884" lat="45.880966"><ele>1972.25</ele></trkpt>
   <trkpt lon="7.063927" lat="45.881024"><ele>1973.25</ele></trkpt>
   <trkpt lon="7.063927" lat="45.881057"><ele>1972.75</ele></trkpt>
   <trkpt lon="7.063989" lat="45.881123"><ele>1974.75</ele></trkpt>
   <trkpt lon="7.064011" lat="45.881177"><ele>1975.25</ele></trkpt>
   <trkpt lon="7.064107" lat="45.881262"><ele>1978.5</ele></trkpt>
   <trkpt lon="7.064118" lat="45.881301"><ele>1978.25</ele></trkpt>
   <trkpt lon="7.064163" lat="45.881345"><ele>1979.5</ele></trkpt>
   <trkpt lon="7.064188" lat="45.881386"><ele>1980.0</ele></trkpt>
   <trkpt lon="7.064202" lat="45.881429"><ele>1981.0</ele></trkpt>
   <trkpt lon="7.064298" lat="45.881533"><ele>1983.75</ele></trkpt>
   <trkpt lon="7.064406" lat="45.881618"><ele>1982.75</ele></trkpt>
   <trkpt lon="7.064405" lat="45.881627"><ele>1982.5</ele></trkpt>
   <trkpt lon="7.064373" lat="45.881631"><ele>1982.5</ele></trkpt>
   <trkpt lon="7.064313" lat="45.881662"><ele>1982.25</ele></trkpt>
   <trkpt lon="7.064309" lat="45.881673"><ele>1982.75</ele></trkpt>
   <trkpt lon="7.064354" lat="45.881715"><ele>1984.5</ele></trkpt>
   <trkpt lon="7.064404" lat="45.881832"><ele>1989.75</ele></trkpt>
   <trkpt lon="7.064500" lat="45.881934"><ele>1992.75</ele></trkpt>
   <trkpt lon="7.064584" lat="45.882057"><ele>1998.0</ele></trkpt>
   <trkpt lon="7.064758" lat="45.882277"><ele>2003.25</ele></trkpt>
   <trkpt lon="7.064872" lat="45.882362"><ele>2006.25</ele></trkpt>
   <trkpt lon="7.064971" lat="45.882472"><ele>2006.5</ele></trkpt>
   <trkpt lon="7.064958" lat="45.882498"><ele>2007.5</ele></trkpt>
   <trkpt lon="7.064938" lat="45.882507"><ele>2008.75</ele></trkpt>
   <trkpt lon="7.064903" lat="45.882510"><ele>2010.25</ele></trkpt>
   <trkpt lon="7.064879" lat="45.882525"><ele>2012.0</ele></trkpt>
   <trkpt lon="7.064842" lat="45.882531"><ele>2013.5</ele></trkpt>
   <trkpt lon="7.064798" lat="45.882519"><ele>2014.5</ele></trkpt>
   <trkpt lon="7.064703" lat="45.882455"><ele>2014.25</ele></trkpt>
   <trkpt lon="7.064685" lat="45.882465"><ele>2015.0</ele></trkpt>
   <trkpt lon="7.064690" lat="45.882527"><ele>2017.5</ele></trkpt>
   <trkpt lon="7.064756" lat="45.882636"><ele>2019.75</ele></trkpt>
   <trkpt lon="7.064745" lat="45.882685"><ele>2021.25</ele></trkpt>
   <trkpt lon="7.064724" lat="45.882703"><ele>2022.0</ele></trkpt>
   <trkpt lon="7.064682" lat="45.882697"><ele>2021.75</ele></trkpt>
   <trkpt lon="7.064633" lat="45.882679"><ele>2021.25</ele></trkpt>
   <trkpt lon="7.064408" lat="45.882502"><ele>2016.75</ele></trkpt>
   <trkpt lon="7.064272" lat="45.882378"><ele>2014.5</ele></trkpt>
   <trkpt lon="7.064133" lat="45.882320"><ele>2012.0</ele></trkpt>
   <trkpt lon="7.063966" lat="45.882289"><ele>2008.5</ele></trkpt>
   <trkpt lon="7.063765" lat="45.882215"><ele>2003.5</ele></trkpt>
   <trkpt lon="7.063621" lat="45.882179"><ele>2000.5</ele></trkpt>
   <trkpt lon="7.063556" lat="45.882125"><ele>1997.25</ele></trkpt>
   <trkpt lon="7.063524" lat="45.882031"><ele>1995.0</ele></trkpt>
   <trkpt lon="7.063524" lat="45.881919"><ele>1993.75</ele></trkpt>
   <trkpt lon="7.063487" lat="45.881864"><ele>1991.75</ele></trkpt>
   <trkpt lon="7.063483" lat="45.881815"><ele>1991.25</ele></trkpt>
   <trkpt lon="7.063495" lat="45.881760"><ele>1991.25</ele></trkpt>
   <trkpt lon="7.063474" lat="45.881720"><ele>1990.0</ele></trkpt>
   <trkpt lon="7.063426" lat="45.881685"><ele>1987.75</ele></trkpt>
   <trkpt lon="7.063422" lat="45.881607"><ele>1985.0</ele></trkpt>
   <trkpt lon="7.063362" lat="45.881576"><ele>1981.75</ele></trkpt>
   <trkpt lon="7.063331" lat="45.881613"><ele>1982.0</ele></trkpt>
   <trkpt lon="7.063318" lat="45.881646"><ele>1982.5</ele></trkpt>
   <trkpt lon="7.063312" lat="45.881697"><ele>1983.0</ele></trkpt>
   <trkpt lon="7.063294" lat="45.881728"><ele>1982.25</ele></trkpt>
   <trkpt lon="7.063258" lat="45.881766"><ele>1980.75</ele></trkpt>
   <trkpt lon="7.063202" lat="45.881782"><ele>1978.25</ele></trkpt>
   <trkpt lon="7.063108" lat="45.881787"><ele>1973.75</ele></trkpt>
   <trkpt lon="7.063002" lat="45.881773"><ele>1969.5</ele></trkpt>
   <trkpt lon="7.062882" lat="45.881726"><ele>1967.0</ele></trkpt>
   <trkpt lon="7.062875" lat="45.881665"><ele>1967.5</ele></trkpt>
   <trkpt lon="7.062831" lat="45.881596"><ele>1964.25</ele></trkpt>
   <trkpt lon="7.062774" lat="45.881539"><ele>1960.75</ele></trkpt>
   <trkpt lon="7.062680" lat="45.881498"><ele>1957.0</ele></trkpt>
  </trkseg>
  </trk>
</gpx>
