<?xml version="1.0" encoding="UTF-8"?>
<gpx xmlns="http://www.topografix.com/GPX/1/1" xmlns:xsi="http://www.w3.org/2001/XMLSchema-instance" xsi:schemaLocation="http://www.topografix.com/GPX/1/1 http://www.topografix.com/GPX/1/1/gpx.xsd" version="1.1" creator="tmb2027 build-gpx (BRouter hiking-mountain)">
  <metadata>
    <name>TMB 2027 Day 5 · Maison Vieille → Courmayeur → Rifugio Bertone</name>
    <desc>메종 비에유 → 쿠르마예 → 베르토네 · 경유 3지점 · 참고용 산길 경로. 실제 길 찾기는 공식 지도·현장 표지 우선.</desc>
    <copyright author="OpenStreetMap contributors"><license>https://www.openstreetmap.org/copyright</license></copyright>
    <link href="https://brouter.de/"><text>Routing: BRouter hiking-mountain</text></link>
    <time>2026-09-18T00:00:00Z</time>
  </metadata>
  <wpt lat="45.786" lon="6.931"><ele>1956</ele><name>Rifugio Maison Vieille</name><type>lodging</type></wpt>
  <wpt lat="45.797" lon="6.969"><ele>1224</ele><name>Courmayeur</name><type>town</type></wpt>
  <wpt lat="45.813" lon="6.979"><ele>1989</ele><name>Rifugio Bertone</name><type>lodging</type></wpt>
  <trk>
    <name>TMB 2027 Day 5 · Maison Vieille → Courmayeur → Rifugio Bertone</name>
    <trkseg>
   <trkpt lon="6.931016" lat="45.785937"><ele>2028.75</ele></trkpt>
   <trkpt lon="6.931482" lat="45.785999"><ele>2020.0</ele></trkpt>
   <trkpt lon="6.931827" lat="45.786025"><ele>2013.5</ele></trkpt>
   <trkpt lon="6.932058" lat="45.786034"><ele>2009.75</ele></trkpt>
   <trkpt lon="6.932309" lat="45.786021"><ele>2006.75</ele></trkpt>
   <trkpt lon="6.932472" lat="45.785991"><ele>2005.75</ele></trkpt>
   <trkpt lon="6.932630" lat="45.786359"><ele>2000.0</ele></trkpt>
   <trkpt lon="6.932734" lat="45.786521"><ele>1996.5</ele></trkpt>
   <trkpt lon="6.933071" lat="45.786843"><ele>1987.25</ele></trkpt>
   <trkpt lon="6.933138" lat="45.787021"><ele>1983.75</ele></trkpt>
   <trkpt lon="6.933179" lat="45.787256"><ele>1978.0</ele></trkpt>
   <trkpt lon="6.933196" lat="45.787407"><ele>1974.25</ele></trkpt>
   <trkpt lon="6.933140" lat="45.787509"><ele>1973.75</ele></trkpt>
   <trkpt lon="6.933041" lat="45.787616"><ele>1972.75</ele></trkpt>
   <trkpt lon="6.932871" lat="45.787761"><ele>1972.5</ele></trkpt>
   <trkpt lon="6.932723" lat="45.787920"><ele>1971.25</ele></trkpt>
   <trkpt lon="6.932622" lat="45.788081"><ele>1967.75</ele></trkpt>
   <trkpt lon="6.932549" lat="45.788244"><ele>1967.0</ele></trkpt>
   <trkpt lon="6.932455" lat="45.788504"><ele>1966.5</ele></trkpt>
   <trkpt lon="6.932423" lat="45.788622"><ele>1966.25</ele></trkpt>
   <trkpt lon="6.932477" lat="45.788730"><ele>1964.5</ele></trkpt>
   <trkpt lon="6.932618" lat="45.788811"><ele>1960.75</ele></trkpt>
   <trkpt lon="6.932813" lat="45.788891"><ele>1956.25</ele></trkpt>
   <trkpt lon="6.932961" lat="45.788972"><ele>1952.75</ele></trkpt>
   <trkpt lon="6.933224" lat="45.789224"><ele>1945.0</ele></trkpt>
   <trkpt lon="6.933263" lat="45.789246"><ele>1944.5</ele></trkpt>
   <trkpt lon="6.933269" lat="45.789120"><ele>1945.25</ele></trkpt>
   <trkpt lon="6.933319" lat="45.789029"><ele>1945.5</ele></trkpt>
   <trkpt lon="6.933402" lat="45.788915"><ele>1945.0</ele></trkpt>
   <trkpt lon="6.933541" lat="45.788786"><ele>1943.25</ele></trkpt>
   <trkpt lon="6.933745" lat="45.788663"><ele>1940.0</ele></trkpt>
   <trkpt lon="6.933814" lat="45.788613"><ele>1938.75</ele></trkpt>
   <trkpt lon="6.933900" lat="45.788531"><ele>1936.25</ele></trkpt>
   <trkpt lon="6.934070" lat="45.788400"><ele>1933.5</ele></trkpt>
   <trkpt lon="6.934157" lat="45.788391"><ele>1932.5</ele></trkpt>
   <trkpt lon="6.934395" lat="45.788309"><ele>1930.75</ele></trkpt>
   <trkpt lon="6.934541" lat="45.788216"><ele>1929.5</ele></trkpt>
   <trkpt lon="6.934689" lat="45.788140"><ele>1927.25</ele></trkpt>
   <trkpt lon="6.934852" lat="45.788103"><ele>1924.25</ele></trkpt>
   <trkpt lon="6.935016" lat="45.788106"><ele>1921.5</ele></trkpt>
   <trkpt lon="6.935177" lat="45.788126"><ele>1919.0</ele></trkpt>
   <trkpt lon="6.935303" lat="45.788163"><ele>1916.75</ele></trkpt>
   <trkpt lon="6.935420" lat="45.788211"><ele>1914.5</ele></trkpt>
   <trkpt lon="6.935512" lat="45.788258"><ele>1912.75</ele></trkpt>
   <trkpt lon="6.935603" lat="45.788289"><ele>1911.25</ele></trkpt>
   <trkpt lon="6.935718" lat="45.788313"><ele>1909.5</ele></trkpt>
   <trkpt lon="6.935801" lat="45.788320"><ele>1908.5</ele></trkpt>
   <trkpt lon="6.935853" lat="45.788332"><ele>1907.75</ele></trkpt>
   <trkpt lon="6.935903" lat="45.788368"><ele>1906.75</ele></trkpt>
   <trkpt lon="6.935998" lat="45.788305"><ele>1906.25</ele></trkpt>
   <trkpt lon="6.936120" lat="45.788194"><ele>1904.75</ele></trkpt>
   <trkpt lon="6.936403" lat="45.787859"><ele>1903.5</ele></trkpt>
   <trkpt lon="6.936690" lat="45.787674"><ele>1897.75</ele></trkpt>
   <trkpt lon="6.936897" lat="45.787788"><ele>1895.5</ele></trkpt>
   <trkpt lon="6.937055" lat="45.787818"><ele>1891.5</ele></trkpt>
   <trkpt lon="6.937426" lat="45.787831"><ele>1883.25</ele></trkpt>
   <trkpt lon="6.937783" lat="45.787801"><ele>1874.25</ele></trkpt>
   <trkpt lon="6.938123" lat="45.787738"><ele>1866.5</ele></trkpt>
   <trkpt lon="6.938627" lat="45.787782"><ele>1856.5</ele></trkpt>
   <trkpt lon="6.938800" lat="45.787881"><ele>1850.25</ele></trkpt>
   <trkpt lon="6.938791" lat="45.788061"><ele>1844.25</ele></trkpt>
   <trkpt lon="6.938747" lat="45.788219"><ele>1836.25</ele></trkpt>
   <trkpt lon="6.938706" lat="45.788274"><ele>1834.0</ele></trkpt>
   <trkpt lon="6.938694" lat="45.788329"><ele>1831.25</ele></trkpt>
   <trkpt lon="6.939020" lat="45.788398"><ele>1823.25</ele></trkpt>
   <trkpt lon="6.939371" lat="45.788383"><ele>1816.0</ele></trkpt>
   <trkpt lon="6.939391" lat="45.788322"><ele>1817.75</ele></trkpt>
   <trkpt lon="6.939728" lat="45.788337"><ele>1808.75</ele></trkpt>
   <trkpt lon="6.940309" lat="45.788459"><ele>1792.0</ele></trkpt>
   <trkpt lon="6.940408" lat="45.788470"><ele>1788.5</ele></trkpt>
   <trkpt lon="6.940507" lat="45.788428"><ele>1785.75</ele></trkpt>
   <trkpt lon="6.940644" lat="45.788406"><ele>1782.0</ele></trkpt>
   <trkpt lon="6.940832" lat="45.788355"><ele>1777.5</ele></trkpt>
   <trkpt lon="6.941002" lat="45.788317"><ele>1773.5</ele></trkpt>
   <trkpt lon="6.941323" lat="45.788227"><ele>1767.0</ele></trkpt>
   <trkpt lon="6.941405" lat="45.788232"><ele>1764.75</ele></trkpt>
   <trkpt lon="6.941713" lat="45.788214"><ele>1757.25</ele></trkpt>
   <trkpt lon="6.942119" lat="45.788307"><ele>1748.0</ele></trkpt>
   <trkpt lon="6.942193" lat="45.788303"><ele>1746.5</ele></trkpt>
   <trkpt lon="6.942304" lat="45.788294"><ele>1743.75</ele></trkpt>
   <trkpt lon="6.942370" lat="45.788314"><ele>1742.0</ele></trkpt>
   <trkpt lon="6.942444" lat="45.788307"><ele>1740.0</ele></trkpt>
   <trkpt lon="6.942536" lat="45.788314"><ele>1738.25</ele></trkpt>
   <trkpt lon="6.942828" lat="45.788434"><ele>1733.25</ele></trkpt>
   <trkpt lon="6.942879" lat="45.788503"><ele>1731.5</ele></trkpt>
   <trkpt lon="6.942920" lat="45.788591"><ele>1729.25</ele></trkpt>
   <trkpt lon="6.942834" lat="45.788884"><ele>1726.0</ele></trkpt>
   <trkpt lon="6.942646" lat="45.789171"><ele>1721.75</ele></trkpt>
   <trkpt lon="6.942657" lat="45.789226"><ele>1721.25</ele></trkpt>
   <trkpt lon="6.942660" lat="45.789304"><ele>1720.5</ele></trkpt>
   <trkpt lon="6.942686" lat="45.789372"><ele>1719.5</ele></trkpt>
   <trkpt lon="6.942811" lat="45.789499"><ele>1715.75</ele></trkpt>
   <trkpt lon="6.942877" lat="45.789591"><ele>1713.5</ele></trkpt>
   <trkpt lon="6.942931" lat="45.789815"><ele>1709.75</ele></trkpt>
   <trkpt lon="6.942964" lat="45.789915"><ele>1708.0</ele></trkpt>
   <trkpt lon="6.943015" lat="45.789974"><ele>1706.5</ele></trkpt>
   <trkpt lon="6.943064" lat="45.790118"><ele>1705.75</ele></trkpt>
   <trkpt lon="6.943125" lat="45.790145"><ele>1705.25</ele></trkpt>
   <trkpt lon="6.943521" lat="45.790273"><ele>1702.75</ele></trkpt>
   <trkpt lon="6.943707" lat="45.790378"><ele>1701.5</ele></trkpt>
   <trkpt lon="6.943921" lat="45.790520"><ele>1701.75</ele></trkpt>
   <trkpt lon="6.943983" lat="45.790565"><ele>1701.5</ele></trkpt>
   <trkpt lon="6.944332" lat="45.790739"><ele>1700.5</ele></trkpt>
   <trkpt lon="6.944483" lat="45.790787"><ele>1700.75</ele></trkpt>
   <trkpt lon="6.944743" lat="45.790842"><ele>1700.75</ele></trkpt>
   <trkpt lon="6.944912" lat="45.790892"><ele>1700.25</ele></trkpt>
   <trkpt lon="6.945349" lat="45.791129"><ele>1699.5</ele></trkpt>
   <trkpt lon="6.945610" lat="45.791227"><ele>1699.25</ele></trkpt>
   <trkpt lon="6.945982" lat="45.791301"><ele>1700.0</ele></trkpt>
   <trkpt lon="6.946297" lat="45.791337"><ele>1701.5</ele></trkpt>
   <trkpt lon="6.946620" lat="45.791383"><ele>1702.75</ele></trkpt>
   <trkpt lon="6.946952" lat="45.791448"><ele>1703.0</ele></trkpt>
   <trkpt lon="6.947271" lat="45.791482"><ele>1703.0</ele></trkpt>
   <trkpt lon="6.947455" lat="45.791447"><ele>1702.25</ele></trkpt>
   <trkpt lon="6.947491" lat="45.791420"><ele>1702.0</ele></trkpt>
   <trkpt lon="6.947608" lat="45.791532"><ele>1701.0</ele></trkpt>
   <trkpt lon="6.947663" lat="45.791608"><ele>1699.75</ele></trkpt>
   <trkpt lon="6.947694" lat="45.791715"><ele>1701.0</ele></trkpt>
   <trkpt lon="6.947760" lat="45.791802"><ele>1702.75</ele></trkpt>
   <trkpt lon="6.947836" lat="45.791798"><ele>1699.25</ele></trkpt>
   <trkpt lon="6.948087" lat="45.791938"><ele>1693.25</ele></trkpt>
   <trkpt lon="6.948109" lat="45.791841"><ele>1687.75</ele></trkpt>
   <trkpt lon="6.948265" lat="45.791891"><ele>1683.25</ele></trkpt>
   <trkpt lon="6.948447" lat="45.791852"><ele>1675.0</ele></trkpt>
   <trkpt lon="6.948504" lat="45.791861"><ele>1674.75</ele></trkpt>
   <trkpt lon="6.948548" lat="45.791833"><ele>1671.25</ele></trkpt>
   <trkpt lon="6.948470" lat="45.791783"><ele>1668.75</ele></trkpt>
   <trkpt lon="6.948438" lat="45.791742"><ele>1666.5</ele></trkpt>
   <trkpt lon="6.948440" lat="45.791710"><ele>1663.75</ele></trkpt>
   <trkpt lon="6.948470" lat="45.791677"><ele>1659.75</ele></trkpt>
   <trkpt lon="6.948523" lat="45.791661"><ele>1656.5</ele></trkpt>
   <trkpt lon="6.948614" lat="45.791657"><ele>1652.5</ele></trkpt>
   <trkpt lon="6.949144" lat="45.791773"><ele>1651.5</ele></trkpt>
   <trkpt lon="6.949343" lat="45.791801"><ele>1650.5</ele></trkpt>
   <trkpt lon="6.949574" lat="45.791811"><ele>1646.5</ele></trkpt>
   <trkpt lon="6.950353" lat="45.791823"><ele>1622.5</ele></trkpt>
   <trkpt lon="6.950980" lat="45.791852"><ele>1609.25</ele></trkpt>
   <trkpt lon="6.951560" lat="45.791918"><ele>1604.25</ele></trkpt>
   <trkpt lon="6.951786" lat="45.791930"><ele>1602.75</ele></trkpt>
   <trkpt lon="6.951953" lat="45.791930"><ele>1601.5</ele></trkpt>
   <trkpt lon="6.952078" lat="45.791913"><ele>1598.25</ele></trkpt>
   <trkpt lon="6.952183" lat="45.791885"><ele>1594.5</ele></trkpt>
   <trkpt lon="6.952290" lat="45.791879"><ele>1591.5</ele></trkpt>
   <trkpt lon="6.952390" lat="45.791856"><ele>1587.0</ele></trkpt>
   <trkpt lon="6.952460" lat="45.791833"><ele>1583.25</ele></trkpt>
   <trkpt lon="6.952516" lat="45.791777"><ele>1577.25</ele></trkpt>
   <trkpt lon="6.952574" lat="45.791764"><ele>1574.5</ele></trkpt>
   <trkpt lon="6.952624" lat="45.791768"><ele>1573.25</ele></trkpt>
   <trkpt lon="6.952702" lat="45.791760"><ele>1570.75</ele></trkpt>
   <trkpt lon="6.952762" lat="45.791730"><ele>1567.5</ele></trkpt>
   <trkpt lon="6.952909" lat="45.791602"><ele>1557.0</ele></trkpt>
   <trkpt lon="6.952989" lat="45.791545"><ele>1554.5</ele></trkpt>
   <trkpt lon="6.953230" lat="45.791465"><ele>1551.75</ele></trkpt>
   <trkpt lon="6.953339" lat="45.791414"><ele>1552.25</ele></trkpt>
   <trkpt lon="6.953479" lat="45.791292"><ele>1542.5</ele></trkpt>
   <trkpt lon="6.953474" lat="45.791274"><ele>1542.25</ele></trkpt>
   <trkpt lon="6.953428" lat="45.791257"><ele>1543.0</ele></trkpt>
   <trkpt lon="6.953360" lat="45.791254"><ele>1544.5</ele></trkpt>
   <trkpt lon="6.953300" lat="45.791244"><ele>1544.25</ele></trkpt>
   <trkpt lon="6.953289" lat="45.791216"><ele>1542.25</ele></trkpt>
   <trkpt lon="6.953327" lat="45.791169"><ele>1539.5</ele></trkpt>
   <trkpt lon="6.953404" lat="45.791121"><ele>1538.0</ele></trkpt>
   <trkpt lon="6.953494" lat="45.791076"><ele>1537.0</ele></trkpt>
   <trkpt lon="6.953601" lat="45.791048"><ele>1536.75</ele></trkpt>
   <trkpt lon="6.953698" lat="45.791042"><ele>1533.5</ele></trkpt>
   <trkpt lon="6.953930" lat="45.791070"><ele>1527.5</ele></trkpt>
   <trkpt lon="6.953958" lat="45.791064"><ele>1525.5</ele></trkpt>
   <trkpt lon="6.953969" lat="45.791041"><ele>1523.5</ele></trkpt>
   <trkpt lon="6.953964" lat="45.790994"><ele>1520.25</ele></trkpt>
   <trkpt lon="6.953945" lat="45.790954"><ele>1517.75</ele></trkpt>
   <trkpt lon="6.953957" lat="45.790928"><ele>1515.5</ele></trkpt>
   <trkpt lon="6.953996" lat="45.790912"><ele>1513.0</ele></trkpt>
   <trkpt lon="6.954045" lat="45.790918"><ele>1512.0</ele></trkpt>
   <trkpt lon="6.954154" lat="45.790952"><ele>1510.25</ele></trkpt>
   <trkpt lon="6.954200" lat="45.790947"><ele>1508.0</ele></trkpt>
   <trkpt lon="6.954237" lat="45.790932"><ele>1505.5</ele></trkpt>
   <trkpt lon="6.954284" lat="45.790874"><ele>1500.75</ele></trkpt>
   <trkpt lon="6.954322" lat="45.790856"><ele>1498.5</ele></trkpt>
   <trkpt lon="6.954382" lat="45.790857"><ele>1496.0</ele></trkpt>
   <trkpt lon="6.954432" lat="45.790850"><ele>1493.75</ele></trkpt>
   <trkpt lon="6.954477" lat="45.790835"><ele>1491.0</ele></trkpt>
   <trkpt lon="6.954593" lat="45.790736"><ele>1480.75</ele></trkpt>
   <trkpt lon="6.954595" lat="45.790657"><ele>1478.0</ele></trkpt>
   <trkpt lon="6.954626" lat="45.790615"><ele>1475.75</ele></trkpt>
   <trkpt lon="6.954660" lat="45.790592"><ele>1474.5</ele></trkpt>
   <trkpt lon="6.954716" lat="45.790585"><ele>1473.5</ele></trkpt>
   <trkpt lon="6.954764" lat="45.790594"><ele>1471.0</ele></trkpt>
   <trkpt lon="6.954798" lat="45.790631"><ele>1469.5</ele></trkpt>
   <trkpt lon="6.954827" lat="45.790649"><ele>1468.0</ele></trkpt>
   <trkpt lon="6.954849" lat="45.790644"><ele>1466.75</ele></trkpt>
   <trkpt lon="6.954870" lat="45.790625"><ele>1465.25</ele></trkpt>
   <trkpt lon="6.954928" lat="45.790439"><ele>1459.25</ele></trkpt>
   <trkpt lon="6.955018" lat="45.790561"><ele>1456.75</ele></trkpt>
   <trkpt lon="6.955090" lat="45.790649"><ele>1452.0</ele></trkpt>
   <trkpt lon="6.955152" lat="45.790707"><ele>1448.0</ele></trkpt>
   <trkpt lon="6.955226" lat="45.790751"><ele>1443.25</ele></trkpt>
   <trkpt lon="6.955264" lat="45.790804"><ele>1440.75</ele></trkpt>
   <trkpt lon="6.955290" lat="45.790878"><ele>1438.25</ele></trkpt>
   <trkpt lon="6.955314" lat="45.791002"><ele>1434.25</ele></trkpt>
   <trkpt lon="6.955353" lat="45.791139"><ele>1429.0</ele></trkpt>
   <trkpt lon="6.955427" lat="45.791300"><ele>1423.75</ele></trkpt>
   <trkpt lon="6.955504" lat="45.791516"><ele>1420.5</ele></trkpt>
   <trkpt lon="6.955541" lat="45.791562"><ele>1418.75</ele></trkpt>
   <trkpt lon="6.955590" lat="45.791583"><ele>1416.5</ele></trkpt>
   <trkpt lon="6.955657" lat="45.791583"><ele>1413.25</ele></trkpt>
   <trkpt lon="6.955742" lat="45.791563"><ele>1409.0</ele></trkpt>
   <trkpt lon="6.955838" lat="45.791487"><ele>1403.0</ele></trkpt>
   <trkpt lon="6.955877" lat="45.791447"><ele>1400.75</ele></trkpt>
   <trkpt lon="6.955919" lat="45.791440"><ele>1398.5</ele></trkpt>
   <trkpt lon="6.955979" lat="45.791446"><ele>1395.75</ele></trkpt>
   <trkpt lon="6.956025" lat="45.791474"><ele>1394.0</ele></trkpt>
   <trkpt lon="6.956123" lat="45.791570"><ele>1390.25</ele></trkpt>
   <trkpt lon="6.956172" lat="45.791608"><ele>1388.25</ele></trkpt>
   <trkpt lon="6.956206" lat="45.791610"><ele>1386.5</ele></trkpt>
   <trkpt lon="6.956250" lat="45.791597"><ele>1384.0</ele></trkpt>
   <trkpt lon="6.956282" lat="45.791562"><ele>1382.25</ele></trkpt>
   <trkpt lon="6.956332" lat="45.791397"><ele>1377.75</ele></trkpt>
   <trkpt lon="6.956396" lat="45.791248"><ele>1371.5</ele></trkpt>
   <trkpt lon="6.956513" lat="45.791036"><ele>1362.5</ele></trkpt>
   <trkpt lon="6.956547" lat="45.790851"><ele>1358.25</ele></trkpt>
   <trkpt lon="6.956604" lat="45.790785"><ele>1356.0</ele></trkpt>
   <trkpt lon="6.956690" lat="45.790770"><ele>1352.5</ele></trkpt>
   <trkpt lon="6.956772" lat="45.790771"><ele>1349.25</ele></trkpt>
   <trkpt lon="6.956832" lat="45.790758"><ele>1347.25</ele></trkpt>
   <trkpt lon="6.956888" lat="45.790759"><ele>1345.0</ele></trkpt>
   <trkpt lon="6.956925" lat="45.790798"><ele>1343.5</ele></trkpt>
   <trkpt lon="6.956935" lat="45.790844"><ele>1343.25</ele></trkpt>
   <trkpt lon="6.956966" lat="45.790903"><ele>1342.75</ele></trkpt>
   <trkpt lon="6.957015" lat="45.790951"><ele>1341.5</ele></trkpt>
   <trkpt lon="6.957115" lat="45.791023"><ele>1338.25</ele></trkpt>
   <trkpt lon="6.957188" lat="45.791129"><ele>1336.25</ele></trkpt>
   <trkpt lon="6.957225" lat="45.791134"><ele>1334.75</ele></trkpt>
   <trkpt lon="6.957268" lat="45.791125"><ele>1333.0</ele></trkpt>
   <trkpt lon="6.957308" lat="45.791092"><ele>1331.25</ele></trkpt>
   <trkpt lon="6.957336" lat="45.791031"><ele>1330.0</ele></trkpt>
   <trkpt lon="6.957347" lat="45.790974"><ele>1329.25</ele></trkpt>
   <trkpt lon="6.957375" lat="45.790929"><ele>1327.75</ele></trkpt>
   <trkpt lon="6.957414" lat="45.790915"><ele>1326.25</ele></trkpt>
   <trkpt lon="6.957475" lat="45.790921"><ele>1324.0</ele></trkpt>
   <trkpt lon="6.957576" lat="45.791110"><ele>1320.5</ele></trkpt>
   <trkpt lon="6.957609" lat="45.791158"><ele>1319.0</ele></trkpt>
   <trkpt lon="6.957644" lat="45.791165"><ele>1317.5</ele></trkpt>
   <trkpt lon="6.957684" lat="45.791157"><ele>1315.75</ele></trkpt>
   <trkpt lon="6.957716" lat="45.791136"><ele>1314.5</ele></trkpt>
   <trkpt lon="6.957772" lat="45.791077"><ele>1312.25</ele></trkpt>
   <trkpt lon="6.957882" lat="45.790988"><ele>1309.0</ele></trkpt>
   <trkpt lon="6.957939" lat="45.790928"><ele>1307.5</ele></trkpt>
   <trkpt lon="6.957999" lat="45.790841"><ele>1305.75</ele></trkpt>
   <trkpt lon="6.958077" lat="45.790765"><ele>1303.5</ele></trkpt>
   <trkpt lon="6.958163" lat="45.790704"><ele>1301.0</ele></trkpt>
   <trkpt lon="6.958291" lat="45.790628"><ele>1297.25</ele></trkpt>
   <trkpt lon="6.958290" lat="45.790872"><ele>1294.25</ele></trkpt>
   <trkpt lon="6.958303" lat="45.791279"><ele>1290.5</ele></trkpt>
   <trkpt lon="6.958230" lat="45.791442"><ele>1293.0</ele></trkpt>
   <trkpt lon="6.958442" lat="45.791485"><ele>1285.25</ele></trkpt>
   <trkpt lon="6.958537" lat="45.791536"><ele>1281.75</ele></trkpt>
   <trkpt lon="6.958709" lat="45.791521"><ele>1275.25</ele></trkpt>
   <trkpt lon="6.958790" lat="45.791552"><ele>1272.0</ele></trkpt>
   <trkpt lon="6.958939" lat="45.791078"><ele>1270.0</ele></trkpt>
   <trkpt lon="6.959298" lat="45.790391"><ele>1261.0</ele></trkpt>
   <trkpt lon="6.959576" lat="45.791033"><ele>1255.0</ele></trkpt>
   <trkpt lon="6.959384" lat="45.791298"><ele>1256.0</ele></trkpt>
   <trkpt lon="6.959384" lat="45.791424"><ele>1253.5</ele></trkpt>
   <trkpt lon="6.959431" lat="45.791507"><ele>1251.5</ele></trkpt>
   <trkpt lon="6.959433" lat="45.791640"><ele>1250.5</ele></trkpt>
   <trkpt lon="6.959567" lat="45.791880"><ele>1252.0</ele></trkpt>
   <trkpt lon="6.959847" lat="45.791842"><ele>1246.0</ele></trkpt>
   <trkpt lon="6.960312" lat="45.792056"><ele>1241.0</ele></trkpt>
   <trkpt lon="6.960432" lat="45.792147"><ele>1241.25</ele></trkpt>
   <trkpt lon="6.960485" lat="45.792294"><ele>1243.75</ele></trkpt>
   <trkpt lon="6.961297" lat="45.792586"><ele>1230.5</ele></trkpt>
   <trkpt lon="6.961223" lat="45.792630"><ele>1232.5</ele></trkpt>
   <trkpt lon="6.961440" lat="45.792765"><ele>1229.0</ele></trkpt>
   <trkpt lon="6.961519" lat="45.792700"><ele>1227.25</ele></trkpt>
   <trkpt lon="6.961656" lat="45.792705"><ele>1225.25</ele></trkpt>
   <trkpt lon="6.962095" lat="45.792702"><ele>1219.0</ele></trkpt>
   <trkpt lon="6.962272" lat="45.792623"><ele>1217.5</ele></trkpt>
   <trkpt lon="6.962562" lat="45.792615"><ele>1215.5</ele></trkpt>
   <trkpt lon="6.962723" lat="45.792716"><ele>1215.0</ele></trkpt>
   <trkpt lon="6.962868" lat="45.792922"><ele>1212.75</ele></trkpt>
   <trkpt lon="6.963045" lat="45.792959"><ele>1210.75</ele></trkpt>
   <trkpt lon="6.963278" lat="45.793038"><ele>1207.5</ele></trkpt>
   <trkpt lon="6.963172" lat="45.793187"><ele>1206.75</ele></trkpt>
   <trkpt lon="6.963141" lat="45.793309"><ele>1205.25</ele></trkpt>
   <trkpt lon="6.963137" lat="45.793368"><ele>1205.25</ele></trkpt>
   <trkpt lon="6.963163" lat="45.793587"><ele>1205.5</ele></trkpt>
   <trkpt lon="6.963205" lat="45.793745"><ele>1203.5</ele></trkpt>
   <trkpt lon="6.963223" lat="45.793858"><ele>1202.25</ele></trkpt>
   <trkpt lon="6.963271" lat="45.793953"><ele>1200.75</ele></trkpt>
   <trkpt lon="6.963659" lat="45.794699"><ele>1195.25</ele></trkpt>
   <trkpt lon="6.963731" lat="45.794801"><ele>1194.75</ele></trkpt>
   <trkpt lon="6.963871" lat="45.794903"><ele>1194.25</ele></trkpt>
   <trkpt lon="6.963997" lat="45.794957"><ele>1194.0</ele></trkpt>
   <trkpt lon="6.964026" lat="45.795025"><ele>1194.5</ele></trkpt>
   <trkpt lon="6.964105" lat="45.795102"><ele>1194.5</ele></trkpt>
   <trkpt lon="6.964206" lat="45.795175"><ele>1194.25</ele></trkpt>
   <trkpt lon="6.964360" lat="45.795240"><ele>1194.0</ele></trkpt>
   <trkpt lon="6.964981" lat="45.795392"><ele>1192.25</ele></trkpt>
   <trkpt lon="6.965339" lat="45.795511"><ele>1193.25</ele></trkpt>
   <trkpt lon="6.965449" lat="45.795537"><ele>1193.75</ele></trkpt>
   <trkpt lon="6.965679" lat="45.795545"><ele>1193.25</ele></trkpt>
   <trkpt lon="6.966017" lat="45.795609"><ele>1193.5</ele></trkpt>
   <trkpt lon="6.966237" lat="45.795660"><ele>1192.5</ele></trkpt>
   <trkpt lon="6.966294" lat="45.795699"><ele>1192.25</ele></trkpt>
   <trkpt lon="6.966363" lat="45.795787"><ele>1191.5</ele></trkpt>
   <trkpt lon="6.966488" lat="45.796044"><ele>1192.5</ele></trkpt>
   <trkpt lon="6.966604" lat="45.796114"><ele>1191.0</ele></trkpt>
   <trkpt lon="6.966581" lat="45.796137"><ele>1191.75</ele></trkpt>
   <trkpt lon="6.966557" lat="45.796210"><ele>1192.75</ele></trkpt>
   <trkpt lon="6.966646" lat="45.796730"><ele>1196.25</ele></trkpt>
   <trkpt lon="6.966659" lat="45.796806"><ele>1196.75</ele></trkpt>
   <trkpt lon="6.966533" lat="45.797279"><ele>1201.5</ele></trkpt>
   <trkpt lon="6.966489" lat="45.797714"><ele>1201.25</ele></trkpt>
   <trkpt lon="6.966435" lat="45.797995"><ele>1204.0</ele></trkpt>
   <trkpt lon="6.965912" lat="45.799151"><ele>1217.5</ele></trkpt>
   <trkpt lon="6.965644" lat="45.799743"><ele>1220.5</ele></trkpt>
   <trkpt lon="6.965747" lat="45.799768"><ele>1218.75</ele></trkpt>
   <trkpt lon="6.965796" lat="45.799773"><ele>1218.0</ele></trkpt>
   <trkpt lon="6.965976" lat="45.799776"><ele>1217.25</ele></trkpt>
   <trkpt lon="6.966207" lat="45.799778"><ele>1216.0</ele></trkpt>
   <trkpt lon="6.966294" lat="45.799792"><ele>1215.0</ele></trkpt>
   <trkpt lon="6.966347" lat="45.799836"><ele>1214.5</ele></trkpt>
   <trkpt lon="6.966507" lat="45.799994"><ele>1210.0</ele></trkpt>
   <trkpt lon="6.966553" lat="45.800026"><ele>1208.5</ele></trkpt>
   <trkpt lon="6.966613" lat="45.800031"><ele>1206.75</ele></trkpt>
   <trkpt lon="6.966918" lat="45.800016"><ele>1210.25</ele></trkpt>
   <trkpt lon="6.966963" lat="45.799993"><ele>1211.25</ele></trkpt>
   <trkpt lon="6.967098" lat="45.799814"><ele>1213.75</ele></trkpt>
   <trkpt lon="6.967148" lat="45.799775"><ele>1214.5</ele></trkpt>
   <trkpt lon="6.967209" lat="45.799755"><ele>1215.75</ele></trkpt>
   <trkpt lon="6.967270" lat="45.799756"><ele>1216.5</ele></trkpt>
   <trkpt lon="6.967700" lat="45.799832"><ele>1220.5</ele></trkpt>
   <trkpt lon="6.967619" lat="45.799986"><ele>1221.0</ele></trkpt>
   <trkpt lon="6.967535" lat="45.800208"><ele>1221.75</ele></trkpt>
   <trkpt lon="6.967532" lat="45.800237"><ele>1221.75</ele></trkpt>
   <trkpt lon="6.967539" lat="45.800261"><ele>1222.0</ele></trkpt>
   <trkpt lon="6.967634" lat="45.800317"><ele>1222.75</ele></trkpt>
   <trkpt lon="6.967628" lat="45.800261"><ele>1222.75</ele></trkpt>
   <trkpt lon="6.967642" lat="45.800167"><ele>1222.25</ele></trkpt>
   <trkpt lon="6.967743" lat="45.799918"><ele>1221.75</ele></trkpt>
   <trkpt lon="6.967879" lat="45.799705"><ele>1220.5</ele></trkpt>
   <trkpt lon="6.968029" lat="45.799540"><ele>1220.5</ele></trkpt>
   <trkpt lon="6.968221" lat="45.799361"><ele>1222.25</ele></trkpt>
   <trkpt lon="6.968624" lat="45.798977"><ele>1220.75</ele></trkpt>
   <trkpt lon="6.968642" lat="45.798953"><ele>1220.5</ele></trkpt>
   <trkpt lon="6.968771" lat="45.798784"><ele>1221.5</ele></trkpt>
   <trkpt lon="6.968802" lat="45.798742"><ele>1222.25</ele></trkpt>
   <trkpt lon="6.968865" lat="45.798631"><ele>1223.75</ele></trkpt>
   <trkpt lon="6.968963" lat="45.798369"><ele>1224.75</ele></trkpt>
   <trkpt lon="6.968998" lat="45.798310"><ele>1225.0</ele></trkpt>
   <trkpt lon="6.969096" lat="45.798181"><ele>1225.25</ele></trkpt>
   <trkpt lon="6.969066" lat="45.798164"><ele>1224.75</ele></trkpt>
   <trkpt lon="6.969008" lat="45.798132"><ele>1224.25</ele></trkpt>
   <trkpt lon="6.968973" lat="45.798093"><ele>1223.75</ele></trkpt>
   <trkpt lon="6.968952" lat="45.798048"><ele>1223.25</ele></trkpt>
   <trkpt lon="6.968930" lat="45.797882"><ele>1223.25</ele></trkpt>
   <trkpt lon="6.968922" lat="45.797809"><ele>1223.25</ele></trkpt>
   <trkpt lon="6.968881" lat="45.797436"><ele>1222.5</ele></trkpt>
   <trkpt lon="6.969014" lat="45.797110"><ele>1222.25</ele></trkpt>
   <trkpt lon="6.969070" lat="45.797021"><ele>1223.25</ele></trkpt>
   <trkpt lon="6.969212" lat="45.796797"><ele>1223.25</ele></trkpt>
   <trkpt lon="6.969184" lat="45.796580"><ele>1222.75</ele></trkpt>
   <trkpt lon="6.969169" lat="45.796359"><ele>1222.0</ele></trkpt>
   <trkpt lon="6.969249" lat="45.796391"><ele>1222.5</ele></trkpt>
   <trkpt lon="6.969418" lat="45.796407"><ele>1223.75</ele></trkpt>
   <trkpt lon="6.969567" lat="45.796411"><ele>1224.75</ele></trkpt>
   <trkpt lon="6.969735" lat="45.796400"><ele>1226.0</ele></trkpt>
   <trkpt lon="6.969888" lat="45.796382"><ele>1227.75</ele></trkpt>
   <trkpt lon="6.969917" lat="45.796371"><ele>1228.0</ele></trkpt>
   <trkpt lon="6.969893" lat="45.796304"><ele>1227.5</ele></trkpt>
   <trkpt lon="6.969961" lat="45.796300"><ele>1228.25</ele></trkpt>
   <trkpt lon="6.970014" lat="45.796444"><ele>1229.25</ele></trkpt>
   <trkpt lon="6.970027" lat="45.796533"><ele>1229.5</ele></trkpt>
   <trkpt lon="6.970157" lat="45.796607"><ele>1230.75</ele></trkpt>
   <trkpt lon="6.970199" lat="45.796675"><ele>1231.25</ele></trkpt>
   <trkpt lon="6.970202" lat="45.796724"><ele>1231.75</ele></trkpt>
   <trkpt lon="6.970328" lat="45.796778"><ele>1233.0</ele></trkpt>
   <trkpt lon="6.970441" lat="45.796816"><ele>1234.25</ele></trkpt>
   <trkpt lon="6.970657" lat="45.796873"><ele>1236.0</ele></trkpt>
   <trkpt lon="6.970851" lat="45.796951"><ele>1238.0</ele></trkpt>
   <trkpt lon="6.970776" lat="45.797099"><ele>1238.0</ele></trkpt>
   <trkpt lon="6.970813" lat="45.797141"><ele>1238.5</ele></trkpt>
   <trkpt lon="6.971014" lat="45.797233"><ele>1241.0</ele></trkpt>
   <trkpt lon="6.971095" lat="45.797295"><ele>1242.25</ele></trkpt>
   <trkpt lon="6.971372" lat="45.797379"><ele>1245.0</ele></trkpt>
   <trkpt lon="6.971458" lat="45.797409"><ele>1247.0</ele></trkpt>
   <trkpt lon="6.971383" lat="45.797488"><ele>1247.5</ele></trkpt>
   <trkpt lon="6.971205" lat="45.797758"><ele>1248.0</ele></trkpt>
   <trkpt lon="6.971173" lat="45.797847"><ele>1247.75</ele></trkpt>
   <trkpt lon="6.971269" lat="45.797853"><ele>1249.0</ele></trkpt>
   <trkpt lon="6.971436" lat="45.797878"><ele>1250.75</ele></trkpt>
   <trkpt lon="6.971768" lat="45.797900"><ele>1253.25</ele></trkpt>
   <trkpt lon="6.971857" lat="45.797931"><ele>1254.25</ele></trkpt>
   <trkpt lon="6.972105" lat="45.798014"><ele>1256.75</ele></trkpt>
   <trkpt lon="6.972219" lat="45.798067"><ele>1258.0</ele></trkpt>
   <trkpt lon="6.972347" lat="45.798139"><ele>1260.25</ele></trkpt>
   <trkpt lon="6.972445" lat="45.798174"><ele>1261.5</ele></trkpt>
   <trkpt lon="6.972546" lat="45.798187"><ele>1262.75</ele></trkpt>
   <trkpt lon="6.972750" lat="45.798173"><ele>1264.5</ele></trkpt>
   <trkpt lon="6.972878" lat="45.798176"><ele>1265.5</ele></trkpt>
   <trkpt lon="6.973002" lat="45.798206"><ele>1266.5</ele></trkpt>
   <trkpt lon="6.973765" lat="45.798507"><ele>1273.5</ele></trkpt>
   <trkpt lon="6.974009" lat="45.798588"><ele>1276.0</ele></trkpt>
   <trkpt lon="6.974368" lat="45.798646"><ele>1279.5</ele></trkpt>
   <trkpt lon="6.974969" lat="45.798799"><ele>1284.75</ele></trkpt>
   <trkpt lon="6.975031" lat="45.798813"><ele>1285.25</ele></trkpt>
   <trkpt lon="6.975339" lat="45.798966"><ele>1288.75</ele></trkpt>
   <trkpt lon="6.975610" lat="45.799092"><ele>1291.75</ele></trkpt>
   <trkpt lon="6.975954" lat="45.799239"><ele>1295.0</ele></trkpt>
   <trkpt lon="6.976261" lat="45.799398"><ele>1298.0</ele></trkpt>
   <trkpt lon="6.976419" lat="45.799508"><ele>1300.0</ele></trkpt>
   <trkpt lon="6.976488" lat="45.799529"><ele>1301.25</ele></trkpt>
   <trkpt lon="6.977004" lat="45.799605"><ele>1307.75</ele></trkpt>
   <trkpt lon="6.977065" lat="45.799604"><ele>1307.25</ele></trkpt>
   <trkpt lon="6.977182" lat="45.799543"><ele>1306.25</ele></trkpt>
   <trkpt lon="6.977477" lat="45.799475"><ele>1308.0</ele></trkpt>
   <trkpt lon="6.977805" lat="45.799380"><ele>1310.0</ele></trkpt>
   <trkpt lon="6.977962" lat="45.799297"><ele>1311.0</ele></trkpt>
   <trkpt lon="6.978128" lat="45.799245"><ele>1312.0</ele></trkpt>
   <trkpt lon="6.978224" lat="45.799237"><ele>1312.5</ele></trkpt>
   <trkpt lon="6.978421" lat="45.799341"><ele>1315.0</ele></trkpt>
   <trkpt lon="6.978440" lat="45.799328"><ele>1315.0</ele></trkpt>
   <trkpt lon="6.978548" lat="45.799257"><ele>1315.25</ele></trkpt>
   <trkpt lon="6.978681" lat="45.799203"><ele>1315.5</ele></trkpt>
   <trkpt lon="6.978831" lat="45.799168"><ele>1315.75</ele></trkpt>
   <trkpt lon="6.979011" lat="45.799113"><ele>1317.25</ele></trkpt>
   <trkpt lon="6.979238" lat="45.798999"><ele>1320.75</ele></trkpt>
   <trkpt lon="6.979343" lat="45.798964"><ele>1324.5</ele></trkpt>
   <trkpt lon="6.979417" lat="45.798986"><ele>1327.75</ele></trkpt>
   <trkpt lon="6.979441" lat="45.799005"><ele>1328.75</ele></trkpt>
   <trkpt lon="6.979442" lat="45.799035"><ele>1328.75</ele></trkpt>
   <trkpt lon="6.979432" lat="45.799065"><ele>1328.5</ele></trkpt>
   <trkpt lon="6.979596" lat="45.799254"><ele>1337.5</ele></trkpt>
   <trkpt lon="6.979627" lat="45.799393"><ele>1337.0</ele></trkpt>
   <trkpt lon="6.979722" lat="45.799574"><ele>1340.5</ele></trkpt>
   <trkpt lon="6.979652" lat="45.799704"><ele>1336.75</ele></trkpt>
   <trkpt lon="6.979705" lat="45.799841"><ele>1336.75</ele></trkpt>
   <trkpt lon="6.979863" lat="45.799967"><ele>1340.75</ele></trkpt>
   <trkpt lon="6.980080" lat="45.800083"><ele>1347.0</ele></trkpt>
   <trkpt lon="6.980506" lat="45.800299"><ele>1350.75</ele></trkpt>
   <trkpt lon="6.980776" lat="45.800418"><ele>1354.25</ele></trkpt>
   <trkpt lon="6.981072" lat="45.800501"><ele>1356.25</ele></trkpt>
   <trkpt lon="6.981348" lat="45.800536"><ele>1358.75</ele></trkpt>
   <trkpt lon="6.981613" lat="45.800587"><ele>1360.5</ele></trkpt>
   <trkpt lon="6.981886" lat="45.800564"><ele>1362.5</ele></trkpt>
   <trkpt lon="6.982114" lat="45.800519"><ele>1367.5</ele></trkpt>
   <trkpt lon="6.982275" lat="45.800532"><ele>1368.75</ele></trkpt>
   <trkpt lon="6.982534" lat="45.800585"><ele>1370.5</ele></trkpt>
   <trkpt lon="6.983012" lat="45.800574"><ele>1377.25</ele></trkpt>
   <trkpt lon="6.983302" lat="45.800668"><ele>1378.75</ele></trkpt>
   <trkpt lon="6.983583" lat="45.800835"><ele>1374.25</ele></trkpt>
   <trkpt lon="6.983729" lat="45.800938"><ele>1375.75</ele></trkpt>
   <trkpt lon="6.983966" lat="45.800982"><ele>1380.25</ele></trkpt>
   <trkpt lon="6.984233" lat="45.801041"><ele>1384.75</ele></trkpt>
   <trkpt lon="6.984324" lat="45.801068"><ele>1385.0</ele></trkpt>
   <trkpt lon="6.984581" lat="45.801217"><ele>1388.25</ele></trkpt>
   <trkpt lon="6.984691" lat="45.801310"><ele>1389.0</ele></trkpt>
   <trkpt lon="6.984690" lat="45.801336"><ele>1388.5</ele></trkpt>
   <trkpt lon="6.984622" lat="45.801408"><ele>1388.0</ele></trkpt>
   <trkpt lon="6.984555" lat="45.801468"><ele>1390.75</ele></trkpt>
   <trkpt lon="6.984519" lat="45.801480"><ele>1391.25</ele></trkpt>
   <trkpt lon="6.984376" lat="45.801495"><ele>1391.25</ele></trkpt>
   <trkpt lon="6.984245" lat="45.801487"><ele>1390.25</ele></trkpt>
   <trkpt lon="6.984194" lat="45.801493"><ele>1390.5</ele></trkpt>
   <trkpt lon="6.984157" lat="45.801504"><ele>1390.75</ele></trkpt>
   <trkpt lon="6.984104" lat="45.801552"><ele>1392.5</ele></trkpt>
   <trkpt lon="6.984075" lat="45.801599"><ele>1394.25</ele></trkpt>
   <trkpt lon="6.984060" lat="45.801693"><ele>1397.75</ele></trkpt>
   <trkpt lon="6.984073" lat="45.801732"><ele>1399.0</ele></trkpt>
   <trkpt lon="6.984060" lat="45.801758"><ele>1399.5</ele></trkpt>
   <trkpt lon="6.984061" lat="45.801809"><ele>1401.0</ele></trkpt>
   <trkpt lon="6.984094" lat="45.801847"><ele>1402.5</ele></trkpt>
   <trkpt lon="6.984139" lat="45.801873"><ele>1403.5</ele></trkpt>
   <trkpt lon="6.984227" lat="45.801895"><ele>1404.75</ele></trkpt>
   <trkpt lon="6.984310" lat="45.801924"><ele>1406.0</ele></trkpt>
   <trkpt lon="6.984338" lat="45.801945"><ele>1406.5</ele></trkpt>
   <trkpt lon="6.984349" lat="45.801968"><ele>1407.75</ele></trkpt>
   <trkpt lon="6.984365" lat="45.802011"><ele>1409.75</ele></trkpt>
   <trkpt lon="6.984387" lat="45.802024"><ele>1410.25</ele></trkpt>
   <trkpt lon="6.984470" lat="45.802037"><ele>1411.0</ele></trkpt>
   <trkpt lon="6.984575" lat="45.802074"><ele>1413.75</ele></trkpt>
   <trkpt lon="6.984779" lat="45.802122"><ele>1417.25</ele></trkpt>
   <trkpt lon="6.984950" lat="45.802172"><ele>1420.5</ele></trkpt>
   <trkpt lon="6.985111" lat="45.802240"><ele>1424.25</ele></trkpt>
   <trkpt lon="6.985268" lat="45.802327"><ele>1428.75</ele></trkpt>
   <trkpt lon="6.985342" lat="45.802358"><ele>1430.25</ele></trkpt>
   <trkpt lon="6.985616" lat="45.802404"><ele>1432.5</ele></trkpt>
   <trkpt lon="6.985720" lat="45.802431"><ele>1433.5</ele></trkpt>
   <trkpt lon="6.985819" lat="45.802467"><ele>1434.75</ele></trkpt>
   <trkpt lon="6.985919" lat="45.802529"><ele>1437.25</ele></trkpt>
   <trkpt lon="6.985944" lat="45.802555"><ele>1438.5</ele></trkpt>
   <trkpt lon="6.985952" lat="45.802587"><ele>1440.25</ele></trkpt>
   <trkpt lon="6.985928" lat="45.802615"><ele>1441.5</ele></trkpt>
   <trkpt lon="6.985778" lat="45.802636"><ele>1442.25</ele></trkpt>
   <trkpt lon="6.985622" lat="45.802670"><ele>1443.75</ele></trkpt>
   <trkpt lon="6.985511" lat="45.802717"><ele>1445.5</ele></trkpt>
   <trkpt lon="6.985497" lat="45.802740"><ele>1446.5</ele></trkpt>
   <trkpt lon="6.985495" lat="45.802782"><ele>1448.0</ele></trkpt>
   <trkpt lon="6.985510" lat="45.802809"><ele>1448.25</ele></trkpt>
   <trkpt lon="6.985593" lat="45.802887"><ele>1449.0</ele></trkpt>
   <trkpt lon="6.985669" lat="45.802936"><ele>1450.75</ele></trkpt>
   <trkpt lon="6.985798" lat="45.802960"><ele>1453.5</ele></trkpt>
   <trkpt lon="6.986035" lat="45.802940"><ele>1457.5</ele></trkpt>
   <trkpt lon="6.986145" lat="45.802943"><ele>1459.5</ele></trkpt>
   <trkpt lon="6.986244" lat="45.802936"><ele>1460.0</ele></trkpt>
   <trkpt lon="6.986377" lat="45.802946"><ele>1461.75</ele></trkpt>
   <trkpt lon="6.986529" lat="45.802971"><ele>1463.75</ele></trkpt>
   <trkpt lon="6.986754" lat="45.803026"><ele>1465.5</ele></trkpt>
   <trkpt lon="6.986840" lat="45.803101"><ele>1467.5</ele></trkpt>
   <trkpt lon="6.986782" lat="45.803145"><ele>1470.0</ele></trkpt>
   <trkpt lon="6.986672" lat="45.803161"><ele>1472.25</ele></trkpt>
   <trkpt lon="6.986639" lat="45.803203"><ele>1473.75</ele></trkpt>
   <trkpt lon="6.986573" lat="45.803232"><ele>1474.5</ele></trkpt>
   <trkpt lon="6.986550" lat="45.803291"><ele>1476.5</ele></trkpt>
   <trkpt lon="6.986485" lat="45.803330"><ele>1477.75</ele></trkpt>
   <trkpt lon="6.986402" lat="45.803397"><ele>1480.0</ele></trkpt>
   <trkpt lon="6.986253" lat="45.803471"><ele>1482.0</ele></trkpt>
   <trkpt lon="6.986169" lat="45.803523"><ele>1483.5</ele></trkpt>
   <trkpt lon="6.986096" lat="45.803587"><ele>1485.25</ele></trkpt>
   <trkpt lon="6.986052" lat="45.803655"><ele>1488.75</ele></trkpt>
   <trkpt lon="6.986101" lat="45.803704"><ele>1492.0</ele></trkpt>
   <trkpt lon="6.986169" lat="45.803728"><ele>1493.5</ele></trkpt>
   <trkpt lon="6.986267" lat="45.803741"><ele>1494.25</ele></trkpt>
   <trkpt lon="6.986297" lat="45.803799"><ele>1497.75</ele></trkpt>
   <trkpt lon="6.986276" lat="45.803837"><ele>1500.25</ele></trkpt>
   <trkpt lon="6.986061" lat="45.803889"><ele>1504.5</ele></trkpt>
   <trkpt lon="6.986023" lat="45.803918"><ele>1506.5</ele></trkpt>
   <trkpt lon="6.986055" lat="45.803967"><ele>1509.0</ele></trkpt>
   <trkpt lon="6.986134" lat="45.803973"><ele>1508.5</ele></trkpt>
   <trkpt lon="6.986231" lat="45.803966"><ele>1507.75</ele></trkpt>
   <trkpt lon="6.986290" lat="45.803973"><ele>1507.75</ele></trkpt>
   <trkpt lon="6.986312" lat="45.804002"><ele>1509.0</ele></trkpt>
   <trkpt lon="6.986303" lat="45.804035"><ele>1510.75</ele></trkpt>
   <trkpt lon="6.986239" lat="45.804073"><ele>1513.5</ele></trkpt>
   <trkpt lon="6.986215" lat="45.804131"><ele>1516.75</ele></trkpt>
   <trkpt lon="6.986237" lat="45.804188"><ele>1519.25</ele></trkpt>
   <trkpt lon="6.986360" lat="45.804287"><ele>1521.25</ele></trkpt>
   <trkpt lon="6.986446" lat="45.804346"><ele>1522.75</ele></trkpt>
   <trkpt lon="6.986488" lat="45.804390"><ele>1524.25</ele></trkpt>
   <trkpt lon="6.986486" lat="45.804431"><ele>1525.5</ele></trkpt>
   <trkpt lon="6.986440" lat="45.804456"><ele>1526.75</ele></trkpt>
   <trkpt lon="6.986339" lat="45.804460"><ele>1528.25</ele></trkpt>
   <trkpt lon="6.986265" lat="45.804478"><ele>1531.0</ele></trkpt>
   <trkpt lon="6.986265" lat="45.804521"><ele>1533.5</ele></trkpt>
   <trkpt lon="6.986311" lat="45.804565"><ele>1535.5</ele></trkpt>
   <trkpt lon="6.986497" lat="45.804655"><ele>1539.5</ele></trkpt>
   <trkpt lon="6.986560" lat="45.804703"><ele>1541.75</ele></trkpt>
   <trkpt lon="6.986543" lat="45.804776"><ele>1545.25</ele></trkpt>
   <trkpt lon="6.986503" lat="45.804810"><ele>1546.75</ele></trkpt>
   <trkpt lon="6.986440" lat="45.804805"><ele>1547.5</ele></trkpt>
   <trkpt lon="6.986390" lat="45.804823"><ele>1548.75</ele></trkpt>
   <trkpt lon="6.986290" lat="45.804876"><ele>1552.75</ele></trkpt>
   <trkpt lon="6.986170" lat="45.804887"><ele>1555.25</ele></trkpt>
   <trkpt lon="6.986055" lat="45.804884"><ele>1557.5</ele></trkpt>
   <trkpt lon="6.985993" lat="45.804861"><ele>1557.75</ele></trkpt>
   <trkpt lon="6.985887" lat="45.804856"><ele>1559.75</ele></trkpt>
   <trkpt lon="6.985812" lat="45.804846"><ele>1561.0</ele></trkpt>
   <trkpt lon="6.985725" lat="45.804808"><ele>1561.5</ele></trkpt>
   <trkpt lon="6.985641" lat="45.804785"><ele>1562.75</ele></trkpt>
   <trkpt lon="6.985527" lat="45.804770"><ele>1565.25</ele></trkpt>
   <trkpt lon="6.985384" lat="45.804779"><ele>1568.5</ele></trkpt>
   <trkpt lon="6.985304" lat="45.804805"><ele>1571.75</ele></trkpt>
   <trkpt lon="6.985118" lat="45.804762"><ele>1572.0</ele></trkpt>
   <trkpt lon="6.985036" lat="45.804754"><ele>1573.0</ele></trkpt>
   <trkpt lon="6.984984" lat="45.804765"><ele>1574.0</ele></trkpt>
   <trkpt lon="6.984884" lat="45.804842"><ele>1578.25</ele></trkpt>
   <trkpt lon="6.984697" lat="45.804863"><ele>1580.25</ele></trkpt>
   <trkpt lon="6.984560" lat="45.804891"><ele>1583.75</ele></trkpt>
   <trkpt lon="6.984424" lat="45.804930"><ele>1587.75</ele></trkpt>
   <trkpt lon="6.984318" lat="45.804942"><ele>1589.0</ele></trkpt>
   <trkpt lon="6.984200" lat="45.804969"><ele>1591.5</ele></trkpt>
   <trkpt lon="6.984006" lat="45.805091"><ele>1598.75</ele></trkpt>
   <trkpt lon="6.983936" lat="45.805114"><ele>1600.25</ele></trkpt>
   <trkpt lon="6.983803" lat="45.805126"><ele>1601.75</ele></trkpt>
   <trkpt lon="6.983724" lat="45.805108"><ele>1601.0</ele></trkpt>
   <trkpt lon="6.983654" lat="45.805127"><ele>1603.0</ele></trkpt>
   <trkpt lon="6.983618" lat="45.805178"><ele>1607.25</ele></trkpt>
   <trkpt lon="6.983664" lat="45.805211"><ele>1609.25</ele></trkpt>
   <trkpt lon="6.983719" lat="45.805217"><ele>1609.25</ele></trkpt>
   <trkpt lon="6.983896" lat="45.805284"><ele>1612.25</ele></trkpt>
   <trkpt lon="6.984465" lat="45.805531"><ele>1625.0</ele></trkpt>
   <trkpt lon="6.984560" lat="45.805582"><ele>1627.5</ele></trkpt>
   <trkpt lon="6.984609" lat="45.805643"><ele>1631.5</ele></trkpt>
   <trkpt lon="6.984718" lat="45.805714"><ele>1635.25</ele></trkpt>
   <trkpt lon="6.984651" lat="45.805744"><ele>1638.5</ele></trkpt>
   <trkpt lon="6.984623" lat="45.805781"><ele>1641.5</ele></trkpt>
   <trkpt lon="6.984638" lat="45.805806"><ele>1643.0</ele></trkpt>
   <trkpt lon="6.984773" lat="45.805861"><ele>1644.75</ele></trkpt>
   <trkpt lon="6.984611" lat="45.805913"><ele>1650.5</ele></trkpt>
   <trkpt lon="6.984450" lat="45.805898"><ele>1651.5</ele></trkpt>
   <trkpt lon="6.984364" lat="45.805898"><ele>1652.25</ele></trkpt>
   <trkpt lon="6.984299" lat="45.805909"><ele>1653.25</ele></trkpt>
   <trkpt lon="6.984061" lat="45.805961"><ele>1658.0</ele></trkpt>
   <trkpt lon="6.983973" lat="45.806025"><ele>1662.5</ele></trkpt>
   <trkpt lon="6.983808" lat="45.806030"><ele>1664.25</ele></trkpt>
   <trkpt lon="6.983764" lat="45.806038"><ele>1665.0</ele></trkpt>
   <trkpt lon="6.983713" lat="45.806060"><ele>1666.75</ele></trkpt>
   <trkpt lon="6.983729" lat="45.806097"><ele>1669.0</ele></trkpt>
   <trkpt lon="6.983839" lat="45.806161"><ele>1671.75</ele></trkpt>
   <trkpt lon="6.983882" lat="45.806205"><ele>1673.75</ele></trkpt>
   <trkpt lon="6.983978" lat="45.806329"><ele>1679.0</ele></trkpt>
   <trkpt lon="6.984099" lat="45.806411"><ele>1681.75</ele></trkpt>
   <trkpt lon="6.984126" lat="45.806458"><ele>1684.0</ele></trkpt>
   <trkpt lon="6.984107" lat="45.806479"><ele>1685.25</ele></trkpt>
   <trkpt lon="6.983944" lat="45.806475"><ele>1686.5</ele></trkpt>
   <trkpt lon="6.983686" lat="45.806452"><ele>1690.0</ele></trkpt>
   <trkpt lon="6.983593" lat="45.806457"><ele>1692.0</ele></trkpt>
   <trkpt lon="6.983563" lat="45.806464"><ele>1692.75</ele></trkpt>
   <trkpt lon="6.983586" lat="45.806499"><ele>1694.5</ele></trkpt>
   <trkpt lon="6.983635" lat="45.806531"><ele>1695.5</ele></trkpt>
   <trkpt lon="6.983722" lat="45.806609"><ele>1697.5</ele></trkpt>
   <trkpt lon="6.983691" lat="45.806634"><ele>1699.75</ele></trkpt>
   <trkpt lon="6.983600" lat="45.806615"><ele>1701.0</ele></trkpt>
   <trkpt lon="6.983418" lat="45.806589"><ele>1702.0</ele></trkpt>
   <trkpt lon="6.983343" lat="45.806603"><ele>1703.75</ele></trkpt>
   <trkpt lon="6.983346" lat="45.806625"><ele>1705.25</ele></trkpt>
   <trkpt lon="6.983398" lat="45.806657"><ele>1706.25</ele></trkpt>
   <trkpt lon="6.983450" lat="45.806702"><ele>1708.75</ele></trkpt>
   <trkpt lon="6.983496" lat="45.806718"><ele>1709.25</ele></trkpt>
   <trkpt lon="6.983587" lat="45.806736"><ele>1709.0</ele></trkpt>
   <trkpt lon="6.983624" lat="45.806779"><ele>1711.25</ele></trkpt>
   <trkpt lon="6.983595" lat="45.806796"><ele>1713.0</ele></trkpt>
   <trkpt lon="6.983385" lat="45.806815"><ele>1718.25</ele></trkpt>
   <trkpt lon="6.983252" lat="45.806806"><ele>1720.75</ele></trkpt>
   <trkpt lon="6.982985" lat="45.806701"><ele>1723.5</ele></trkpt>
   <trkpt lon="6.982884" lat="45.806613"><ele>1722.5</ele></trkpt>
   <trkpt lon="6.982742" lat="45.806564"><ele>1725.75</ele></trkpt>
   <trkpt lon="6.982659" lat="45.806488"><ele>1724.0</ele></trkpt>
   <trkpt lon="6.982567" lat="45.806441"><ele>1725.5</ele></trkpt>
   <trkpt lon="6.982481" lat="45.806375"><ele>1725.25</ele></trkpt>
   <trkpt lon="6.982376" lat="45.806342"><ele>1725.75</ele></trkpt>
   <trkpt lon="6.982311" lat="45.806338"><ele>1727.25</ele></trkpt>
   <trkpt lon="6.982244" lat="45.806352"><ele>1730.5</ele></trkpt>
   <trkpt lon="6.982184" lat="45.806382"><ele>1734.25</ele></trkpt>
   <trkpt lon="6.981944" lat="45.806412"><ele>1742.5</ele></trkpt>
   <trkpt lon="6.981887" lat="45.806447"><ele>1746.0</ele></trkpt>
   <trkpt lon="6.981909" lat="45.806467"><ele>1746.75</ele></trkpt>
   <trkpt lon="6.981991" lat="45.806514"><ele>1748.25</ele></trkpt>
   <trkpt lon="6.982093" lat="45.806553"><ele>1748.75</ele></trkpt>
   <trkpt lon="6.982266" lat="45.806654"><ele>1751.0</ele></trkpt>
   <trkpt lon="6.982293" lat="45.806724"><ele>1754.5</ele></trkpt>
   <trkpt lon="6.982209" lat="45.806710"><ele>1756.75</ele></trkpt>
   <trkpt lon="6.982153" lat="45.806723"><ele>1758.75</ele></trkpt>
   <trkpt lon="6.982156" lat="45.806766"><ele>1761.5</ele></trkpt>
   <trkpt lon="6.982208" lat="45.806809"><ele>1763.0</ele></trkpt>
   <trkpt lon="6.982239" lat="45.806874"><ele>1766.0</ele></trkpt>
   <trkpt lon="6.982320" lat="45.806914"><ele>1765.5</ele></trkpt>
   <trkpt lon="6.982375" lat="45.807018"><ele>1770.25</ele></trkpt>
   <trkpt lon="6.982392" lat="45.807093"><ele>1774.75</ele></trkpt>
   <trkpt lon="6.982349" lat="45.807115"><ele>1777.75</ele></trkpt>
   <trkpt lon="6.982262" lat="45.807088"><ele>1778.75</ele></trkpt>
   <trkpt lon="6.982219" lat="45.807121"><ele>1782.5</ele></trkpt>
   <trkpt lon="6.982127" lat="45.807093"><ele>1782.25</ele></trkpt>
   <trkpt lon="6.982053" lat="45.807084"><ele>1783.25</ele></trkpt>
   <trkpt lon="6.981937" lat="45.807103"><ele>1786.75</ele></trkpt>
   <trkpt lon="6.981903" lat="45.807123"><ele>1788.5</ele></trkpt>
   <trkpt lon="6.981915" lat="45.807174"><ele>1791.5</ele></trkpt>
   <trkpt lon="6.981804" lat="45.807161"><ele>1792.75</ele></trkpt>
   <trkpt lon="6.981479" lat="45.807161"><ele>1800.5</ele></trkpt>
   <trkpt lon="6.981398" lat="45.807151"><ele>1802.0</ele></trkpt>
   <trkpt lon="6.981066" lat="45.807146"><ele>1814.0</ele></trkpt>
   <trkpt lon="6.981012" lat="45.807122"><ele>1814.75</ele></trkpt>
   <trkpt lon="6.980919" lat="45.807031"><ele>1812.25</ele></trkpt>
   <trkpt lon="6.980851" lat="45.807016"><ele>1814.5</ele></trkpt>
   <trkpt lon="6.980689" lat="45.807028"><ele>1819.75</ele></trkpt>
   <trkpt lon="6.980623" lat="45.807019"><ele>1820.5</ele></trkpt>
   <trkpt lon="6.980571" lat="45.807004"><ele>1820.5</ele></trkpt>
   <trkpt lon="6.980557" lat="45.806991"><ele>1819.75</ele></trkpt>
   <trkpt lon="6.980514" lat="45.806975"><ele>1819.5</ele></trkpt>
   <trkpt lon="6.980416" lat="45.806955"><ele>1820.25</ele></trkpt>
   <trkpt lon="6.980271" lat="45.806955"><ele>1824.0</ele></trkpt>
   <trkpt lon="6.980225" lat="45.806965"><ele>1825.75</ele></trkpt>
   <trkpt lon="6.980244" lat="45.806985"><ele>1827.0</ele></trkpt>
   <trkpt lon="6.980310" lat="45.807025"><ele>1828.5</ele></trkpt>
   <trkpt lon="6.980248" lat="45.807031"><ele>1830.5</ele></trkpt>
   <trkpt lon="6.980162" lat="45.807012"><ele>1831.25</ele></trkpt>
   <trkpt lon="6.980031" lat="45.807010"><ele>1834.5</ele></trkpt>
   <trkpt lon="6.979984" lat="45.807040"><ele>1838.0</ele></trkpt>
   <trkpt lon="6.979964" lat="45.807074"><ele>1841.25</ele></trkpt>
   <trkpt lon="6.979899" lat="45.807049"><ele>1840.5</ele></trkpt>
   <trkpt lon="6.979857" lat="45.807063"><ele>1842.5</ele></trkpt>
   <trkpt lon="6.979742" lat="45.807035"><ele>1842.75</ele></trkpt>
   <trkpt lon="6.979465" lat="45.807034"><ele>1849.5</ele></trkpt>
   <trkpt lon="6.979350" lat="45.807013"><ele>1851.75</ele></trkpt>
   <trkpt lon="6.979243" lat="45.807012"><ele>1855.5</ele></trkpt>
   <trkpt lon="6.979136" lat="45.806994"><ele>1857.25</ele></trkpt>
   <trkpt lon="6.979027" lat="45.806961"><ele>1857.5</ele></trkpt>
   <trkpt lon="6.978932" lat="45.806949"><ele>1859.0</ele></trkpt>
   <trkpt lon="6.978875" lat="45.806953"><ele>1861.0</ele></trkpt>
   <trkpt lon="6.978825" lat="45.806968"><ele>1863.5</ele></trkpt>
   <trkpt lon="6.978816" lat="45.806994"><ele>1866.0</ele></trkpt>
   <trkpt lon="6.978837" lat="45.807023"><ele>1868.0</ele></trkpt>
   <trkpt lon="6.978886" lat="45.807055"><ele>1869.5</ele></trkpt>
   <trkpt lon="6.978874" lat="45.807076"><ele>1871.5</ele></trkpt>
   <trkpt lon="6.978778" lat="45.807064"><ele>1872.75</ele></trkpt>
   <trkpt lon="6.978742" lat="45.807050"><ele>1872.5</ele></trkpt>
   <trkpt lon="6.978685" lat="45.807016"><ele>1871.0</ele></trkpt>
   <trkpt lon="6.978621" lat="45.806992"><ele>1870.5</ele></trkpt>
   <trkpt lon="6.978570" lat="45.807015"><ele>1873.25</ele></trkpt>
   <trkpt lon="6.978578" lat="45.807087"><ele>1879.0</ele></trkpt>
   <trkpt lon="6.978555" lat="45.807096"><ele>1880.0</ele></trkpt>
   <trkpt lon="6.978484" lat="45.807063"><ele>1878.25</ele></trkpt>
   <trkpt lon="6.978349" lat="45.807071"><ele>1880.25</ele></trkpt>
   <trkpt lon="6.978239" lat="45.807082"><ele>1879.0</ele></trkpt>
   <trkpt lon="6.978165" lat="45.807100"><ele>1879.0</ele></trkpt>
   <trkpt lon="6.978099" lat="45.807136"><ele>1881.25</ele></trkpt>
   <trkpt lon="6.978043" lat="45.807136"><ele>1880.25</ele></trkpt>
   <trkpt lon="6.978023" lat="45.807146"><ele>1881.0</ele></trkpt>
   <trkpt lon="6.977979" lat="45.807173"><ele>1883.25</ele></trkpt>
   <trkpt lon="6.978005" lat="45.807195"><ele>1886.25</ele></trkpt>
   <trkpt lon="6.978143" lat="45.807237"><ele>1891.0</ele></trkpt>
   <trkpt lon="6.978283" lat="45.807265"><ele>1893.25</ele></trkpt>
   <trkpt lon="6.978303" lat="45.807292"><ele>1895.0</ele></trkpt>
   <trkpt lon="6.978124" lat="45.807360"><ele>1898.5</ele></trkpt>
   <trkpt lon="6.978083" lat="45.807389"><ele>1900.25</ele></trkpt>
   <trkpt lon="6.977947" lat="45.807447"><ele>1903.25</ele></trkpt>
   <trkpt lon="6.977913" lat="45.807484"><ele>1905.75</ele></trkpt>
   <trkpt lon="6.978011" lat="45.807510"><ele>1907.5</ele></trkpt>
   <trkpt lon="6.978156" lat="45.807530"><ele>1908.75</ele></trkpt>
   <trkpt lon="6.978407" lat="45.807558"><ele>1911.5</ele></trkpt>
   <trkpt lon="6.978459" lat="45.807571"><ele>1912.75</ele></trkpt>
   <trkpt lon="6.978502" lat="45.807611"><ele>1915.75</ele></trkpt>
   <trkpt lon="6.978397" lat="45.807700"><ele>1919.25</ele></trkpt>
   <trkpt lon="6.978324" lat="45.807748"><ele>1920.25</ele></trkpt>
   <trkpt lon="6.978196" lat="45.807821"><ele>1923.75</ele></trkpt>
   <trkpt lon="6.978069" lat="45.807864"><ele>1925.0</ele></trkpt>
   <trkpt lon="6.977948" lat="45.807868"><ele>1927.25</ele></trkpt>
   <trkpt lon="6.977871" lat="45.807841"><ele>1927.75</ele></trkpt>
   <trkpt lon="6.977804" lat="45.807805"><ele>1928.0</ele></trkpt>
   <trkpt lon="6.977706" lat="45.807794"><ele>1929.5</ele></trkpt>
   <trkpt lon="6.977640" lat="45.807775"><ele>1930.25</ele></trkpt>
   <trkpt lon="6.977355" lat="45.807814"><ele>1936.0</ele></trkpt>
   <trkpt lon="6.977277" lat="45.807844"><ele>1938.0</ele></trkpt>
   <trkpt lon="6.977274" lat="45.807884"><ele>1939.25</ele></trkpt>
   <trkpt lon="6.977441" lat="45.808111"><ele>1941.75</ele></trkpt>
   <trkpt lon="6.977512" lat="45.808231"><ele>1943.25</ele></trkpt>
   <trkpt lon="6.977528" lat="45.808285"><ele>1944.75</ele></trkpt>
   <trkpt lon="6.977575" lat="45.808320"><ele>1945.75</ele></trkpt>
   <trkpt lon="6.977734" lat="45.808391"><ele>1950.25</ele></trkpt>
   <trkpt lon="6.978034" lat="45.808429"><ele>1954.5</ele></trkpt>
   <trkpt lon="6.978154" lat="45.808462"><ele>1957.75</ele></trkpt>
   <trkpt lon="6.978265" lat="45.808497"><ele>1960.0</ele></trkpt>
   <trkpt lon="6.978339" lat="45.808542"><ele>1961.25</ele></trkpt>
   <trkpt lon="6.978432" lat="45.808714"><ele>1965.0</ele></trkpt>
   <trkpt lon="6.978463" lat="45.808865"><ele>1970.0</ele></trkpt>
   <trkpt lon="6.978725" lat="45.808940"><ele>1973.25</ele></trkpt>
   <trkpt lon="6.978441" lat="45.809010"><ele>1977.5</ele></trkpt>
   <trkpt lon="6.978589" lat="45.809096"><ele>1980.5</ele></trkpt>
   <trkpt lon="6.978598" lat="45.809195"><ele>1985.25</ele></trkpt>
   <trkpt lon="6.978858" lat="45.809401"><ele>1991.75</ele></trkpt>
   <trkpt lon="6.978857" lat="45.809447"><ele>1993.25</ele></trkpt>
   <trkpt lon="6.979014" lat="45.809560"><ele>1998.75</ele></trkpt>
   <trkpt lon="6.979325" lat="45.809620"><ele>2001.5</ele></trkpt>
   <trkpt lon="6.979524" lat="45.809610"><ele>2002.75</ele></trkpt>
   <trkpt lon="6.979584" lat="45.809613"><ele>2003.5</ele></trkpt>
   <trkpt lon="6.979595" lat="45.809632"><ele>2004.5</ele></trkpt>
   <trkpt lon="6.979578" lat="45.809673"><ele>2006.0</ele></trkpt>
   <trkpt lon="6.979600" lat="45.809723"><ele>2008.0</ele></trkpt>
   <trkpt lon="6.979704" lat="45.809733"><ele>2008.25</ele></trkpt>
   <trkpt lon="6.979753" lat="45.809773"><ele>2009.75</ele></trkpt>
   <trkpt lon="6.979763" lat="45.809827"><ele>2012.0</ele></trkpt>
   <trkpt lon="6.979785" lat="45.809881"><ele>2014.25</ele></trkpt>
   <trkpt lon="6.979833" lat="45.809911"><ele>2015.5</ele></trkpt>
   <trkpt lon="6.979906" lat="45.809920"><ele>2015.5</ele></trkpt>
   <trkpt lon="6.979997" lat="45.809948"><ele>2016.25</ele></trkpt>
   <trkpt lon="6.979989" lat="45.810090"><ele>2022.5</ele></trkpt>
   <trkpt lon="6.980049" lat="45.810174"><ele>2026.0</ele></trkpt>
   <trkpt lon="6.980056" lat="45.810216"><ele>2027.75</ele></trkpt>
   <trkpt lon="6.980032" lat="45.810252"><ele>2029.0</ele></trkpt>
   <trkpt lon="6.979856" lat="45.810310"><ele>2032.75</ele></trkpt>
   <trkpt lon="6.979800" lat="45.810363"><ele>2034.0</ele></trkpt>
   <trkpt lon="6.979726" lat="45.810387"><ele>2034.75</ele></trkpt>
   <trkpt lon="6.979683" lat="45.810421"><ele>2034.5</ele></trkpt>
   <trkpt lon="6.979675" lat="45.810455"><ele>2034.75</ele></trkpt>
   <trkpt lon="6.979679" lat="45.810535"><ele>2035.25</ele></trkpt>
   <trkpt lon="6.979718" lat="45.810619"><ele>2035.5</ele></trkpt>
   <trkpt lon="6.979726" lat="45.810832"><ele>2035.0</ele></trkpt>
   <trkpt lon="6.979652" lat="45.810887"><ele>2034.0</ele></trkpt>
   <trkpt lon="6.979585" lat="45.811020"><ele>2037.5</ele></trkpt>
   <trkpt lon="6.979453" lat="45.811115"><ele>2037.25</ele></trkpt>
   <trkpt lon="6.979356" lat="45.811218"><ele>2037.25</ele></trkpt>
   <trkpt lon="6.979097" lat="45.811317"><ele>2031.5</ele></trkpt>
   <trkpt lon="6.978960" lat="45.811458"><ele>2032.75</ele></trkpt>
   <trkpt lon="6.978749" lat="45.811545"><ele>2027.5</ele></trkpt>
   <trkpt lon="6.978589" lat="45.811652"><ele>2024.0</ele></trkpt>
   <trkpt lon="6.978535" lat="45.811759"><ele>2024.5</ele></trkpt>
   <trkpt lon="6.978527" lat="45.811883"><ele>2028.0</ele></trkpt>
   <trkpt lon="6.978428" lat="45.812018"><ele>2026.5</ele></trkpt>
   <trkpt lon="6.978366" lat="45.812223"><ele>2026.5</ele></trkpt>
   <trkpt lon="6.978362" lat="45.812367"><ele>2025.75</ele></trkpt>
   <trkpt lon="6.978373" lat="45.812546"><ele>2024.75</ele></trkpt>
   <trkpt lon="6.978418" lat="45.812727"><ele>2024.25</ele></trkpt>
   <trkpt lon="6.978402" lat="45.812860"><ele>2024.5</ele></trkpt>
  </trkseg>
  </trk>
</gpx>
