<?xml version="1.0" encoding="UTF-8"?>
<gpx xmlns="http://www.topografix.com/GPX/1/1" xmlns:xsi="http://www.w3.org/2001/XMLSchema-instance" xsi:schemaLocation="http://www.topografix.com/GPX/1/1 http://www.topografix.com/GPX/1/1/gpx.xsd" version="1.1" creator="tmb2027 build-gpx (BRouter hiking-mountain)">
  <metadata>
    <name>TMB 2027 Day 2 · Les Contamines → Nant Borrant → Refuge de la Balme</name>
    <desc>레 콩타민 → 낭 보랑 → 라 발므 · 경유 4지점 · 참고용 산길 경로. 실제 길 찾기는 공식 지도·현장 표지 우선.</desc>
    <copyright author="OpenStreetMap contributors"><license>https://www.openstreetmap.org/copyright</license></copyright>
    <link href="https://brouter.de/"><text>Routing: BRouter hiking-mountain</text></link>
    <time>2026-09-18T00:00:00Z</time>
  </metadata>
  <wpt lat="45.822" lon="6.727"><ele>1164</ele><name>Les Contamines-Montjoie</name><type>lodging</type></wpt>
  <wpt lat="45.781" lon="6.718"><ele>1210</ele><name>Notre-Dame de la Gorge</name><type>waypoint</type></wpt>
  <wpt lat="45.767" lon="6.72"><ele>1460</ele><name>Nant Borrant</name><type>waypoint</type></wpt>
  <wpt lat="45.751" lon="6.729"><ele>1706</ele><name>Refuge de la Balme</name><type>lodging</type></wpt>
  <trk>
    <name>TMB 2027 Day 2 · Les Contamines → Nant Borrant → Refuge de la Balme</name>
    <trkseg>
   <trkpt lon="6.726983" lat="45.821998"><ele>1161.25</ele></trkpt>
   <trkpt lon="6.726970" lat="45.822093"><ele>1161.25</ele></trkpt>
   <trkpt lon="6.726965" lat="45.822126"><ele>1161.0</ele></trkpt>
   <trkpt lon="6.726959" lat="45.822161"><ele>1161.0</ele></trkpt>
   <trkpt lon="6.726904" lat="45.822158"><ele>1160.25</ele></trkpt>
   <trkpt lon="6.726851" lat="45.822153"><ele>1159.5</ele></trkpt>
   <trkpt lon="6.726705" lat="45.822137"><ele>1157.25</ele></trkpt>
   <trkpt lon="6.726678" lat="45.822124"><ele>1156.75</ele></trkpt>
   <trkpt lon="6.726674" lat="45.822096"><ele>1156.5</ele></trkpt>
   <trkpt lon="6.726691" lat="45.822030"><ele>1156.5</ele></trkpt>
   <trkpt lon="6.726742" lat="45.821803"><ele>1156.25</ele></trkpt>
   <trkpt lon="6.726738" lat="45.821754"><ele>1156.0</ele></trkpt>
   <trkpt lon="6.726712" lat="45.821726"><ele>1155.25</ele></trkpt>
   <trkpt lon="6.726751" lat="45.821623"><ele>1155.5</ele></trkpt>
   <trkpt lon="6.726881" lat="45.821274"><ele>1155.25</ele></trkpt>
   <trkpt lon="6.726943" lat="45.821184"><ele>1155.75</ele></trkpt>
   <trkpt lon="6.727041" lat="45.821151"><ele>1157.0</ele></trkpt>
   <trkpt lon="6.727117" lat="45.821160"><ele>1158.5</ele></trkpt>
   <trkpt lon="6.727326" lat="45.821214"><ele>1162.0</ele></trkpt>
   <trkpt lon="6.727378" lat="45.821128"><ele>1162.25</ele></trkpt>
   <trkpt lon="6.727423" lat="45.821059"><ele>1162.25</ele></trkpt>
   <trkpt lon="6.727486" lat="45.820896"><ele>1162.0</ele></trkpt>
   <trkpt lon="6.727510" lat="45.820758"><ele>1161.25</ele></trkpt>
   <trkpt lon="6.727517" lat="45.820506"><ele>1158.25</ele></trkpt>
   <trkpt lon="6.727509" lat="45.820262"><ele>1154.75</ele></trkpt>
   <trkpt lon="6.727508" lat="45.820223"><ele>1154.5</ele></trkpt>
   <trkpt lon="6.727507" lat="45.820158"><ele>1153.75</ele></trkpt>
   <trkpt lon="6.727505" lat="45.820107"><ele>1153.0</ele></trkpt>
   <trkpt lon="6.727530" lat="45.820013"><ele>1152.5</ele></trkpt>
   <trkpt lon="6.727578" lat="45.819905"><ele>1152.0</ele></trkpt>
   <trkpt lon="6.727650" lat="45.819800"><ele>1152.0</ele></trkpt>
   <trkpt lon="6.728137" lat="45.819193"><ele>1151.25</ele></trkpt>
   <trkpt lon="6.728317" lat="45.818960"><ele>1151.25</ele></trkpt>
   <trkpt lon="6.728383" lat="45.818873"><ele>1151.25</ele></trkpt>
   <trkpt lon="6.728393" lat="45.818859"><ele>1151.25</ele></trkpt>
   <trkpt lon="6.728471" lat="45.818734"><ele>1150.75</ele></trkpt>
   <trkpt lon="6.728498" lat="45.818665"><ele>1150.5</ele></trkpt>
   <trkpt lon="6.728516" lat="45.818541"><ele>1149.75</ele></trkpt>
   <trkpt lon="6.728405" lat="45.818406"><ele>1145.75</ele></trkpt>
   <trkpt lon="6.728324" lat="45.818347"><ele>1142.75</ele></trkpt>
   <trkpt lon="6.728307" lat="45.818334"><ele>1142.25</ele></trkpt>
   <trkpt lon="6.728230" lat="45.818275"><ele>1141.25</ele></trkpt>
   <trkpt lon="6.728160" lat="45.818195"><ele>1140.25</ele></trkpt>
   <trkpt lon="6.728112" lat="45.818106"><ele>1140.0</ele></trkpt>
   <trkpt lon="6.728038" lat="45.817995"><ele>1139.5</ele></trkpt>
   <trkpt lon="6.727979" lat="45.817949"><ele>1139.75</ele></trkpt>
   <trkpt lon="6.727906" lat="45.817927"><ele>1139.5</ele></trkpt>
   <trkpt lon="6.727825" lat="45.817927"><ele>1139.0</ele></trkpt>
   <trkpt lon="6.727644" lat="45.817962"><ele>1139.0</ele></trkpt>
   <trkpt lon="6.727438" lat="45.817958"><ele>1139.5</ele></trkpt>
   <trkpt lon="6.727481" lat="45.817776"><ele>1141.0</ele></trkpt>
   <trkpt lon="6.727539" lat="45.817606"><ele>1142.0</ele></trkpt>
   <trkpt lon="6.727588" lat="45.817365"><ele>1144.75</ele></trkpt>
   <trkpt lon="6.727600" lat="45.817140"><ele>1148.25</ele></trkpt>
   <trkpt lon="6.727573" lat="45.817044"><ele>1149.5</ele></trkpt>
   <trkpt lon="6.727469" lat="45.816838"><ele>1151.0</ele></trkpt>
   <trkpt lon="6.727347" lat="45.816736"><ele>1150.25</ele></trkpt>
   <trkpt lon="6.727102" lat="45.816558"><ele>1148.75</ele></trkpt>
   <trkpt lon="6.727056" lat="45.816537"><ele>1148.5</ele></trkpt>
   <trkpt lon="6.727022" lat="45.816503"><ele>1148.25</ele></trkpt>
   <trkpt lon="6.726986" lat="45.816443"><ele>1148.25</ele></trkpt>
   <trkpt lon="6.726956" lat="45.816341"><ele>1148.5</ele></trkpt>
   <trkpt lon="6.726868" lat="45.816360"><ele>1148.25</ele></trkpt>
   <trkpt lon="6.726714" lat="45.816402"><ele>1147.75</ele></trkpt>
   <trkpt lon="6.726428" lat="45.816077"><ele>1149.0</ele></trkpt>
   <trkpt lon="6.726353" lat="45.815976"><ele>1149.5</ele></trkpt>
   <trkpt lon="6.726276" lat="45.815850"><ele>1151.0</ele></trkpt>
   <trkpt lon="6.726190" lat="45.815664"><ele>1153.5</ele></trkpt>
   <trkpt lon="6.726162" lat="45.815335"><ele>1154.5</ele></trkpt>
   <trkpt lon="6.726159" lat="45.815048"><ele>1155.5</ele></trkpt>
   <trkpt lon="6.726138" lat="45.814824"><ele>1156.5</ele></trkpt>
   <trkpt lon="6.726169" lat="45.814620"><ele>1157.0</ele></trkpt>
   <trkpt lon="6.726194" lat="45.814515"><ele>1157.0</ele></trkpt>
   <trkpt lon="6.726221" lat="45.814470"><ele>1157.0</ele></trkpt>
   <trkpt lon="6.726277" lat="45.814398"><ele>1156.75</ele></trkpt>
   <trkpt lon="6.726357" lat="45.814320"><ele>1156.5</ele></trkpt>
   <trkpt lon="6.726475" lat="45.814235"><ele>1156.75</ele></trkpt>
   <trkpt lon="6.726646" lat="45.814125"><ele>1157.0</ele></trkpt>
   <trkpt lon="6.726715" lat="45.814056"><ele>1157.25</ele></trkpt>
   <trkpt lon="6.726793" lat="45.813963"><ele>1157.5</ele></trkpt>
   <trkpt lon="6.726835" lat="45.813861"><ele>1157.5</ele></trkpt>
   <trkpt lon="6.726861" lat="45.813765"><ele>1157.5</ele></trkpt>
   <trkpt lon="6.726868" lat="45.813668"><ele>1157.5</ele></trkpt>
   <trkpt lon="6.726890" lat="45.813543"><ele>1157.75</ele></trkpt>
   <trkpt lon="6.726858" lat="45.813422"><ele>1157.75</ele></trkpt>
   <trkpt lon="6.726882" lat="45.813260"><ele>1158.0</ele></trkpt>
   <trkpt lon="6.726867" lat="45.813011"><ele>1158.0</ele></trkpt>
   <trkpt lon="6.726829" lat="45.812865"><ele>1158.5</ele></trkpt>
   <trkpt lon="6.726788" lat="45.812760"><ele>1159.0</ele></trkpt>
   <trkpt lon="6.726809" lat="45.812551"><ele>1159.25</ele></trkpt>
   <trkpt lon="6.726818" lat="45.812334"><ele>1159.25</ele></trkpt>
   <trkpt lon="6.726795" lat="45.812240"><ele>1159.5</ele></trkpt>
   <trkpt lon="6.726799" lat="45.812122"><ele>1159.5</ele></trkpt>
   <trkpt lon="6.726841" lat="45.812022"><ele>1159.75</ele></trkpt>
   <trkpt lon="6.726884" lat="45.811730"><ele>1160.0</ele></trkpt>
   <trkpt lon="6.726885" lat="45.811617"><ele>1160.0</ele></trkpt>
   <trkpt lon="6.726927" lat="45.811454"><ele>1160.0</ele></trkpt>
   <trkpt lon="6.727002" lat="45.811338"><ele>1160.0</ele></trkpt>
   <trkpt lon="6.727110" lat="45.811111"><ele>1160.0</ele></trkpt>
   <trkpt lon="6.727127" lat="45.810977"><ele>1160.0</ele></trkpt>
   <trkpt lon="6.727020" lat="45.810981"><ele>1160.0</ele></trkpt>
   <trkpt lon="6.726978" lat="45.810920"><ele>1160.0</ele></trkpt>
   <trkpt lon="6.726967" lat="45.810258"><ele>1161.0</ele></trkpt>
   <trkpt lon="6.726914" lat="45.810048"><ele>1161.75</ele></trkpt>
   <trkpt lon="6.726697" lat="45.809794"><ele>1162.5</ele></trkpt>
   <trkpt lon="6.726570" lat="45.809626"><ele>1163.0</ele></trkpt>
   <trkpt lon="6.726559" lat="45.809597"><ele>1163.0</ele></trkpt>
   <trkpt lon="6.726660" lat="45.809599"><ele>1163.0</ele></trkpt>
   <trkpt lon="6.726794" lat="45.809634"><ele>1163.0</ele></trkpt>
   <trkpt lon="6.726902" lat="45.809523"><ele>1163.0</ele></trkpt>
   <trkpt lon="6.726988" lat="45.809538"><ele>1162.75</ele></trkpt>
   <trkpt lon="6.727035" lat="45.809555"><ele>1162.75</ele></trkpt>
   <trkpt lon="6.726946" lat="45.809457"><ele>1162.75</ele></trkpt>
   <trkpt lon="6.726875" lat="45.809341"><ele>1163.25</ele></trkpt>
   <trkpt lon="6.726614" lat="45.809159"><ele>1163.0</ele></trkpt>
   <trkpt lon="6.726379" lat="45.808981"><ele>1164.0</ele></trkpt>
   <trkpt lon="6.726334" lat="45.808915"><ele>1164.0</ele></trkpt>
   <trkpt lon="6.726298" lat="45.808808"><ele>1164.25</ele></trkpt>
   <trkpt lon="6.726326" lat="45.808678"><ele>1164.75</ele></trkpt>
   <trkpt lon="6.726346" lat="45.808348"><ele>1165.0</ele></trkpt>
   <trkpt lon="6.726316" lat="45.808262"><ele>1165.25</ele></trkpt>
   <trkpt lon="6.726283" lat="45.808184"><ele>1165.5</ele></trkpt>
   <trkpt lon="6.726223" lat="45.808038"><ele>1166.0</ele></trkpt>
   <trkpt lon="6.726136" lat="45.807919"><ele>1166.25</ele></trkpt>
   <trkpt lon="6.725953" lat="45.807732"><ele>1166.5</ele></trkpt>
   <trkpt lon="6.725873" lat="45.807662"><ele>1166.5</ele></trkpt>
   <trkpt lon="6.725635" lat="45.807485"><ele>1166.25</ele></trkpt>
   <trkpt lon="6.725500" lat="45.807309"><ele>1166.25</ele></trkpt>
   <trkpt lon="6.725451" lat="45.807185"><ele>1166.25</ele></trkpt>
   <trkpt lon="6.725415" lat="45.807124"><ele>1166.0</ele></trkpt>
   <trkpt lon="6.725362" lat="45.807055"><ele>1166.0</ele></trkpt>
   <trkpt lon="6.725477" lat="45.807024"><ele>1166.5</ele></trkpt>
   <trkpt lon="6.725449" lat="45.806979"><ele>1166.5</ele></trkpt>
   <trkpt lon="6.725431" lat="45.806948"><ele>1166.5</ele></trkpt>
   <trkpt lon="6.725388" lat="45.806680"><ele>1166.75</ele></trkpt>
   <trkpt lon="6.725414" lat="45.806698"><ele>1166.75</ele></trkpt>
   <trkpt lon="6.725474" lat="45.806663"><ele>1167.0</ele></trkpt>
   <trkpt lon="6.725510" lat="45.806654"><ele>1167.0</ele></trkpt>
   <trkpt lon="6.725570" lat="45.806598"><ele>1167.25</ele></trkpt>
   <trkpt lon="6.725623" lat="45.806625"><ele>1167.25</ele></trkpt>
   <trkpt lon="6.725757" lat="45.806640"><ele>1167.75</ele></trkpt>
   <trkpt lon="6.725648" lat="45.806480"><ele>1168.0</ele></trkpt>
   <trkpt lon="6.725517" lat="45.806237"><ele>1168.25</ele></trkpt>
   <trkpt lon="6.725366" lat="45.805931"><ele>1170.0</ele></trkpt>
   <trkpt lon="6.725138" lat="45.805606"><ele>1172.25</ele></trkpt>
   <trkpt lon="6.724986" lat="45.805246"><ele>1175.75</ele></trkpt>
   <trkpt lon="6.724898" lat="45.804935"><ele>1176.25</ele></trkpt>
   <trkpt lon="6.724855" lat="45.804627"><ele>1176.5</ele></trkpt>
   <trkpt lon="6.724852" lat="45.804313"><ele>1176.5</ele></trkpt>
   <trkpt lon="6.724837" lat="45.804218"><ele>1176.5</ele></trkpt>
   <trkpt lon="6.724760" lat="45.803976"><ele>1176.75</ele></trkpt>
   <trkpt lon="6.724449" lat="45.803558"><ele>1177.0</ele></trkpt>
   <trkpt lon="6.724401" lat="45.803441"><ele>1177.0</ele></trkpt>
   <trkpt lon="6.724497" lat="45.803197"><ele>1177.0</ele></trkpt>
   <trkpt lon="6.724626" lat="45.803049"><ele>1177.0</ele></trkpt>
   <trkpt lon="6.724716" lat="45.802904"><ele>1177.0</ele></trkpt>
   <trkpt lon="6.724682" lat="45.802760"><ele>1177.0</ele></trkpt>
   <trkpt lon="6.724601" lat="45.802494"><ele>1176.75</ele></trkpt>
   <trkpt lon="6.724582" lat="45.802307"><ele>1176.5</ele></trkpt>
   <trkpt lon="6.724548" lat="45.802137"><ele>1176.5</ele></trkpt>
   <trkpt lon="6.724535" lat="45.802076"><ele>1176.5</ele></trkpt>
   <trkpt lon="6.724513" lat="45.801764"><ele>1177.0</ele></trkpt>
   <trkpt lon="6.724487" lat="45.801655"><ele>1177.0</ele></trkpt>
   <trkpt lon="6.724266" lat="45.800905"><ele>1177.0</ele></trkpt>
   <trkpt lon="6.724197" lat="45.800733"><ele>1177.75</ele></trkpt>
   <trkpt lon="6.724142" lat="45.800557"><ele>1178.75</ele></trkpt>
   <trkpt lon="6.724137" lat="45.800435"><ele>1179.75</ele></trkpt>
   <trkpt lon="6.724132" lat="45.800306"><ele>1180.5</ele></trkpt>
   <trkpt lon="6.724116" lat="45.800185"><ele>1182.0</ele></trkpt>
   <trkpt lon="6.724103" lat="45.800124"><ele>1182.5</ele></trkpt>
   <trkpt lon="6.724064" lat="45.800018"><ele>1183.5</ele></trkpt>
   <trkpt lon="6.723951" lat="45.799820"><ele>1184.25</ele></trkpt>
   <trkpt lon="6.723856" lat="45.799675"><ele>1184.5</ele></trkpt>
   <trkpt lon="6.723837" lat="45.799634"><ele>1184.75</ele></trkpt>
   <trkpt lon="6.723765" lat="45.799628"><ele>1184.5</ele></trkpt>
   <trkpt lon="6.723729" lat="45.799616"><ele>1184.5</ele></trkpt>
   <trkpt lon="6.723647" lat="45.799577"><ele>1184.25</ele></trkpt>
   <trkpt lon="6.723533" lat="45.799534"><ele>1183.75</ele></trkpt>
   <trkpt lon="6.723298" lat="45.799460"><ele>1182.75</ele></trkpt>
   <trkpt lon="6.723218" lat="45.799426"><ele>1182.5</ele></trkpt>
   <trkpt lon="6.723153" lat="45.799390"><ele>1182.5</ele></trkpt>
   <trkpt lon="6.723056" lat="45.799325"><ele>1182.25</ele></trkpt>
   <trkpt lon="6.722915" lat="45.799215"><ele>1182.25</ele></trkpt>
   <trkpt lon="6.722453" lat="45.798736"><ele>1183.0</ele></trkpt>
   <trkpt lon="6.721978" lat="45.798301"><ele>1184.0</ele></trkpt>
   <trkpt lon="6.721758" lat="45.798105"><ele>1184.75</ele></trkpt>
   <trkpt lon="6.721128" lat="45.797502"><ele>1186.75</ele></trkpt>
   <trkpt lon="6.721036" lat="45.797395"><ele>1187.75</ele></trkpt>
   <trkpt lon="6.720859" lat="45.797211"><ele>1188.75</ele></trkpt>
   <trkpt lon="6.720770" lat="45.797082"><ele>1189.5</ele></trkpt>
   <trkpt lon="6.720697" lat="45.796942"><ele>1190.25</ele></trkpt>
   <trkpt lon="6.720644" lat="45.796864"><ele>1190.5</ele></trkpt>
   <trkpt lon="6.720548" lat="45.796755"><ele>1191.0</ele></trkpt>
   <trkpt lon="6.720350" lat="45.796482"><ele>1191.75</ele></trkpt>
   <trkpt lon="6.720208" lat="45.796323"><ele>1192.0</ele></trkpt>
   <trkpt lon="6.719964" lat="45.796096"><ele>1191.75</ele></trkpt>
   <trkpt lon="6.719602" lat="45.795665"><ele>1192.25</ele></trkpt>
   <trkpt lon="6.719559" lat="45.795617"><ele>1192.5</ele></trkpt>
   <trkpt lon="6.719509" lat="45.795533"><ele>1193.25</ele></trkpt>
   <trkpt lon="6.719329" lat="45.795336"><ele>1195.0</ele></trkpt>
   <trkpt lon="6.719280" lat="45.795272"><ele>1195.25</ele></trkpt>
   <trkpt lon="6.719234" lat="45.795187"><ele>1196.75</ele></trkpt>
   <trkpt lon="6.718987" lat="45.794907"><ele>1198.75</ele></trkpt>
   <trkpt lon="6.718841" lat="45.794671"><ele>1200.5</ele></trkpt>
   <trkpt lon="6.718783" lat="45.794616"><ele>1200.5</ele></trkpt>
   <trkpt lon="6.718702" lat="45.794555"><ele>1200.0</ele></trkpt>
   <trkpt lon="6.718649" lat="45.794500"><ele>1200.0</ele></trkpt>
   <trkpt lon="6.718547" lat="45.794342"><ele>1200.75</ele></trkpt>
   <trkpt lon="6.718504" lat="45.794245"><ele>1201.75</ele></trkpt>
   <trkpt lon="6.718471" lat="45.794133"><ele>1203.25</ele></trkpt>
   <trkpt lon="6.718455" lat="45.794025"><ele>1205.0</ele></trkpt>
   <trkpt lon="6.718447" lat="45.793870"><ele>1208.5</ele></trkpt>
   <trkpt lon="6.718484" lat="45.793824"><ele>1211.75</ele></trkpt>
   <trkpt lon="6.718509" lat="45.793728"><ele>1216.5</ele></trkpt>
   <trkpt lon="6.718478" lat="45.793634"><ele>1218.5</ele></trkpt>
   <trkpt lon="6.718362" lat="45.793494"><ele>1218.75</ele></trkpt>
   <trkpt lon="6.718137" lat="45.793253"><ele>1219.25</ele></trkpt>
   <trkpt lon="6.717936" lat="45.793068"><ele>1218.75</ele></trkpt>
   <trkpt lon="6.717818" lat="45.792977"><ele>1218.25</ele></trkpt>
   <trkpt lon="6.717719" lat="45.792914"><ele>1217.25</ele></trkpt>
   <trkpt lon="6.717441" lat="45.792755"><ele>1212.75</ele></trkpt>
   <trkpt lon="6.717381" lat="45.792711"><ele>1213.25</ele></trkpt>
   <trkpt lon="6.717314" lat="45.792654"><ele>1213.5</ele></trkpt>
   <trkpt lon="6.717099" lat="45.792427"><ele>1214.25</ele></trkpt>
   <trkpt lon="6.716713" lat="45.792047"><ele>1214.5</ele></trkpt>
   <trkpt lon="6.716583" lat="45.791931"><ele>1214.0</ele></trkpt>
   <trkpt lon="6.716431" lat="45.791822"><ele>1214.25</ele></trkpt>
   <trkpt lon="6.716344" lat="45.791768"><ele>1214.0</ele></trkpt>
   <trkpt lon="6.716269" lat="45.791731"><ele>1214.0</ele></trkpt>
   <trkpt lon="6.716147" lat="45.791641"><ele>1214.75</ele></trkpt>
   <trkpt lon="6.716074" lat="45.791524"><ele>1218.0</ele></trkpt>
   <trkpt lon="6.716053" lat="45.791511"><ele>1218.0</ele></trkpt>
   <trkpt lon="6.715981" lat="45.791475"><ele>1218.0</ele></trkpt>
   <trkpt lon="6.715829" lat="45.791348"><ele>1219.5</ele></trkpt>
   <trkpt lon="6.715778" lat="45.791299"><ele>1220.25</ele></trkpt>
   <trkpt lon="6.715744" lat="45.791250"><ele>1221.25</ele></trkpt>
   <trkpt lon="6.715666" lat="45.791164"><ele>1222.25</ele></trkpt>
   <trkpt lon="6.715338" lat="45.790650"><ele>1236.5</ele></trkpt>
   <trkpt lon="6.715183" lat="45.790459"><ele>1243.0</ele></trkpt>
   <trkpt lon="6.714863" lat="45.789997"><ele>1262.25</ele></trkpt>
   <trkpt lon="6.714640" lat="45.789748"><ele>1264.25</ele></trkpt>
   <trkpt lon="6.714416" lat="45.789274"><ele>1277.0</ele></trkpt>
   <trkpt lon="6.714309" lat="45.789107"><ele>1278.25</ele></trkpt>
   <trkpt lon="6.714245" lat="45.788897"><ele>1284.25</ele></trkpt>
   <trkpt lon="6.714132" lat="45.788689"><ele>1286.75</ele></trkpt>
   <trkpt lon="6.714035" lat="45.788435"><ele>1292.5</ele></trkpt>
   <trkpt lon="6.713954" lat="45.788339"><ele>1293.25</ele></trkpt>
   <trkpt lon="6.713835" lat="45.788131"><ele>1296.5</ele></trkpt>
   <trkpt lon="6.713716" lat="45.787990"><ele>1297.5</ele></trkpt>
   <trkpt lon="6.713532" lat="45.787612"><ele>1304.25</ele></trkpt>
   <trkpt lon="6.713425" lat="45.787485"><ele>1304.5</ele></trkpt>
   <trkpt lon="6.713308" lat="45.787330"><ele>1304.25</ele></trkpt>
   <trkpt lon="6.713163" lat="45.786891"><ele>1313.0</ele></trkpt>
   <trkpt lon="6.713011" lat="45.786766"><ele>1310.25</ele></trkpt>
   <trkpt lon="6.712969" lat="45.786631"><ele>1312.75</ele></trkpt>
   <trkpt lon="6.712887" lat="45.786474"><ele>1314.0</ele></trkpt>
   <trkpt lon="6.712855" lat="45.786320"><ele>1317.5</ele></trkpt>
   <trkpt lon="6.712893" lat="45.786036"><ele>1326.5</ele></trkpt>
   <trkpt lon="6.712872" lat="45.785943"><ele>1327.75</ele></trkpt>
   <trkpt lon="6.712800" lat="45.785847"><ele>1326.75</ele></trkpt>
   <trkpt lon="6.712759" lat="45.785731"><ele>1327.5</ele></trkpt>
   <trkpt lon="6.712751" lat="45.785549"><ele>1331.75</ele></trkpt>
   <trkpt lon="6.712714" lat="45.785406"><ele>1333.25</ele></trkpt>
   <trkpt lon="6.712609" lat="45.785082"><ele>1335.0</ele></trkpt>
   <trkpt lon="6.712607" lat="45.784946"><ele>1337.5</ele></trkpt>
   <trkpt lon="6.712641" lat="45.784772"><ele>1341.75</ele></trkpt>
   <trkpt lon="6.712708" lat="45.784639"><ele>1345.75</ele></trkpt>
   <trkpt lon="6.712734" lat="45.784518"><ele>1347.75</ele></trkpt>
   <trkpt lon="6.712774" lat="45.784463"><ele>1349.5</ele></trkpt>
   <trkpt lon="6.712866" lat="45.784421"><ele>1352.75</ele></trkpt>
   <trkpt lon="6.712950" lat="45.784368"><ele>1355.5</ele></trkpt>
   <trkpt lon="6.713066" lat="45.784216"><ele>1358.25</ele></trkpt>
   <trkpt lon="6.713087" lat="45.784040"><ele>1357.25</ele></trkpt>
   <trkpt lon="6.713137" lat="45.783893"><ele>1356.75</ele></trkpt>
   <trkpt lon="6.713260" lat="45.783772"><ele>1358.0</ele></trkpt>
   <trkpt lon="6.713563" lat="45.783555"><ele>1360.5</ele></trkpt>
   <trkpt lon="6.713962" lat="45.783371"><ele>1363.75</ele></trkpt>
   <trkpt lon="6.714135" lat="45.783236"><ele>1365.0</ele></trkpt>
   <trkpt lon="6.714371" lat="45.783157"><ele>1367.25</ele></trkpt>
   <trkpt lon="6.714503" lat="45.783085"><ele>1368.25</ele></trkpt>
   <trkpt lon="6.714826" lat="45.782853"><ele>1372.0</ele></trkpt>
   <trkpt lon="6.714983" lat="45.782770"><ele>1375.5</ele></trkpt>
   <trkpt lon="6.715085" lat="45.782642"><ele>1377.75</ele></trkpt>
   <trkpt lon="6.715071" lat="45.782491"><ele>1377.5</ele></trkpt>
   <trkpt lon="6.715081" lat="45.782324"><ele>1378.5</ele></trkpt>
   <trkpt lon="6.715107" lat="45.782211"><ele>1379.5</ele></trkpt>
   <trkpt lon="6.715226" lat="45.781954"><ele>1383.0</ele></trkpt>
   <trkpt lon="6.715386" lat="45.781744"><ele>1386.25</ele></trkpt>
   <trkpt lon="6.715441" lat="45.781672"><ele>1387.0</ele></trkpt>
   <trkpt lon="6.715478" lat="45.781545"><ele>1388.75</ele></trkpt>
   <trkpt lon="6.715453" lat="45.781438"><ele>1390.0</ele></trkpt>
   <trkpt lon="6.715420" lat="45.781368"><ele>1390.75</ele></trkpt>
   <trkpt lon="6.715503" lat="45.781301"><ele>1392.5</ele></trkpt>
   <trkpt lon="6.715553" lat="45.781245"><ele>1394.0</ele></trkpt>
   <trkpt lon="6.715606" lat="45.781219"><ele>1394.75</ele></trkpt>
   <trkpt lon="6.715696" lat="45.781204"><ele>1395.5</ele></trkpt>
   <trkpt lon="6.715783" lat="45.781198"><ele>1396.0</ele></trkpt>
   <trkpt lon="6.715871" lat="45.781206"><ele>1396.25</ele></trkpt>
   <trkpt lon="6.716010" lat="45.781204"><ele>1396.5</ele></trkpt>
   <trkpt lon="6.716149" lat="45.781173"><ele>1397.0</ele></trkpt>
   <trkpt lon="6.716199" lat="45.781138"><ele>1397.75</ele></trkpt>
   <trkpt lon="6.716231" lat="45.781081"><ele>1398.75</ele></trkpt>
   <trkpt lon="6.716415" lat="45.780863"><ele>1402.5</ele></trkpt>
   <trkpt lon="6.716537" lat="45.780704"><ele>1404.75</ele></trkpt>
   <trkpt lon="6.716537" lat="45.780704"><ele>1404.75</ele></trkpt>
   <trkpt lon="6.716415" lat="45.780863"><ele>1402.5</ele></trkpt>
   <trkpt lon="6.716231" lat="45.781081"><ele>1398.75</ele></trkpt>
   <trkpt lon="6.716199" lat="45.781138"><ele>1397.75</ele></trkpt>
   <trkpt lon="6.716149" lat="45.781173"><ele>1397.0</ele></trkpt>
   <trkpt lon="6.716010" lat="45.781204"><ele>1396.5</ele></trkpt>
   <trkpt lon="6.715871" lat="45.781206"><ele>1396.25</ele></trkpt>
   <trkpt lon="6.715783" lat="45.781198"><ele>1396.0</ele></trkpt>
   <trkpt lon="6.715696" lat="45.781204"><ele>1395.5</ele></trkpt>
   <trkpt lon="6.715606" lat="45.781219"><ele>1394.75</ele></trkpt>
   <trkpt lon="6.715553" lat="45.781245"><ele>1394.0</ele></trkpt>
   <trkpt lon="6.715503" lat="45.781301"><ele>1392.5</ele></trkpt>
   <trkpt lon="6.715420" lat="45.781368"><ele>1390.75</ele></trkpt>
   <trkpt lon="6.715344" lat="45.781249"><ele>1393.25</ele></trkpt>
   <trkpt lon="6.715226" lat="45.781115"><ele>1396.25</ele></trkpt>
   <trkpt lon="6.715181" lat="45.781000"><ele>1400.5</ele></trkpt>
   <trkpt lon="6.715059" lat="45.780547"><ele>1412.75</ele></trkpt>
   <trkpt lon="6.714987" lat="45.780169"><ele>1421.25</ele></trkpt>
   <trkpt lon="6.714884" lat="45.779894"><ele>1427.0</ele></trkpt>
   <trkpt lon="6.714688" lat="45.779715"><ele>1431.5</ele></trkpt>
   <trkpt lon="6.714676" lat="45.779611"><ele>1433.75</ele></trkpt>
   <trkpt lon="6.714784" lat="45.779463"><ele>1435.75</ele></trkpt>
   <trkpt lon="6.714913" lat="45.779266"><ele>1437.75</ele></trkpt>
   <trkpt lon="6.714884" lat="45.778714"><ele>1448.5</ele></trkpt>
   <trkpt lon="6.714819" lat="45.778464"><ele>1451.75</ele></trkpt>
   <trkpt lon="6.714674" lat="45.778299"><ele>1454.75</ele></trkpt>
   <trkpt lon="6.714532" lat="45.778212"><ele>1457.5</ele></trkpt>
   <trkpt lon="6.714362" lat="45.778133"><ele>1461.5</ele></trkpt>
   <trkpt lon="6.714320" lat="45.778091"><ele>1462.75</ele></trkpt>
   <trkpt lon="6.714278" lat="45.778006"><ele>1464.75</ele></trkpt>
   <trkpt lon="6.714260" lat="45.777880"><ele>1467.0</ele></trkpt>
   <trkpt lon="6.714532" lat="45.777194"><ele>1485.75</ele></trkpt>
   <trkpt lon="6.714841" lat="45.776883"><ele>1483.25</ele></trkpt>
   <trkpt lon="6.714910" lat="45.776739"><ele>1484.5</ele></trkpt>
   <trkpt lon="6.714882" lat="45.776504"><ele>1493.0</ele></trkpt>
   <trkpt lon="6.714984" lat="45.776218"><ele>1498.25</ele></trkpt>
   <trkpt lon="6.715084" lat="45.776011"><ele>1501.75</ele></trkpt>
   <trkpt lon="6.715094" lat="45.775971"><ele>1503.0</ele></trkpt>
   <trkpt lon="6.715127" lat="45.775836"><ele>1507.25</ele></trkpt>
   <trkpt lon="6.715232" lat="45.775739"><ele>1507.75</ele></trkpt>
   <trkpt lon="6.715495" lat="45.775579"><ele>1505.75</ele></trkpt>
   <trkpt lon="6.715730" lat="45.775305"><ele>1510.5</ele></trkpt>
   <trkpt lon="6.715827" lat="45.775088"><ele>1513.5</ele></trkpt>
   <trkpt lon="6.715836" lat="45.774666"><ele>1520.5</ele></trkpt>
   <trkpt lon="6.715824" lat="45.774502"><ele>1523.75</ele></trkpt>
   <trkpt lon="6.715864" lat="45.774377"><ele>1523.75</ele></trkpt>
   <trkpt lon="6.715943" lat="45.774049"><ele>1526.5</ele></trkpt>
   <trkpt lon="6.715948" lat="45.773955"><ele>1528.0</ele></trkpt>
   <trkpt lon="6.715936" lat="45.773700"><ele>1534.25</ele></trkpt>
   <trkpt lon="6.715960" lat="45.773573"><ele>1536.0</ele></trkpt>
   <trkpt lon="6.715956" lat="45.773500"><ele>1537.25</ele></trkpt>
   <trkpt lon="6.715934" lat="45.773413"><ele>1539.25</ele></trkpt>
   <trkpt lon="6.715892" lat="45.773303"><ele>1542.0</ele></trkpt>
   <trkpt lon="6.715806" lat="45.773118"><ele>1545.25</ele></trkpt>
   <trkpt lon="6.715733" lat="45.772866"><ele>1546.75</ele></trkpt>
   <trkpt lon="6.715703" lat="45.772714"><ele>1547.25</ele></trkpt>
   <trkpt lon="6.715712" lat="45.772528"><ele>1547.0</ele></trkpt>
   <trkpt lon="6.715793" lat="45.771951"><ele>1547.75</ele></trkpt>
   <trkpt lon="6.715736" lat="45.771682"><ele>1549.5</ele></trkpt>
   <trkpt lon="6.715706" lat="45.771601"><ele>1550.0</ele></trkpt>
   <trkpt lon="6.715646" lat="45.771516"><ele>1550.75</ele></trkpt>
   <trkpt lon="6.715577" lat="45.771467"><ele>1551.75</ele></trkpt>
   <trkpt lon="6.715503" lat="45.771434"><ele>1553.0</ele></trkpt>
   <trkpt lon="6.715451" lat="45.771384"><ele>1553.75</ele></trkpt>
   <trkpt lon="6.715440" lat="45.771317"><ele>1553.5</ele></trkpt>
   <trkpt lon="6.715367" lat="45.770863"><ele>1551.75</ele></trkpt>
   <trkpt lon="6.715311" lat="45.770724"><ele>1551.5</ele></trkpt>
   <trkpt lon="6.715184" lat="45.770501"><ele>1551.5</ele></trkpt>
   <trkpt lon="6.715109" lat="45.770391"><ele>1551.25</ele></trkpt>
   <trkpt lon="6.714887" lat="45.770116"><ele>1550.5</ele></trkpt>
   <trkpt lon="6.714841" lat="45.770041"><ele>1550.5</ele></trkpt>
   <trkpt lon="6.714809" lat="45.769924"><ele>1550.5</ele></trkpt>
   <trkpt lon="6.714769" lat="45.769606"><ele>1551.5</ele></trkpt>
   <trkpt lon="6.714702" lat="45.769242"><ele>1553.25</ele></trkpt>
   <trkpt lon="6.714472" lat="45.768639"><ele>1556.5</ele></trkpt>
   <trkpt lon="6.714232" lat="45.768246"><ele>1559.0</ele></trkpt>
   <trkpt lon="6.714046" lat="45.767827"><ele>1561.25</ele></trkpt>
   <trkpt lon="6.713862" lat="45.767597"><ele>1561.75</ele></trkpt>
   <trkpt lon="6.713164" lat="45.766809"><ele>1564.0</ele></trkpt>
   <trkpt lon="6.713115" lat="45.766676"><ele>1564.5</ele></trkpt>
   <trkpt lon="6.712998" lat="45.766258"><ele>1568.5</ele></trkpt>
   <trkpt lon="6.712777" lat="45.765559"><ele>1574.0</ele></trkpt>
   <trkpt lon="6.712684" lat="45.765335"><ele>1576.0</ele></trkpt>
   <trkpt lon="6.712551" lat="45.764878"><ele>1579.75</ele></trkpt>
   <trkpt lon="6.712409" lat="45.764659"><ele>1582.25</ele></trkpt>
   <trkpt lon="6.712370" lat="45.764571"><ele>1582.75</ele></trkpt>
   <trkpt lon="6.712349" lat="45.764326"><ele>1583.5</ele></trkpt>
   <trkpt lon="6.712323" lat="45.764229"><ele>1584.0</ele></trkpt>
   <trkpt lon="6.712263" lat="45.764114"><ele>1584.75</ele></trkpt>
   <trkpt lon="6.712204" lat="45.763968"><ele>1585.75</ele></trkpt>
   <trkpt lon="6.712116" lat="45.763790"><ele>1587.75</ele></trkpt>
   <trkpt lon="6.711981" lat="45.763561"><ele>1591.25</ele></trkpt>
   <trkpt lon="6.711927" lat="45.763336"><ele>1593.75</ele></trkpt>
   <trkpt lon="6.711776" lat="45.762934"><ele>1598.75</ele></trkpt>
   <trkpt lon="6.711699" lat="45.762819"><ele>1600.25</ele></trkpt>
   <trkpt lon="6.711525" lat="45.762502"><ele>1604.75</ele></trkpt>
   <trkpt lon="6.711354" lat="45.762121"><ele>1610.5</ele></trkpt>
   <trkpt lon="6.711340" lat="45.761858"><ele>1614.75</ele></trkpt>
   <trkpt lon="6.711287" lat="45.761556"><ele>1621.0</ele></trkpt>
   <trkpt lon="6.711256" lat="45.761454"><ele>1623.0</ele></trkpt>
   <trkpt lon="6.711193" lat="45.761346"><ele>1625.0</ele></trkpt>
   <trkpt lon="6.711059" lat="45.761205"><ele>1627.75</ele></trkpt>
   <trkpt lon="6.710994" lat="45.761112"><ele>1629.5</ele></trkpt>
   <trkpt lon="6.710955" lat="45.760970"><ele>1632.0</ele></trkpt>
   <trkpt lon="6.710968" lat="45.760748"><ele>1636.75</ele></trkpt>
   <trkpt lon="6.711228" lat="45.760270"><ele>1647.75</ele></trkpt>
   <trkpt lon="6.711244" lat="45.760185"><ele>1649.5</ele></trkpt>
   <trkpt lon="6.711202" lat="45.760083"><ele>1652.0</ele></trkpt>
   <trkpt lon="6.711099" lat="45.759885"><ele>1657.5</ele></trkpt>
   <trkpt lon="6.710822" lat="45.759489"><ele>1669.25</ele></trkpt>
   <trkpt lon="6.710672" lat="45.759344"><ele>1673.0</ele></trkpt>
   <trkpt lon="6.710581" lat="45.759230"><ele>1675.0</ele></trkpt>
   <trkpt lon="6.710516" lat="45.759135"><ele>1677.5</ele></trkpt>
   <trkpt lon="6.710440" lat="45.758980"><ele>1681.75</ele></trkpt>
   <trkpt lon="6.710449" lat="45.758907"><ele>1683.0</ele></trkpt>
   <trkpt lon="6.710469" lat="45.758877"><ele>1683.0</ele></trkpt>
   <trkpt lon="6.710528" lat="45.758845"><ele>1682.25</ele></trkpt>
   <trkpt lon="6.710622" lat="45.758798"><ele>1682.25</ele></trkpt>
   <trkpt lon="6.710668" lat="45.758761"><ele>1682.5</ele></trkpt>
   <trkpt lon="6.710682" lat="45.758737"><ele>1683.0</ele></trkpt>
   <trkpt lon="6.710701" lat="45.758641"><ele>1685.25</ele></trkpt>
   <trkpt lon="6.710717" lat="45.758611"><ele>1685.75</ele></trkpt>
   <trkpt lon="6.710772" lat="45.758550"><ele>1687.25</ele></trkpt>
   <trkpt lon="6.710797" lat="45.758493"><ele>1688.75</ele></trkpt>
   <trkpt lon="6.710792" lat="45.758456"><ele>1690.0</ele></trkpt>
   <trkpt lon="6.710727" lat="45.758289"><ele>1694.25</ele></trkpt>
   <trkpt lon="6.710717" lat="45.758241"><ele>1695.0</ele></trkpt>
   <trkpt lon="6.710729" lat="45.758137"><ele>1697.0</ele></trkpt>
   <trkpt lon="6.710759" lat="45.758073"><ele>1698.25</ele></trkpt>
   <trkpt lon="6.710778" lat="45.758050"><ele>1698.75</ele></trkpt>
   <trkpt lon="6.710906" lat="45.758025"><ele>1699.75</ele></trkpt>
   <trkpt lon="6.711013" lat="45.758004"><ele>1700.25</ele></trkpt>
   <trkpt lon="6.711075" lat="45.757962"><ele>1700.75</ele></trkpt>
   <trkpt lon="6.711101" lat="45.757907"><ele>1701.5</ele></trkpt>
   <trkpt lon="6.711082" lat="45.757843"><ele>1702.25</ele></trkpt>
   <trkpt lon="6.710981" lat="45.757707"><ele>1704.25</ele></trkpt>
   <trkpt lon="6.710910" lat="45.757625"><ele>1705.75</ele></trkpt>
   <trkpt lon="6.710701" lat="45.757433"><ele>1709.75</ele></trkpt>
   <trkpt lon="6.710660" lat="45.757371"><ele>1710.75</ele></trkpt>
   <trkpt lon="6.710640" lat="45.757309"><ele>1711.5</ele></trkpt>
   <trkpt lon="6.710584" lat="45.757223"><ele>1712.75</ele></trkpt>
   <trkpt lon="6.710552" lat="45.757192"><ele>1713.25</ele></trkpt>
   <trkpt lon="6.710352" lat="45.757020"><ele>1717.25</ele></trkpt>
   <trkpt lon="6.710265" lat="45.756978"><ele>1718.75</ele></trkpt>
   <trkpt lon="6.710210" lat="45.756962"><ele>1719.75</ele></trkpt>
   <trkpt lon="6.710155" lat="45.756950"><ele>1720.5</ele></trkpt>
   <trkpt lon="6.709953" lat="45.756928"><ele>1723.5</ele></trkpt>
   <trkpt lon="6.709629" lat="45.756873"><ele>1729.25</ele></trkpt>
   <trkpt lon="6.709031" lat="45.756713"><ele>1740.0</ele></trkpt>
   <trkpt lon="6.708859" lat="45.756638"><ele>1742.0</ele></trkpt>
   <trkpt lon="6.708229" lat="45.756135"><ele>1756.25</ele></trkpt>
   <trkpt lon="6.708032" lat="45.755966"><ele>1760.5</ele></trkpt>
   <trkpt lon="6.707939" lat="45.755843"><ele>1763.75</ele></trkpt>
   <trkpt lon="6.707894" lat="45.755753"><ele>1766.0</ele></trkpt>
   <trkpt lon="6.707555" lat="45.755472"><ele>1777.75</ele></trkpt>
   <trkpt lon="6.707401" lat="45.755297"><ele>1781.75</ele></trkpt>
   <trkpt lon="6.707317" lat="45.755193"><ele>1784.75</ele></trkpt>
   <trkpt lon="6.707258" lat="45.755068"><ele>1788.5</ele></trkpt>
   <trkpt lon="6.707282" lat="45.754982"><ele>1790.0</ele></trkpt>
   <trkpt lon="6.707253" lat="45.754785"><ele>1794.25</ele></trkpt>
   <trkpt lon="6.707255" lat="45.754690"><ele>1796.25</ele></trkpt>
   <trkpt lon="6.707279" lat="45.754525"><ele>1800.5</ele></trkpt>
   <trkpt lon="6.707314" lat="45.754391"><ele>1804.25</ele></trkpt>
   <trkpt lon="6.707397" lat="45.754239"><ele>1808.5</ele></trkpt>
   <trkpt lon="6.707590" lat="45.754033"><ele>1812.0</ele></trkpt>
   <trkpt lon="6.707652" lat="45.753958"><ele>1813.25</ele></trkpt>
   <trkpt lon="6.707717" lat="45.753859"><ele>1815.25</ele></trkpt>
   <trkpt lon="6.707835" lat="45.753533"><ele>1825.0</ele></trkpt>
   <trkpt lon="6.707886" lat="45.753442"><ele>1827.75</ele></trkpt>
   <trkpt lon="6.707958" lat="45.753376"><ele>1829.5</ele></trkpt>
   <trkpt lon="6.708095" lat="45.753277"><ele>1832.25</ele></trkpt>
   <trkpt lon="6.708425" lat="45.753075"><ele>1839.25</ele></trkpt>
   <trkpt lon="6.708610" lat="45.753011"><ele>1841.25</ele></trkpt>
   <trkpt lon="6.708811" lat="45.752968"><ele>1843.0</ele></trkpt>
   <trkpt lon="6.708937" lat="45.752953"><ele>1843.5</ele></trkpt>
   <trkpt lon="6.709148" lat="45.752942"><ele>1843.75</ele></trkpt>
   <trkpt lon="6.709178" lat="45.752929"><ele>1844.5</ele></trkpt>
   <trkpt lon="6.709197" lat="45.752912"><ele>1845.25</ele></trkpt>
   <trkpt lon="6.709257" lat="45.752917"><ele>1845.25</ele></trkpt>
   <trkpt lon="6.709346" lat="45.752950"><ele>1844.0</ele></trkpt>
   <trkpt lon="6.709386" lat="45.752953"><ele>1844.0</ele></trkpt>
   <trkpt lon="6.709469" lat="45.752938"><ele>1844.75</ele></trkpt>
   <trkpt lon="6.709527" lat="45.752929"><ele>1845.5</ele></trkpt>
   <trkpt lon="6.709621" lat="45.752933"><ele>1845.5</ele></trkpt>
   <trkpt lon="6.709627" lat="45.752894"><ele>1847.75</ele></trkpt>
   <trkpt lon="6.709615" lat="45.752868"><ele>1849.25</ele></trkpt>
   <trkpt lon="6.709635" lat="45.752849"><ele>1850.25</ele></trkpt>
   <trkpt lon="6.709633" lat="45.752817"><ele>1852.0</ele></trkpt>
   <trkpt lon="6.709649" lat="45.752807"><ele>1852.75</ele></trkpt>
   <trkpt lon="6.709644" lat="45.752781"><ele>1854.25</ele></trkpt>
   <trkpt lon="6.709652" lat="45.752649"><ele>1859.25</ele></trkpt>
   <trkpt lon="6.709646" lat="45.752617"><ele>1860.25</ele></trkpt>
   <trkpt lon="6.709658" lat="45.752598"><ele>1861.0</ele></trkpt>
   <trkpt lon="6.709658" lat="45.752573"><ele>1862.0</ele></trkpt>
   <trkpt lon="6.709680" lat="45.752536"><ele>1863.0</ele></trkpt>
   <trkpt lon="6.709637" lat="45.752482"><ele>1865.25</ele></trkpt>
   <trkpt lon="6.709601" lat="45.752465"><ele>1866.25</ele></trkpt>
   <trkpt lon="6.709536" lat="45.752378"><ele>1869.75</ele></trkpt>
   <trkpt lon="6.709536" lat="45.752346"><ele>1871.0</ele></trkpt>
   <trkpt lon="6.709517" lat="45.752304"><ele>1872.5</ele></trkpt>
   <trkpt lon="6.709526" lat="45.752243"><ele>1874.5</ele></trkpt>
   <trkpt lon="6.709524" lat="45.752166"><ele>1877.25</ele></trkpt>
   <trkpt lon="6.709539" lat="45.752115"><ele>1879.0</ele></trkpt>
   <trkpt lon="6.709535" lat="45.752036"><ele>1882.0</ele></trkpt>
   <trkpt lon="6.709547" lat="45.751990"><ele>1883.75</ele></trkpt>
   <trkpt lon="6.709525" lat="45.751960"><ele>1885.0</ele></trkpt>
   <trkpt lon="6.709486" lat="45.751931"><ele>1886.75</ele></trkpt>
   <trkpt lon="6.709486" lat="45.751921"><ele>1887.0</ele></trkpt>
   <trkpt lon="6.709496" lat="45.751916"><ele>1887.0</ele></trkpt>
   <trkpt lon="6.709516" lat="45.751921"><ele>1886.5</ele></trkpt>
   <trkpt lon="6.709522" lat="45.751917"><ele>1886.75</ele></trkpt>
   <trkpt lon="6.709516" lat="45.751861"><ele>1888.5</ele></trkpt>
   <trkpt lon="6.709535" lat="45.751811"><ele>1890.0</ele></trkpt>
   <trkpt lon="6.709544" lat="45.751744"><ele>1892.0</ele></trkpt>
   <trkpt lon="6.709591" lat="45.751687"><ele>1893.75</ele></trkpt>
   <trkpt lon="6.709590" lat="45.751647"><ele>1895.25</ele></trkpt>
   <trkpt lon="6.709600" lat="45.751625"><ele>1896.0</ele></trkpt>
   <trkpt lon="6.709629" lat="45.751631"><ele>1895.75</ele></trkpt>
   <trkpt lon="6.709667" lat="45.751667"><ele>1894.0</ele></trkpt>
   <trkpt lon="6.709677" lat="45.751661"><ele>1894.25</ele></trkpt>
   <trkpt lon="6.709695" lat="45.751619"><ele>1896.0</ele></trkpt>
   <trkpt lon="6.709832" lat="45.751489"><ele>1899.0</ele></trkpt>
   <trkpt lon="6.709862" lat="45.751358"><ele>1903.5</ele></trkpt>
   <trkpt lon="6.709869" lat="45.751239"><ele>1907.25</ele></trkpt>
   <trkpt lon="6.709913" lat="45.751212"><ele>1907.5</ele></trkpt>
   <trkpt lon="6.709987" lat="45.751108"><ele>1910.25</ele></trkpt>
   <trkpt lon="6.710125" lat="45.750998"><ele>1907.0</ele></trkpt>
   <trkpt lon="6.710232" lat="45.750882"><ele>1905.5</ele></trkpt>
   <trkpt lon="6.710254" lat="45.750845"><ele>1905.75</ele></trkpt>
   <trkpt lon="6.710321" lat="45.750625"><ele>1909.25</ele></trkpt>
   <trkpt lon="6.710374" lat="45.750534"><ele>1910.0</ele></trkpt>
   <trkpt lon="6.710436" lat="45.750470"><ele>1910.25</ele></trkpt>
   <trkpt lon="6.710526" lat="45.750420"><ele>1909.25</ele></trkpt>
   <trkpt lon="6.710697" lat="45.750360"><ele>1909.0</ele></trkpt>
   <trkpt lon="6.710782" lat="45.750321"><ele>1909.25</ele></trkpt>
   <trkpt lon="6.710876" lat="45.750233"><ele>1912.0</ele></trkpt>
   <trkpt lon="6.710904" lat="45.750212"><ele>1912.75</ele></trkpt>
   <trkpt lon="6.710944" lat="45.750196"><ele>1913.25</ele></trkpt>
   <trkpt lon="6.711143" lat="45.750156"><ele>1913.25</ele></trkpt>
   <trkpt lon="6.711261" lat="45.750141"><ele>1913.25</ele></trkpt>
   <trkpt lon="6.711438" lat="45.750092"><ele>1913.75</ele></trkpt>
   <trkpt lon="6.711624" lat="45.750047"><ele>1914.25</ele></trkpt>
   <trkpt lon="6.711725" lat="45.750084"><ele>1913.25</ele></trkpt>
   <trkpt lon="6.711770" lat="45.750138"><ele>1912.25</ele></trkpt>
   <trkpt lon="6.711877" lat="45.750197"><ele>1911.5</ele></trkpt>
   <trkpt lon="6.712175" lat="45.750265"><ele>1911.75</ele></trkpt>
   <trkpt lon="6.712512" lat="45.750390"><ele>1913.25</ele></trkpt>
   <trkpt lon="6.712702" lat="45.750402"><ele>1913.75</ele></trkpt>
   <trkpt lon="6.712789" lat="45.750407"><ele>1914.0</ele></trkpt>
   <trkpt lon="6.713219" lat="45.750372"><ele>1915.75</ele></trkpt>
   <trkpt lon="6.713585" lat="45.750429"><ele>1918.25</ele></trkpt>
   <trkpt lon="6.714076" lat="45.750431"><ele>1922.5</ele></trkpt>
   <trkpt lon="6.714284" lat="45.750388"><ele>1924.0</ele></trkpt>
   <trkpt lon="6.714532" lat="45.750367"><ele>1925.75</ele></trkpt>
   <trkpt lon="6.714783" lat="45.750393"><ele>1927.75</ele></trkpt>
   <trkpt lon="6.714962" lat="45.750330"><ele>1929.5</ele></trkpt>
   <trkpt lon="6.715096" lat="45.750263"><ele>1931.0</ele></trkpt>
   <trkpt lon="6.715133" lat="45.750197"><ele>1931.5</ele></trkpt>
   <trkpt lon="6.715171" lat="45.750185"><ele>1931.75</ele></trkpt>
   <trkpt lon="6.715381" lat="45.750246"><ele>1933.5</ele></trkpt>
   <trkpt lon="6.715756" lat="45.750275"><ele>1937.0</ele></trkpt>
   <trkpt lon="6.715904" lat="45.750252"><ele>1938.5</ele></trkpt>
   <trkpt lon="6.716104" lat="45.750327"><ele>1941.0</ele></trkpt>
   <trkpt lon="6.716282" lat="45.750299"><ele>1941.5</ele></trkpt>
   <trkpt lon="6.716611" lat="45.750476"><ele>1945.0</ele></trkpt>
   <trkpt lon="6.717177" lat="45.750600"><ele>1950.75</ele></trkpt>
   <trkpt lon="6.717575" lat="45.750795"><ele>1955.25</ele></trkpt>
   <trkpt lon="6.717946" lat="45.750892"><ele>1959.25</ele></trkpt>
   <trkpt lon="6.718153" lat="45.750903"><ele>1961.0</ele></trkpt>
   <trkpt lon="6.718396" lat="45.751001"><ele>1965.0</ele></trkpt>
   <trkpt lon="6.718693" lat="45.751029"><ele>1968.0</ele></trkpt>
   <trkpt lon="6.719116" lat="45.751159"><ele>1973.25</ele></trkpt>
   <trkpt lon="6.719503" lat="45.751228"><ele>1978.0</ele></trkpt>
   <trkpt lon="6.719698" lat="45.751224"><ele>1979.25</ele></trkpt>
   <trkpt lon="6.719887" lat="45.751204"><ele>1981.75</ele></trkpt>
   <trkpt lon="6.720166" lat="45.751313"><ele>1988.25</ele></trkpt>
   <trkpt lon="6.720576" lat="45.751406"><ele>1997.25</ele></trkpt>
   <trkpt lon="6.721079" lat="45.751462"><ele>2006.0</ele></trkpt>
   <trkpt lon="6.721570" lat="45.751445"><ele>2014.75</ele></trkpt>
   <trkpt lon="6.721991" lat="45.751500"><ele>2021.75</ele></trkpt>
   <trkpt lon="6.722366" lat="45.751535"><ele>2028.0</ele></trkpt>
   <trkpt lon="6.722821" lat="45.751500"><ele>2035.75</ele></trkpt>
   <trkpt lon="6.722980" lat="45.751488"><ele>2037.75</ele></trkpt>
   <trkpt lon="6.723383" lat="45.751432"><ele>2046.0</ele></trkpt>
   <trkpt lon="6.723306" lat="45.751280"><ele>2047.5</ele></trkpt>
   <trkpt lon="6.723422" lat="45.751189"><ele>2052.25</ele></trkpt>
   <trkpt lon="6.723539" lat="45.751156"><ele>2055.5</ele></trkpt>
   <trkpt lon="6.723660" lat="45.751155"><ele>2058.5</ele></trkpt>
   <trkpt lon="6.723803" lat="45.751087"><ele>2062.5</ele></trkpt>
   <trkpt lon="6.723904" lat="45.751138"><ele>2065.25</ele></trkpt>
   <trkpt lon="6.724051" lat="45.751064"><ele>2070.0</ele></trkpt>
   <trkpt lon="6.724121" lat="45.751170"><ele>2072.5</ele></trkpt>
   <trkpt lon="6.724204" lat="45.751123"><ele>2075.5</ele></trkpt>
   <trkpt lon="6.724434" lat="45.751512"><ele>2084.75</ele></trkpt>
   <trkpt lon="6.724556" lat="45.751580"><ele>2089.0</ele></trkpt>
   <trkpt lon="6.724780" lat="45.751660"><ele>2097.75</ele></trkpt>
   <trkpt lon="6.725089" lat="45.751836"><ele>2105.5</ele></trkpt>
   <trkpt lon="6.725261" lat="45.752025"><ele>2109.25</ele></trkpt>
   <trkpt lon="6.725628" lat="45.752548"><ele>2123.0</ele></trkpt>
   <trkpt lon="6.725989" lat="45.752796"><ele>2132.25</ele></trkpt>
  </trkseg>
  </trk>
</gpx>
