<?xml version="1.0" encoding="UTF-8"?>
<gpx xmlns="http://www.topografix.com/GPX/1/1" xmlns:xsi="http://www.w3.org/2001/XMLSchema-instance" xsi:schemaLocation="http://www.topografix.com/GPX/1/1 http://www.topografix.com/GPX/1/1/gpx.xsd" version="1.1" creator="tmb2027 build-gpx (BRouter hiking-mountain)">
  <metadata>
    <name>TMB 2027 Day 11 · Tré-le-Champ → Aiguillette d'Argentière ladders → Lac Blanc → La Flégère</name>
    <desc>트레르샹 → 사다리 구간 → 라크 블랑 → 라 플레제르 · 경유 3지점 · 참고용 산길 경로. 실제 길 찾기는 공식 지도·현장 표지 우선.</desc>
    <copyright author="OpenStreetMap contributors"><license>https://www.openstreetmap.org/copyright</license></copyright>
    <link href="https://brouter.de/"><text>Routing: BRouter hiking-mountain</text></link>
    <time>2026-09-18T00:00:00Z</time>
  </metadata>
  <wpt lat="45.994" lon="6.935"><ele>1417</ele><name>Tré-le-Champ</name><type>lodging</type></wpt>
  <wpt lat="45.982" lon="6.918"><ele>2050</ele><name>Aiguillette d'Argentière</name><type>waypoint</type></wpt>
  <wpt lat="45.9839" lon="6.8894"><ele>2352</ele><name>Lac Blanc</name><type>waypoint</type></wpt>
  <wpt lat="45.955" lon="6.887"><ele>1877</ele><name>Refuge de la Flégère</name><type>lodging</type></wpt>
  <trk>
    <name>TMB 2027 Day 11 · Tré-le-Champ → Aiguillette d'Argentière ladders → Lac Blanc → La Flégère</name>
    <trkseg>
   <trkpt lon="6.934801" lat="45.994080"><ele>1363.75</ele></trkpt>
   <trkpt lon="6.935040" lat="45.994366"><ele>1364.25</ele></trkpt>
   <trkpt lon="6.935097" lat="45.994441"><ele>1364.0</ele></trkpt>
   <trkpt lon="6.935131" lat="45.994503"><ele>1364.0</ele></trkpt>
   <trkpt lon="6.935154" lat="45.994587"><ele>1363.5</ele></trkpt>
   <trkpt lon="6.935152" lat="45.994672"><ele>1362.5</ele></trkpt>
   <trkpt lon="6.935126" lat="45.994764"><ele>1361.5</ele></trkpt>
   <trkpt lon="6.935076" lat="45.994881"><ele>1361.0</ele></trkpt>
   <trkpt lon="6.935017" lat="45.995002"><ele>1360.75</ele></trkpt>
   <trkpt lon="6.934944" lat="45.995102"><ele>1356.25</ele></trkpt>
   <trkpt lon="6.934883" lat="45.995251"><ele>1350.5</ele></trkpt>
   <trkpt lon="6.934645" lat="45.995841"><ele>1362.25</ele></trkpt>
   <trkpt lon="6.934649" lat="45.995913"><ele>1362.75</ele></trkpt>
   <trkpt lon="6.934700" lat="45.996272"><ele>1364.5</ele></trkpt>
   <trkpt lon="6.934748" lat="45.996291"><ele>1364.0</ele></trkpt>
   <trkpt lon="6.934796" lat="45.996311"><ele>1363.0</ele></trkpt>
   <trkpt lon="6.934844" lat="45.996330"><ele>1362.0</ele></trkpt>
   <trkpt lon="6.934774" lat="45.996421"><ele>1363.75</ele></trkpt>
   <trkpt lon="6.934748" lat="45.996470"><ele>1364.75</ele></trkpt>
   <trkpt lon="6.934640" lat="45.996460"><ele>1365.0</ele></trkpt>
   <trkpt lon="6.934470" lat="45.996535"><ele>1365.0</ele></trkpt>
   <trkpt lon="6.934522" lat="45.996592"><ele>1365.0</ele></trkpt>
   <trkpt lon="6.934579" lat="45.996654"><ele>1365.25</ele></trkpt>
   <trkpt lon="6.934424" lat="45.996723"><ele>1365.25</ele></trkpt>
   <trkpt lon="6.934394" lat="45.996747"><ele>1365.25</ele></trkpt>
   <trkpt lon="6.934109" lat="45.997113"><ele>1364.5</ele></trkpt>
   <trkpt lon="6.934035" lat="45.997146"><ele>1364.25</ele></trkpt>
   <trkpt lon="6.933818" lat="45.997412"><ele>1366.0</ele></trkpt>
   <trkpt lon="6.933742" lat="45.997544"><ele>1368.75</ele></trkpt>
   <trkpt lon="6.933685" lat="45.997619"><ele>1371.5</ele></trkpt>
   <trkpt lon="6.933654" lat="45.997641"><ele>1372.5</ele></trkpt>
   <trkpt lon="6.933614" lat="45.997645"><ele>1373.0</ele></trkpt>
   <trkpt lon="6.933500" lat="45.997617"><ele>1373.5</ele></trkpt>
   <trkpt lon="6.933442" lat="45.997591"><ele>1373.5</ele></trkpt>
   <trkpt lon="6.933389" lat="45.997558"><ele>1372.75</ele></trkpt>
   <trkpt lon="6.933359" lat="45.997528"><ele>1371.75</ele></trkpt>
   <trkpt lon="6.932795" lat="45.997314"><ele>1371.5</ele></trkpt>
   <trkpt lon="6.932607" lat="45.997262"><ele>1373.25</ele></trkpt>
   <trkpt lon="6.932162" lat="45.997078"><ele>1376.25</ele></trkpt>
   <trkpt lon="6.931869" lat="45.996853"><ele>1374.5</ele></trkpt>
   <trkpt lon="6.931611" lat="45.996710"><ele>1376.5</ele></trkpt>
   <trkpt lon="6.931432" lat="45.996653"><ele>1380.0</ele></trkpt>
   <trkpt lon="6.931263" lat="45.996559"><ele>1381.75</ele></trkpt>
   <trkpt lon="6.931196" lat="45.996538"><ele>1383.25</ele></trkpt>
   <trkpt lon="6.931086" lat="45.996503"><ele>1385.5</ele></trkpt>
   <trkpt lon="6.930759" lat="45.996302"><ele>1387.25</ele></trkpt>
   <trkpt lon="6.930482" lat="45.996176"><ele>1389.75</ele></trkpt>
   <trkpt lon="6.930408" lat="45.996111"><ele>1388.75</ele></trkpt>
   <trkpt lon="6.930234" lat="45.996028"><ele>1390.0</ele></trkpt>
   <trkpt lon="6.929961" lat="45.995930"><ele>1394.0</ele></trkpt>
   <trkpt lon="6.929746" lat="45.995829"><ele>1396.0</ele></trkpt>
   <trkpt lon="6.929610" lat="45.995776"><ele>1396.25</ele></trkpt>
   <trkpt lon="6.929211" lat="45.995645"><ele>1397.0</ele></trkpt>
   <trkpt lon="6.929162" lat="45.995670"><ele>1398.0</ele></trkpt>
   <trkpt lon="6.929098" lat="45.995682"><ele>1398.25</ele></trkpt>
   <trkpt lon="6.929050" lat="45.995695"><ele>1398.5</ele></trkpt>
   <trkpt lon="6.928988" lat="45.995749"><ele>1399.0</ele></trkpt>
   <trkpt lon="6.928825" lat="45.995858"><ele>1399.25</ele></trkpt>
   <trkpt lon="6.928621" lat="45.995962"><ele>1397.5</ele></trkpt>
   <trkpt lon="6.928470" lat="45.996021"><ele>1396.5</ele></trkpt>
   <trkpt lon="6.928353" lat="45.996077"><ele>1396.0</ele></trkpt>
   <trkpt lon="6.928141" lat="45.996136"><ele>1395.5</ele></trkpt>
   <trkpt lon="6.928118" lat="45.996178"><ele>1395.75</ele></trkpt>
   <trkpt lon="6.928112" lat="45.996215"><ele>1396.0</ele></trkpt>
   <trkpt lon="6.928120" lat="45.996263"><ele>1396.5</ele></trkpt>
   <trkpt lon="6.928113" lat="45.996309"><ele>1397.0</ele></trkpt>
   <trkpt lon="6.928071" lat="45.996350"><ele>1397.5</ele></trkpt>
   <trkpt lon="6.928026" lat="45.996379"><ele>1398.0</ele></trkpt>
   <trkpt lon="6.927997" lat="45.996416"><ele>1398.75</ele></trkpt>
   <trkpt lon="6.927923" lat="45.996476"><ele>1400.0</ele></trkpt>
   <trkpt lon="6.927713" lat="45.996501"><ele>1402.0</ele></trkpt>
   <trkpt lon="6.927432" lat="45.996638"><ele>1406.25</ele></trkpt>
   <trkpt lon="6.927328" lat="45.996663"><ele>1407.75</ele></trkpt>
   <trkpt lon="6.927098" lat="45.996651"><ele>1409.75</ele></trkpt>
   <trkpt lon="6.926930" lat="45.996634"><ele>1410.75</ele></trkpt>
   <trkpt lon="6.926854" lat="45.996638"><ele>1411.5</ele></trkpt>
   <trkpt lon="6.926777" lat="45.996652"><ele>1412.0</ele></trkpt>
   <trkpt lon="6.926723" lat="45.996673"><ele>1412.5</ele></trkpt>
   <trkpt lon="6.926654" lat="45.996727"><ele>1413.5</ele></trkpt>
   <trkpt lon="6.926414" lat="45.996964"><ele>1416.0</ele></trkpt>
   <trkpt lon="6.926467" lat="45.996760"><ele>1414.75</ele></trkpt>
   <trkpt lon="6.926421" lat="45.996692"><ele>1414.75</ele></trkpt>
   <trkpt lon="6.926397" lat="45.996624"><ele>1415.0</ele></trkpt>
   <trkpt lon="6.926156" lat="45.996419"><ele>1420.0</ele></trkpt>
   <trkpt lon="6.926118" lat="45.996346"><ele>1421.5</ele></trkpt>
   <trkpt lon="6.926154" lat="45.996251"><ele>1422.5</ele></trkpt>
   <trkpt lon="6.926340" lat="45.996020"><ele>1421.75</ele></trkpt>
   <trkpt lon="6.926398" lat="45.995888"><ele>1421.25</ele></trkpt>
   <trkpt lon="6.926431" lat="45.995752"><ele>1420.25</ele></trkpt>
   <trkpt lon="6.926311" lat="45.995383"><ele>1423.5</ele></trkpt>
   <trkpt lon="6.926138" lat="45.995205"><ele>1430.25</ele></trkpt>
   <trkpt lon="6.926059" lat="45.995110"><ele>1433.0</ele></trkpt>
   <trkpt lon="6.926029" lat="45.995047"><ele>1434.0</ele></trkpt>
   <trkpt lon="6.925985" lat="45.995018"><ele>1436.0</ele></trkpt>
   <trkpt lon="6.925926" lat="45.994904"><ele>1437.0</ele></trkpt>
   <trkpt lon="6.925523" lat="45.994612"><ele>1446.5</ele></trkpt>
   <trkpt lon="6.925421" lat="45.994565"><ele>1448.5</ele></trkpt>
   <trkpt lon="6.925344" lat="45.994586"><ele>1451.5</ele></trkpt>
   <trkpt lon="6.925280" lat="45.994637"><ele>1454.75</ele></trkpt>
   <trkpt lon="6.925208" lat="45.994580"><ele>1454.5</ele></trkpt>
   <trkpt lon="6.925043" lat="45.994523"><ele>1456.0</ele></trkpt>
   <trkpt lon="6.924976" lat="45.994506"><ele>1456.75</ele></trkpt>
   <trkpt lon="6.924895" lat="45.994546"><ele>1458.5</ele></trkpt>
   <trkpt lon="6.924866" lat="45.994663"><ele>1461.75</ele></trkpt>
   <trkpt lon="6.924790" lat="45.994699"><ele>1463.5</ele></trkpt>
   <trkpt lon="6.924706" lat="45.994716"><ele>1465.0</ele></trkpt>
   <trkpt lon="6.924573" lat="45.994683"><ele>1466.5</ele></trkpt>
   <trkpt lon="6.924383" lat="45.994537"><ele>1467.0</ele></trkpt>
   <trkpt lon="6.924275" lat="45.994459"><ele>1468.75</ele></trkpt>
   <trkpt lon="6.924144" lat="45.994383"><ele>1471.75</ele></trkpt>
   <trkpt lon="6.924099" lat="45.994273"><ele>1471.75</ele></trkpt>
   <trkpt lon="6.924039" lat="45.994329"><ele>1475.0</ele></trkpt>
   <trkpt lon="6.923992" lat="45.994342"><ele>1477.0</ele></trkpt>
   <trkpt lon="6.923976" lat="45.994329"><ele>1477.5</ele></trkpt>
   <trkpt lon="6.923963" lat="45.994285"><ele>1477.5</ele></trkpt>
   <trkpt lon="6.923941" lat="45.994247"><ele>1478.25</ele></trkpt>
   <trkpt lon="6.923875" lat="45.994219"><ele>1480.75</ele></trkpt>
   <trkpt lon="6.923858" lat="45.994218"><ele>1481.25</ele></trkpt>
   <trkpt lon="6.923814" lat="45.994178"><ele>1482.75</ele></trkpt>
   <trkpt lon="6.923705" lat="45.994148"><ele>1486.25</ele></trkpt>
   <trkpt lon="6.923561" lat="45.994145"><ele>1491.25</ele></trkpt>
   <trkpt lon="6.923461" lat="45.994081"><ele>1494.0</ele></trkpt>
   <trkpt lon="6.923403" lat="45.993990"><ele>1495.25</ele></trkpt>
   <trkpt lon="6.923297" lat="45.993871"><ele>1497.75</ele></trkpt>
   <trkpt lon="6.923209" lat="45.993842"><ele>1499.75</ele></trkpt>
   <trkpt lon="6.923206" lat="45.993815"><ele>1499.5</ele></trkpt>
   <trkpt lon="6.923225" lat="45.993766"><ele>1498.5</ele></trkpt>
   <trkpt lon="6.923114" lat="45.993731"><ele>1501.25</ele></trkpt>
   <trkpt lon="6.923016" lat="45.993643"><ele>1503.5</ele></trkpt>
   <trkpt lon="6.922909" lat="45.993508"><ele>1506.0</ele></trkpt>
   <trkpt lon="6.922752" lat="45.993375"><ele>1510.25</ele></trkpt>
   <trkpt lon="6.922737" lat="45.993312"><ele>1510.5</ele></trkpt>
   <trkpt lon="6.922697" lat="45.993207"><ele>1512.0</ele></trkpt>
   <trkpt lon="6.922624" lat="45.993141"><ele>1515.0</ele></trkpt>
   <trkpt lon="6.922557" lat="45.992911"><ele>1517.0</ele></trkpt>
   <trkpt lon="6.922509" lat="45.992833"><ele>1518.75</ele></trkpt>
   <trkpt lon="6.922504" lat="45.992705"><ele>1518.25</ele></trkpt>
   <trkpt lon="6.922431" lat="45.992674"><ele>1521.0</ele></trkpt>
   <trkpt lon="6.922413" lat="45.992572"><ele>1521.25</ele></trkpt>
   <trkpt lon="6.922381" lat="45.992501"><ele>1522.0</ele></trkpt>
   <trkpt lon="6.922326" lat="45.992438"><ele>1523.75</ele></trkpt>
   <trkpt lon="6.922238" lat="45.992384"><ele>1527.0</ele></trkpt>
   <trkpt lon="6.922045" lat="45.992321"><ele>1534.25</ele></trkpt>
   <trkpt lon="6.922017" lat="45.992253"><ele>1534.5</ele></trkpt>
   <trkpt lon="6.921890" lat="45.992183"><ele>1538.75</ele></trkpt>
   <trkpt lon="6.921876" lat="45.992094"><ele>1538.5</ele></trkpt>
   <trkpt lon="6.921829" lat="45.992074"><ele>1540.25</ele></trkpt>
   <trkpt lon="6.921804" lat="45.992075"><ele>1541.0</ele></trkpt>
   <trkpt lon="6.921784" lat="45.992088"><ele>1542.0</ele></trkpt>
   <trkpt lon="6.921772" lat="45.992121"><ele>1542.75</ele></trkpt>
   <trkpt lon="6.921705" lat="45.992229"><ele>1546.5</ele></trkpt>
   <trkpt lon="6.921660" lat="45.992224"><ele>1548.25</ele></trkpt>
   <trkpt lon="6.921664" lat="45.992193"><ele>1547.75</ele></trkpt>
   <trkpt lon="6.921632" lat="45.992111"><ele>1548.0</ele></trkpt>
   <trkpt lon="6.921610" lat="45.992084"><ele>1548.5</ele></trkpt>
   <trkpt lon="6.921445" lat="45.992007"><ele>1553.5</ele></trkpt>
   <trkpt lon="6.921384" lat="45.991956"><ele>1555.25</ele></trkpt>
   <trkpt lon="6.921366" lat="45.991879"><ele>1557.0</ele></trkpt>
   <trkpt lon="6.921366" lat="45.991762"><ele>1559.0</ele></trkpt>
   <trkpt lon="6.921467" lat="45.991685"><ele>1556.5</ele></trkpt>
   <trkpt lon="6.921471" lat="45.991666"><ele>1556.75</ele></trkpt>
   <trkpt lon="6.921438" lat="45.991625"><ele>1558.75</ele></trkpt>
   <trkpt lon="6.921478" lat="45.991577"><ele>1558.0</ele></trkpt>
   <trkpt lon="6.921446" lat="45.991550"><ele>1559.75</ele></trkpt>
   <trkpt lon="6.921332" lat="45.991419"><ele>1566.75</ele></trkpt>
   <trkpt lon="6.921266" lat="45.991387"><ele>1570.25</ele></trkpt>
   <trkpt lon="6.921200" lat="45.991171"><ele>1574.5</ele></trkpt>
   <trkpt lon="6.921148" lat="45.991119"><ele>1577.25</ele></trkpt>
   <trkpt lon="6.921124" lat="45.991110"><ele>1578.25</ele></trkpt>
   <trkpt lon="6.921098" lat="45.991114"><ele>1579.5</ele></trkpt>
   <trkpt lon="6.921061" lat="45.991133"><ele>1581.0</ele></trkpt>
   <trkpt lon="6.921039" lat="45.991131"><ele>1581.75</ele></trkpt>
   <trkpt lon="6.920936" lat="45.991094"><ele>1586.5</ele></trkpt>
   <trkpt lon="6.920819" lat="45.991038"><ele>1592.0</ele></trkpt>
   <trkpt lon="6.920785" lat="45.990931"><ele>1594.25</ele></trkpt>
   <trkpt lon="6.920761" lat="45.990917"><ele>1595.5</ele></trkpt>
   <trkpt lon="6.920719" lat="45.990904"><ele>1597.5</ele></trkpt>
   <trkpt lon="6.920723" lat="45.990826"><ele>1598.0</ele></trkpt>
   <trkpt lon="6.920741" lat="45.990772"><ele>1598.75</ele></trkpt>
   <trkpt lon="6.920753" lat="45.990735"><ele>1599.5</ele></trkpt>
   <trkpt lon="6.920801" lat="45.990658"><ele>1600.0</ele></trkpt>
   <trkpt lon="6.920818" lat="45.990597"><ele>1601.25</ele></trkpt>
   <trkpt lon="6.920815" lat="45.990577"><ele>1602.0</ele></trkpt>
   <trkpt lon="6.920790" lat="45.990575"><ele>1603.0</ele></trkpt>
   <trkpt lon="6.920761" lat="45.990589"><ele>1604.0</ele></trkpt>
   <trkpt lon="6.920749" lat="45.990585"><ele>1604.5</ele></trkpt>
   <trkpt lon="6.920765" lat="45.990554"><ele>1604.75</ele></trkpt>
   <trkpt lon="6.920765" lat="45.990494"><ele>1606.0</ele></trkpt>
   <trkpt lon="6.920742" lat="45.990491"><ele>1607.0</ele></trkpt>
   <trkpt lon="6.920724" lat="45.990505"><ele>1607.5</ele></trkpt>
   <trkpt lon="6.920706" lat="45.990499"><ele>1608.5</ele></trkpt>
   <trkpt lon="6.920684" lat="45.990313"><ele>1613.25</ele></trkpt>
   <trkpt lon="6.920619" lat="45.990178"><ele>1617.25</ele></trkpt>
   <trkpt lon="6.920598" lat="45.990117"><ele>1618.5</ele></trkpt>
   <trkpt lon="6.920614" lat="45.990069"><ele>1617.75</ele></trkpt>
   <trkpt lon="6.920607" lat="45.990038"><ele>1618.25</ele></trkpt>
   <trkpt lon="6.920582" lat="45.990020"><ele>1619.5</ele></trkpt>
   <trkpt lon="6.920545" lat="45.990007"><ele>1621.25</ele></trkpt>
   <trkpt lon="6.920472" lat="45.989864"><ele>1624.25</ele></trkpt>
   <trkpt lon="6.920405" lat="45.989810"><ele>1627.0</ele></trkpt>
   <trkpt lon="6.920399" lat="45.989738"><ele>1627.25</ele></trkpt>
   <trkpt lon="6.920343" lat="45.989652"><ele>1629.75</ele></trkpt>
   <trkpt lon="6.920266" lat="45.989574"><ele>1633.25</ele></trkpt>
   <trkpt lon="6.920234" lat="45.989560"><ele>1634.75</ele></trkpt>
   <trkpt lon="6.920175" lat="45.989448"><ele>1637.25</ele></trkpt>
   <trkpt lon="6.920154" lat="45.989424"><ele>1638.25</ele></trkpt>
   <trkpt lon="6.920125" lat="45.989422"><ele>1639.5</ele></trkpt>
   <trkpt lon="6.920118" lat="45.989427"><ele>1639.75</ele></trkpt>
   <trkpt lon="6.920111" lat="45.989482"><ele>1640.0</ele></trkpt>
   <trkpt lon="6.920090" lat="45.989493"><ele>1640.75</ele></trkpt>
   <trkpt lon="6.920071" lat="45.989485"><ele>1641.75</ele></trkpt>
   <trkpt lon="6.920041" lat="45.989438"><ele>1643.25</ele></trkpt>
   <trkpt lon="6.920043" lat="45.989388"><ele>1643.25</ele></trkpt>
   <trkpt lon="6.920035" lat="45.989381"><ele>1643.5</ele></trkpt>
   <trkpt lon="6.920013" lat="45.989377"><ele>1644.5</ele></trkpt>
   <trkpt lon="6.919996" lat="45.989384"><ele>1645.25</ele></trkpt>
   <trkpt lon="6.919984" lat="45.989405"><ele>1645.5</ele></trkpt>
   <trkpt lon="6.919964" lat="45.989410"><ele>1646.25</ele></trkpt>
   <trkpt lon="6.919954" lat="45.989405"><ele>1646.75</ele></trkpt>
   <trkpt lon="6.919927" lat="45.989377"><ele>1647.75</ele></trkpt>
   <trkpt lon="6.919919" lat="45.989312"><ele>1648.25</ele></trkpt>
   <trkpt lon="6.919909" lat="45.989310"><ele>1648.75</ele></trkpt>
   <trkpt lon="6.919877" lat="45.989327"><ele>1649.75</ele></trkpt>
   <trkpt lon="6.919856" lat="45.989306"><ele>1650.5</ele></trkpt>
   <trkpt lon="6.919856" lat="45.989262"><ele>1650.75</ele></trkpt>
   <trkpt lon="6.919832" lat="45.989250"><ele>1651.5</ele></trkpt>
   <trkpt lon="6.919821" lat="45.989230"><ele>1652.0</ele></trkpt>
   <trkpt lon="6.919814" lat="45.989148"><ele>1652.5</ele></trkpt>
   <trkpt lon="6.919746" lat="45.989042"><ele>1655.0</ele></trkpt>
   <trkpt lon="6.919723" lat="45.989039"><ele>1655.75</ele></trkpt>
   <trkpt lon="6.919707" lat="45.989051"><ele>1656.5</ele></trkpt>
   <trkpt lon="6.919691" lat="45.989054"><ele>1657.0</ele></trkpt>
   <trkpt lon="6.919678" lat="45.989043"><ele>1657.5</ele></trkpt>
   <trkpt lon="6.919642" lat="45.988982"><ele>1658.75</ele></trkpt>
   <trkpt lon="6.919616" lat="45.988912"><ele>1659.75</ele></trkpt>
   <trkpt lon="6.919501" lat="45.988862"><ele>1663.5</ele></trkpt>
   <trkpt lon="6.919411" lat="45.988774"><ele>1665.75</ele></trkpt>
   <trkpt lon="6.919326" lat="45.988719"><ele>1668.0</ele></trkpt>
   <trkpt lon="6.919266" lat="45.988650"><ele>1669.0</ele></trkpt>
   <trkpt lon="6.919206" lat="45.988623"><ele>1670.75</ele></trkpt>
   <trkpt lon="6.919167" lat="45.988560"><ele>1671.25</ele></trkpt>
   <trkpt lon="6.919090" lat="45.988507"><ele>1673.0</ele></trkpt>
   <trkpt lon="6.919028" lat="45.988415"><ele>1674.0</ele></trkpt>
   <trkpt lon="6.918653" lat="45.988271"><ele>1685.25</ele></trkpt>
   <trkpt lon="6.918636" lat="45.988235"><ele>1685.75</ele></trkpt>
   <trkpt lon="6.918628" lat="45.988060"><ele>1685.25</ele></trkpt>
   <trkpt lon="6.918620" lat="45.988045"><ele>1685.75</ele></trkpt>
   <trkpt lon="6.918611" lat="45.988039"><ele>1686.0</ele></trkpt>
   <trkpt lon="6.918589" lat="45.988041"><ele>1686.75</ele></trkpt>
   <trkpt lon="6.918556" lat="45.988068"><ele>1687.75</ele></trkpt>
   <trkpt lon="6.918535" lat="45.988067"><ele>1688.5</ele></trkpt>
   <trkpt lon="6.918484" lat="45.988048"><ele>1690.0</ele></trkpt>
   <trkpt lon="6.918401" lat="45.987938"><ele>1693.25</ele></trkpt>
   <trkpt lon="6.918290" lat="45.987834"><ele>1696.75</ele></trkpt>
   <trkpt lon="6.918225" lat="45.987685"><ele>1698.5</ele></trkpt>
   <trkpt lon="6.918208" lat="45.987670"><ele>1698.75</ele></trkpt>
   <trkpt lon="6.918188" lat="45.987667"><ele>1699.25</ele></trkpt>
   <trkpt lon="6.918168" lat="45.987674"><ele>1699.75</ele></trkpt>
   <trkpt lon="6.918108" lat="45.987728"><ele>1701.5</ele></trkpt>
   <trkpt lon="6.918082" lat="45.987736"><ele>1702.0</ele></trkpt>
   <trkpt lon="6.918053" lat="45.987731"><ele>1702.75</ele></trkpt>
   <trkpt lon="6.918016" lat="45.987704"><ele>1703.5</ele></trkpt>
   <trkpt lon="6.917793" lat="45.987661"><ele>1708.25</ele></trkpt>
   <trkpt lon="6.917771" lat="45.987680"><ele>1709.0</ele></trkpt>
   <trkpt lon="6.917777" lat="45.987748"><ele>1709.5</ele></trkpt>
   <trkpt lon="6.917761" lat="45.987780"><ele>1710.25</ele></trkpt>
   <trkpt lon="6.917726" lat="45.987817"><ele>1711.75</ele></trkpt>
   <trkpt lon="6.917669" lat="45.987831"><ele>1713.25</ele></trkpt>
   <trkpt lon="6.917552" lat="45.987810"><ele>1716.0</ele></trkpt>
   <trkpt lon="6.917492" lat="45.987813"><ele>1717.75</ele></trkpt>
   <trkpt lon="6.917459" lat="45.987822"><ele>1719.0</ele></trkpt>
   <trkpt lon="6.917444" lat="45.987840"><ele>1719.75</ele></trkpt>
   <trkpt lon="6.917433" lat="45.987872"><ele>1720.75</ele></trkpt>
   <trkpt lon="6.917416" lat="45.987882"><ele>1721.5</ele></trkpt>
   <trkpt lon="6.917407" lat="45.987880"><ele>1721.75</ele></trkpt>
   <trkpt lon="6.917390" lat="45.987858"><ele>1721.75</ele></trkpt>
   <trkpt lon="6.917351" lat="45.987835"><ele>1722.5</ele></trkpt>
   <trkpt lon="6.917285" lat="45.987819"><ele>1724.25</ele></trkpt>
   <trkpt lon="6.917259" lat="45.987823"><ele>1725.0</ele></trkpt>
   <trkpt lon="6.917222" lat="45.987819"><ele>1726.0</ele></trkpt>
   <trkpt lon="6.917218" lat="45.987827"><ele>1726.5</ele></trkpt>
   <trkpt lon="6.917225" lat="45.987839"><ele>1726.5</ele></trkpt>
   <trkpt lon="6.917248" lat="45.987857"><ele>1726.25</ele></trkpt>
   <trkpt lon="6.917257" lat="45.987899"><ele>1727.25</ele></trkpt>
   <trkpt lon="6.917249" lat="45.987933"><ele>1728.5</ele></trkpt>
   <trkpt lon="6.917229" lat="45.987961"><ele>1730.0</ele></trkpt>
   <trkpt lon="6.917250" lat="45.988025"><ele>1731.0</ele></trkpt>
   <trkpt lon="6.917247" lat="45.988041"><ele>1731.5</ele></trkpt>
   <trkpt lon="6.917229" lat="45.988047"><ele>1732.25</ele></trkpt>
   <trkpt lon="6.917180" lat="45.988023"><ele>1733.5</ele></trkpt>
   <trkpt lon="6.917161" lat="45.988025"><ele>1734.5</ele></trkpt>
   <trkpt lon="6.917158" lat="45.988032"><ele>1734.75</ele></trkpt>
   <trkpt lon="6.917169" lat="45.988140"><ele>1736.75</ele></trkpt>
   <trkpt lon="6.917194" lat="45.988197"><ele>1737.0</ele></trkpt>
   <trkpt lon="6.917182" lat="45.988228"><ele>1738.25</ele></trkpt>
   <trkpt lon="6.917219" lat="45.988269"><ele>1737.5</ele></trkpt>
   <trkpt lon="6.917226" lat="45.988293"><ele>1737.75</ele></trkpt>
   <trkpt lon="6.917221" lat="45.988333"><ele>1739.0</ele></trkpt>
   <trkpt lon="6.917206" lat="45.988344"><ele>1739.75</ele></trkpt>
   <trkpt lon="6.917189" lat="45.988350"><ele>1740.75</ele></trkpt>
   <trkpt lon="6.917156" lat="45.988348"><ele>1742.0</ele></trkpt>
   <trkpt lon="6.917074" lat="45.988297"><ele>1744.5</ele></trkpt>
   <trkpt lon="6.917054" lat="45.988291"><ele>1745.25</ele></trkpt>
   <trkpt lon="6.917027" lat="45.988312"><ele>1746.75</ele></trkpt>
   <trkpt lon="6.917011" lat="45.988315"><ele>1747.5</ele></trkpt>
   <trkpt lon="6.917000" lat="45.988310"><ele>1748.0</ele></trkpt>
   <trkpt lon="6.916998" lat="45.988298"><ele>1747.75</ele></trkpt>
   <trkpt lon="6.916982" lat="45.988282"><ele>1748.0</ele></trkpt>
   <trkpt lon="6.916956" lat="45.988289"><ele>1749.25</ele></trkpt>
   <trkpt lon="6.916946" lat="45.988314"><ele>1750.25</ele></trkpt>
   <trkpt lon="6.916935" lat="45.988322"><ele>1751.0</ele></trkpt>
   <trkpt lon="6.916916" lat="45.988325"><ele>1752.0</ele></trkpt>
   <trkpt lon="6.916877" lat="45.988317"><ele>1753.5</ele></trkpt>
   <trkpt lon="6.916807" lat="45.988287"><ele>1755.75</ele></trkpt>
   <trkpt lon="6.916753" lat="45.988280"><ele>1758.0</ele></trkpt>
   <trkpt lon="6.916734" lat="45.988244"><ele>1758.0</ele></trkpt>
   <trkpt lon="6.916724" lat="45.988238"><ele>1758.25</ele></trkpt>
   <trkpt lon="6.916711" lat="45.988239"><ele>1758.75</ele></trkpt>
   <trkpt lon="6.916694" lat="45.988258"><ele>1760.0</ele></trkpt>
   <trkpt lon="6.916689" lat="45.988292"><ele>1761.0</ele></trkpt>
   <trkpt lon="6.916699" lat="45.988365"><ele>1762.0</ele></trkpt>
   <trkpt lon="6.916685" lat="45.988381"><ele>1763.0</ele></trkpt>
   <trkpt lon="6.916656" lat="45.988380"><ele>1764.25</ele></trkpt>
   <trkpt lon="6.916610" lat="45.988361"><ele>1766.0</ele></trkpt>
   <trkpt lon="6.916530" lat="45.988312"><ele>1768.75</ele></trkpt>
   <trkpt lon="6.916506" lat="45.988314"><ele>1770.0</ele></trkpt>
   <trkpt lon="6.916498" lat="45.988333"><ele>1770.75</ele></trkpt>
   <trkpt lon="6.916486" lat="45.988331"><ele>1771.25</ele></trkpt>
   <trkpt lon="6.916471" lat="45.988312"><ele>1771.5</ele></trkpt>
   <trkpt lon="6.916451" lat="45.988308"><ele>1772.5</ele></trkpt>
   <trkpt lon="6.916419" lat="45.988250"><ele>1772.75</ele></trkpt>
   <trkpt lon="6.916372" lat="45.988236"><ele>1774.5</ele></trkpt>
   <trkpt lon="6.916342" lat="45.988214"><ele>1775.5</ele></trkpt>
   <trkpt lon="6.916293" lat="45.988153"><ele>1776.5</ele></trkpt>
   <trkpt lon="6.916249" lat="45.988082"><ele>1777.0</ele></trkpt>
   <trkpt lon="6.916221" lat="45.988066"><ele>1778.0</ele></trkpt>
   <trkpt lon="6.916186" lat="45.988057"><ele>1779.5</ele></trkpt>
   <trkpt lon="6.916136" lat="45.988002"><ele>1780.25</ele></trkpt>
   <trkpt lon="6.916097" lat="45.987942"><ele>1780.5</ele></trkpt>
   <trkpt lon="6.916029" lat="45.987886"><ele>1782.25</ele></trkpt>
   <trkpt lon="6.915987" lat="45.987831"><ele>1782.5</ele></trkpt>
   <trkpt lon="6.915937" lat="45.987797"><ele>1784.0</ele></trkpt>
   <trkpt lon="6.915870" lat="45.987721"><ele>1784.75</ele></trkpt>
   <trkpt lon="6.915740" lat="45.987664"><ele>1788.5</ele></trkpt>
   <trkpt lon="6.915716" lat="45.987645"><ele>1789.0</ele></trkpt>
   <trkpt lon="6.915698" lat="45.987642"><ele>1789.5</ele></trkpt>
   <trkpt lon="6.915675" lat="45.987659"><ele>1791.0</ele></trkpt>
   <trkpt lon="6.915653" lat="45.987657"><ele>1792.0</ele></trkpt>
   <trkpt lon="6.915607" lat="45.987626"><ele>1792.75</ele></trkpt>
   <trkpt lon="6.915525" lat="45.987626"><ele>1796.5</ele></trkpt>
   <trkpt lon="6.915425" lat="45.987575"><ele>1799.5</ele></trkpt>
   <trkpt lon="6.915378" lat="45.987539"><ele>1800.5</ele></trkpt>
   <trkpt lon="6.915308" lat="45.987499"><ele>1802.5</ele></trkpt>
   <trkpt lon="6.915291" lat="45.987470"><ele>1802.5</ele></trkpt>
   <trkpt lon="6.915271" lat="45.987455"><ele>1803.0</ele></trkpt>
   <trkpt lon="6.915222" lat="45.987444"><ele>1805.5</ele></trkpt>
   <trkpt lon="6.915168" lat="45.987395"><ele>1807.0</ele></trkpt>
   <trkpt lon="6.915117" lat="45.987306"><ele>1806.75</ele></trkpt>
   <trkpt lon="6.915085" lat="45.987267"><ele>1807.0</ele></trkpt>
   <trkpt lon="6.915027" lat="45.987236"><ele>1809.0</ele></trkpt>
   <trkpt lon="6.914965" lat="45.987151"><ele>1809.5</ele></trkpt>
   <trkpt lon="6.914892" lat="45.987109"><ele>1812.0</ele></trkpt>
   <trkpt lon="6.914856" lat="45.987078"><ele>1813.0</ele></trkpt>
   <trkpt lon="6.914836" lat="45.987068"><ele>1813.75</ele></trkpt>
   <trkpt lon="6.914829" lat="45.987070"><ele>1814.25</ele></trkpt>
   <trkpt lon="6.914824" lat="45.987088"><ele>1815.0</ele></trkpt>
   <trkpt lon="6.914816" lat="45.987092"><ele>1815.5</ele></trkpt>
   <trkpt lon="6.914802" lat="45.987088"><ele>1816.25</ele></trkpt>
   <trkpt lon="6.914708" lat="45.987045"><ele>1820.0</ele></trkpt>
   <trkpt lon="6.914667" lat="45.987018"><ele>1821.5</ele></trkpt>
   <trkpt lon="6.914608" lat="45.987008"><ele>1824.75</ele></trkpt>
   <trkpt lon="6.914584" lat="45.986987"><ele>1825.5</ele></trkpt>
   <trkpt lon="6.914560" lat="45.986873"><ele>1823.5</ele></trkpt>
   <trkpt lon="6.914542" lat="45.986841"><ele>1823.75</ele></trkpt>
   <trkpt lon="6.914500" lat="45.986800"><ele>1825.0</ele></trkpt>
   <trkpt lon="6.914437" lat="45.986711"><ele>1826.5</ele></trkpt>
   <trkpt lon="6.914414" lat="45.986701"><ele>1827.5</ele></trkpt>
   <trkpt lon="6.914375" lat="45.986669"><ele>1829.0</ele></trkpt>
   <trkpt lon="6.914305" lat="45.986595"><ele>1830.5</ele></trkpt>
   <trkpt lon="6.914280" lat="45.986586"><ele>1831.75</ele></trkpt>
   <trkpt lon="6.914242" lat="45.986549"><ele>1832.5</ele></trkpt>
   <trkpt lon="6.914238" lat="45.986511"><ele>1831.5</ele></trkpt>
   <trkpt lon="6.914150" lat="45.986446"><ele>1834.0</ele></trkpt>
   <trkpt lon="6.914046" lat="45.986314"><ele>1834.25</ele></trkpt>
   <trkpt lon="6.913933" lat="45.986217"><ele>1836.25</ele></trkpt>
   <trkpt lon="6.913887" lat="45.986140"><ele>1835.5</ele></trkpt>
   <trkpt lon="6.913879" lat="45.986072"><ele>1833.25</ele></trkpt>
   <trkpt lon="6.913855" lat="45.986021"><ele>1833.0</ele></trkpt>
   <trkpt lon="6.913738" lat="45.985884"><ele>1834.5</ele></trkpt>
   <trkpt lon="6.913699" lat="45.985855"><ele>1835.25</ele></trkpt>
   <trkpt lon="6.913684" lat="45.985851"><ele>1836.0</ele></trkpt>
   <trkpt lon="6.913697" lat="45.985948"><ele>1840.25</ele></trkpt>
   <trkpt lon="6.913691" lat="45.985978"><ele>1842.25</ele></trkpt>
   <trkpt lon="6.913672" lat="45.985986"><ele>1844.0</ele></trkpt>
   <trkpt lon="6.913644" lat="45.985974"><ele>1845.25</ele></trkpt>
   <trkpt lon="6.913595" lat="45.985901"><ele>1844.0</ele></trkpt>
   <trkpt lon="6.913534" lat="45.985877"><ele>1845.75</ele></trkpt>
   <trkpt lon="6.913463" lat="45.985839"><ele>1847.25</ele></trkpt>
   <trkpt lon="6.913409" lat="45.985826"><ele>1849.5</ele></trkpt>
   <trkpt lon="6.913351" lat="45.985822"><ele>1852.5</ele></trkpt>
   <trkpt lon="6.913331" lat="45.985803"><ele>1852.75</ele></trkpt>
   <trkpt lon="6.913310" lat="45.985795"><ele>1854.0</ele></trkpt>
   <trkpt lon="6.913292" lat="45.985796"><ele>1855.75</ele></trkpt>
   <trkpt lon="6.913265" lat="45.985803"><ele>1858.25</ele></trkpt>
   <trkpt lon="6.913245" lat="45.985787"><ele>1859.0</ele></trkpt>
   <trkpt lon="6.913203" lat="45.985712"><ele>1857.75</ele></trkpt>
   <trkpt lon="6.913190" lat="45.985714"><ele>1858.75</ele></trkpt>
   <trkpt lon="6.913183" lat="45.985731"><ele>1860.5</ele></trkpt>
   <trkpt lon="6.913150" lat="45.985736"><ele>1863.25</ele></trkpt>
   <trkpt lon="6.913111" lat="45.985710"><ele>1864.25</ele></trkpt>
   <trkpt lon="6.913118" lat="45.985687"><ele>1862.0</ele></trkpt>
   <trkpt lon="6.913108" lat="45.985679"><ele>1862.0</ele></trkpt>
   <trkpt lon="6.913067" lat="45.985689"><ele>1865.5</ele></trkpt>
   <trkpt lon="6.912990" lat="45.985593"><ele>1864.25</ele></trkpt>
   <trkpt lon="6.912945" lat="45.985574"><ele>1866.75</ele></trkpt>
   <trkpt lon="6.912860" lat="45.985484"><ele>1868.5</ele></trkpt>
   <trkpt lon="6.912863" lat="45.985435"><ele>1865.75</ele></trkpt>
   <trkpt lon="6.912851" lat="45.985409"><ele>1865.25</ele></trkpt>
   <trkpt lon="6.912837" lat="45.985399"><ele>1865.5</ele></trkpt>
   <trkpt lon="6.912828" lat="45.985400"><ele>1866.25</ele></trkpt>
   <trkpt lon="6.912823" lat="45.985417"><ele>1867.75</ele></trkpt>
   <trkpt lon="6.912810" lat="45.985418"><ele>1868.75</ele></trkpt>
   <trkpt lon="6.912807" lat="45.985388"><ele>1867.0</ele></trkpt>
   <trkpt lon="6.912788" lat="45.985344"><ele>1865.5</ele></trkpt>
   <trkpt lon="6.912773" lat="45.985348"><ele>1866.75</ele></trkpt>
   <trkpt lon="6.912758" lat="45.985380"><ele>1870.0</ele></trkpt>
   <trkpt lon="6.912733" lat="45.985381"><ele>1872.0</ele></trkpt>
   <trkpt lon="6.912716" lat="45.985348"><ele>1871.0</ele></trkpt>
   <trkpt lon="6.912705" lat="45.985293"><ele>1868.0</ele></trkpt>
   <trkpt lon="6.912694" lat="45.985290"><ele>1868.5</ele></trkpt>
   <trkpt lon="6.912679" lat="45.985299"><ele>1870.25</ele></trkpt>
   <trkpt lon="6.912666" lat="45.985294"><ele>1870.75</ele></trkpt>
   <trkpt lon="6.912679" lat="45.985244"><ele>1867.75</ele></trkpt>
   <trkpt lon="6.912667" lat="45.985245"><ele>1868.5</ele></trkpt>
   <trkpt lon="6.912626" lat="45.985272"><ele>1872.0</ele></trkpt>
   <trkpt lon="6.912606" lat="45.985277"><ele>1873.5</ele></trkpt>
   <trkpt lon="6.912599" lat="45.985269"><ele>1873.75</ele></trkpt>
   <trkpt lon="6.912606" lat="45.985257"><ele>1873.0</ele></trkpt>
   <trkpt lon="6.912603" lat="45.985235"><ele>1872.25</ele></trkpt>
   <trkpt lon="6.912596" lat="45.985230"><ele>1872.5</ele></trkpt>
   <trkpt lon="6.912531" lat="45.985246"><ele>1877.5</ele></trkpt>
   <trkpt lon="6.912513" lat="45.985243"><ele>1878.5</ele></trkpt>
   <trkpt lon="6.912499" lat="45.985223"><ele>1878.5</ele></trkpt>
   <trkpt lon="6.912496" lat="45.985203"><ele>1878.0</ele></trkpt>
   <trkpt lon="6.912478" lat="45.985194"><ele>1879.0</ele></trkpt>
   <trkpt lon="6.912423" lat="45.985184"><ele>1882.5</ele></trkpt>
   <trkpt lon="6.912406" lat="45.985170"><ele>1883.0</ele></trkpt>
   <trkpt lon="6.912381" lat="45.985126"><ele>1882.25</ele></trkpt>
   <trkpt lon="6.912339" lat="45.985098"><ele>1883.5</ele></trkpt>
   <trkpt lon="6.912315" lat="45.985071"><ele>1883.25</ele></trkpt>
   <trkpt lon="6.912293" lat="45.985028"><ele>1881.75</ele></trkpt>
   <trkpt lon="6.912245" lat="45.985012"><ele>1883.5</ele></trkpt>
   <trkpt lon="6.912196" lat="45.984972"><ele>1885.5</ele></trkpt>
   <trkpt lon="6.912162" lat="45.984934"><ele>1887.75</ele></trkpt>
   <trkpt lon="6.912146" lat="45.984898"><ele>1888.5</ele></trkpt>
   <trkpt lon="6.912115" lat="45.984857"><ele>1891.0</ele></trkpt>
   <trkpt lon="6.912070" lat="45.984829"><ele>1895.25</ele></trkpt>
   <trkpt lon="6.911996" lat="45.984819"><ele>1902.75</ele></trkpt>
   <trkpt lon="6.911987" lat="45.984809"><ele>1903.75</ele></trkpt>
   <trkpt lon="6.911985" lat="45.984800"><ele>1904.0</ele></trkpt>
   <trkpt lon="6.912009" lat="45.984770"><ele>1901.5</ele></trkpt>
   <trkpt lon="6.911987" lat="45.984603"><ele>1901.75</ele></trkpt>
   <trkpt lon="6.911987" lat="45.984561"><ele>1901.0</ele></trkpt>
   <trkpt lon="6.911895" lat="45.984510"><ele>1909.75</ele></trkpt>
   <trkpt lon="6.911875" lat="45.984432"><ele>1910.0</ele></trkpt>
   <trkpt lon="6.911893" lat="45.984408"><ele>1908.0</ele></trkpt>
   <trkpt lon="6.911876" lat="45.984379"><ele>1909.0</ele></trkpt>
   <trkpt lon="6.911825" lat="45.984344"><ele>1913.0</ele></trkpt>
   <trkpt lon="6.911805" lat="45.984315"><ele>1914.25</ele></trkpt>
   <trkpt lon="6.911668" lat="45.984287"><ele>1927.0</ele></trkpt>
   <trkpt lon="6.911647" lat="45.984312"><ele>1928.75</ele></trkpt>
   <trkpt lon="6.911630" lat="45.984316"><ele>1930.0</ele></trkpt>
   <trkpt lon="6.911613" lat="45.984312"><ele>1931.0</ele></trkpt>
   <trkpt lon="6.911500" lat="45.984227"><ele>1937.0</ele></trkpt>
   <trkpt lon="6.911451" lat="45.984205"><ele>1939.75</ele></trkpt>
   <trkpt lon="6.911426" lat="45.984160"><ele>1940.0</ele></trkpt>
   <trkpt lon="6.911396" lat="45.984153"><ele>1941.75</ele></trkpt>
   <trkpt lon="6.911348" lat="45.984167"><ele>1945.75</ele></trkpt>
   <trkpt lon="6.911197" lat="45.984100"><ele>1953.0</ele></trkpt>
   <trkpt lon="6.911153" lat="45.984071"><ele>1954.75</ele></trkpt>
   <trkpt lon="6.911073" lat="45.984037"><ele>1958.0</ele></trkpt>
   <trkpt lon="6.911046" lat="45.984028"><ele>1959.25</ele></trkpt>
   <trkpt lon="6.911000" lat="45.984028"><ele>1961.75</ele></trkpt>
   <trkpt lon="6.910968" lat="45.984017"><ele>1963.0</ele></trkpt>
   <trkpt lon="6.910780" lat="45.983924"><ele>1968.25</ele></trkpt>
   <trkpt lon="6.910745" lat="45.983893"><ele>1968.5</ele></trkpt>
   <trkpt lon="6.910707" lat="45.983884"><ele>1970.25</ele></trkpt>
   <trkpt lon="6.910689" lat="45.983887"><ele>1971.5</ele></trkpt>
   <trkpt lon="6.910669" lat="45.983902"><ele>1973.75</ele></trkpt>
   <trkpt lon="6.910661" lat="45.983840"><ele>1969.25</ele></trkpt>
   <trkpt lon="6.910551" lat="45.983733"><ele>1967.75</ele></trkpt>
   <trkpt lon="6.910349" lat="45.983565"><ele>1969.25</ele></trkpt>
   <trkpt lon="6.910268" lat="45.983525"><ele>1972.0</ele></trkpt>
   <trkpt lon="6.910157" lat="45.983442"><ele>1973.75</ele></trkpt>
   <trkpt lon="6.910127" lat="45.983411"><ele>1973.5</ele></trkpt>
   <trkpt lon="6.910093" lat="45.983389"><ele>1974.5</ele></trkpt>
   <trkpt lon="6.910052" lat="45.983336"><ele>1973.25</ele></trkpt>
   <trkpt lon="6.909935" lat="45.983240"><ele>1975.75</ele></trkpt>
   <trkpt lon="6.909917" lat="45.983239"><ele>1976.75</ele></trkpt>
   <trkpt lon="6.909895" lat="45.983260"><ele>1979.5</ele></trkpt>
   <trkpt lon="6.909838" lat="45.983250"><ele>1982.75</ele></trkpt>
   <trkpt lon="6.909821" lat="45.983228"><ele>1982.25</ele></trkpt>
   <trkpt lon="6.909797" lat="45.983213"><ele>1983.0</ele></trkpt>
   <trkpt lon="6.909735" lat="45.983200"><ele>1986.0</ele></trkpt>
   <trkpt lon="6.909652" lat="45.983146"><ele>1986.75</ele></trkpt>
   <trkpt lon="6.909547" lat="45.983036"><ele>1985.0</ele></trkpt>
   <trkpt lon="6.909501" lat="45.983020"><ele>1987.0</ele></trkpt>
   <trkpt lon="6.909476" lat="45.983022"><ele>1988.25</ele></trkpt>
   <trkpt lon="6.909452" lat="45.983011"><ele>1989.25</ele></trkpt>
   <trkpt lon="6.909453" lat="45.982996"><ele>1988.75</ele></trkpt>
   <trkpt lon="6.909443" lat="45.982988"><ele>1989.0</ele></trkpt>
   <trkpt lon="6.909427" lat="45.982988"><ele>1990.25</ele></trkpt>
   <trkpt lon="6.909418" lat="45.982998"><ele>1991.0</ele></trkpt>
   <trkpt lon="6.909391" lat="45.982995"><ele>1993.0</ele></trkpt>
   <trkpt lon="6.909358" lat="45.982978"><ele>1994.75</ele></trkpt>
   <trkpt lon="6.909346" lat="45.982965"><ele>1995.25</ele></trkpt>
   <trkpt lon="6.909315" lat="45.982961"><ele>1997.5</ele></trkpt>
   <trkpt lon="6.909328" lat="45.982936"><ele>1996.0</ele></trkpt>
   <trkpt lon="6.909305" lat="45.982941"><ele>1997.75</ele></trkpt>
   <trkpt lon="6.909294" lat="45.982920"><ele>1998.0</ele></trkpt>
   <trkpt lon="6.909241" lat="45.982919"><ele>2002.0</ele></trkpt>
   <trkpt lon="6.909248" lat="45.982894"><ele>2001.0</ele></trkpt>
   <trkpt lon="6.909227" lat="45.982898"><ele>2002.5</ele></trkpt>
   <trkpt lon="6.909213" lat="45.982890"><ele>2003.5</ele></trkpt>
   <trkpt lon="6.909226" lat="45.982868"><ele>2002.0</ele></trkpt>
   <trkpt lon="6.909218" lat="45.982865"><ele>2002.5</ele></trkpt>
   <trkpt lon="6.909184" lat="45.982880"><ele>2005.5</ele></trkpt>
   <trkpt lon="6.909146" lat="45.982860"><ele>2007.75</ele></trkpt>
   <trkpt lon="6.909078" lat="45.982899"><ele>2013.25</ele></trkpt>
   <trkpt lon="6.909033" lat="45.982780"><ele>2014.5</ele></trkpt>
   <trkpt lon="6.908990" lat="45.982767"><ele>2018.0</ele></trkpt>
   <trkpt lon="6.908971" lat="45.982750"><ele>2020.0</ele></trkpt>
   <trkpt lon="6.908961" lat="45.982753"><ele>2020.5</ele></trkpt>
   <trkpt lon="6.908954" lat="45.982768"><ele>2020.5</ele></trkpt>
   <trkpt lon="6.908934" lat="45.982766"><ele>2022.0</ele></trkpt>
   <trkpt lon="6.908920" lat="45.982776"><ele>2022.75</ele></trkpt>
   <trkpt lon="6.908933" lat="45.982807"><ele>2022.0</ele></trkpt>
   <trkpt lon="6.908920" lat="45.982808"><ele>2023.0</ele></trkpt>
   <trkpt lon="6.908900" lat="45.982786"><ele>2024.25</ele></trkpt>
   <trkpt lon="6.908886" lat="45.982782"><ele>2025.0</ele></trkpt>
   <trkpt lon="6.908880" lat="45.982788"><ele>2025.5</ele></trkpt>
   <trkpt lon="6.908884" lat="45.982830"><ele>2025.75</ele></trkpt>
   <trkpt lon="6.908874" lat="45.982832"><ele>2026.25</ele></trkpt>
   <trkpt lon="6.908860" lat="45.982822"><ele>2027.0</ele></trkpt>
   <trkpt lon="6.908818" lat="45.982758"><ele>2029.5</ele></trkpt>
   <trkpt lon="6.908808" lat="45.982758"><ele>2030.25</ele></trkpt>
   <trkpt lon="6.908782" lat="45.982805"><ele>2031.25</ele></trkpt>
   <trkpt lon="6.908784" lat="45.982862"><ele>2031.75</ele></trkpt>
   <trkpt lon="6.908769" lat="45.982890"><ele>2033.0</ele></trkpt>
   <trkpt lon="6.908756" lat="45.982980"><ele>2034.75</ele></trkpt>
   <trkpt lon="6.908744" lat="45.982979"><ele>2035.5</ele></trkpt>
   <trkpt lon="6.908719" lat="45.982956"><ele>2036.5</ele></trkpt>
   <trkpt lon="6.908663" lat="45.982943"><ele>2039.75</ele></trkpt>
   <trkpt lon="6.908576" lat="45.982871"><ele>2044.0</ele></trkpt>
   <trkpt lon="6.908553" lat="45.982832"><ele>2045.0</ele></trkpt>
   <trkpt lon="6.908543" lat="45.982762"><ele>2045.25</ele></trkpt>
   <trkpt lon="6.908555" lat="45.982666"><ele>2046.5</ele></trkpt>
   <trkpt lon="6.908536" lat="45.982587"><ele>2049.0</ele></trkpt>
   <trkpt lon="6.908517" lat="45.982584"><ele>2050.0</ele></trkpt>
   <trkpt lon="6.908507" lat="45.982595"><ele>2050.5</ele></trkpt>
   <trkpt lon="6.908484" lat="45.982602"><ele>2051.5</ele></trkpt>
   <trkpt lon="6.908474" lat="45.982565"><ele>2052.75</ele></trkpt>
   <trkpt lon="6.908503" lat="45.982540"><ele>2051.75</ele></trkpt>
   <trkpt lon="6.908530" lat="45.982503"><ele>2051.0</ele></trkpt>
   <trkpt lon="6.908528" lat="45.982495"><ele>2051.0</ele></trkpt>
   <trkpt lon="6.908489" lat="45.982507"><ele>2053.0</ele></trkpt>
   <trkpt lon="6.908502" lat="45.982465"><ele>2052.25</ele></trkpt>
   <trkpt lon="6.908573" lat="45.982417"><ele>2049.0</ele></trkpt>
   <trkpt lon="6.908586" lat="45.982357"><ele>2048.5</ele></trkpt>
   <trkpt lon="6.908563" lat="45.982325"><ele>2049.5</ele></trkpt>
   <trkpt lon="6.908538" lat="45.982358"><ele>2050.5</ele></trkpt>
   <trkpt lon="6.908505" lat="45.982376"><ele>2052.0</ele></trkpt>
   <trkpt lon="6.908414" lat="45.982370"><ele>2056.0</ele></trkpt>
   <trkpt lon="6.908398" lat="45.982359"><ele>2056.5</ele></trkpt>
   <trkpt lon="6.908390" lat="45.982341"><ele>2056.75</ele></trkpt>
   <trkpt lon="6.908372" lat="45.982336"><ele>2057.5</ele></trkpt>
   <trkpt lon="6.908361" lat="45.982340"><ele>2058.0</ele></trkpt>
   <trkpt lon="6.908325" lat="45.982386"><ele>2060.0</ele></trkpt>
   <trkpt lon="6.908305" lat="45.982392"><ele>2061.0</ele></trkpt>
   <trkpt lon="6.908261" lat="45.982420"><ele>2063.25</ele></trkpt>
   <trkpt lon="6.908203" lat="45.982494"><ele>2067.25</ele></trkpt>
   <trkpt lon="6.908200" lat="45.982520"><ele>2067.5</ele></trkpt>
   <trkpt lon="6.908180" lat="45.982541"><ele>2068.5</ele></trkpt>
   <trkpt lon="6.908168" lat="45.982538"><ele>2069.0</ele></trkpt>
   <trkpt lon="6.908162" lat="45.982520"><ele>2069.5</ele></trkpt>
   <trkpt lon="6.908093" lat="45.982441"><ele>2071.5</ele></trkpt>
   <trkpt lon="6.907980" lat="45.982396"><ele>2075.5</ele></trkpt>
   <trkpt lon="6.907967" lat="45.982404"><ele>2076.25</ele></trkpt>
   <trkpt lon="6.907986" lat="45.982423"><ele>2076.0</ele></trkpt>
   <trkpt lon="6.907989" lat="45.982460"><ele>2077.0</ele></trkpt>
   <trkpt lon="6.907968" lat="45.982460"><ele>2078.0</ele></trkpt>
   <trkpt lon="6.907950" lat="45.982439"><ele>2078.25</ele></trkpt>
   <trkpt lon="6.907936" lat="45.982431"><ele>2078.5</ele></trkpt>
   <trkpt lon="6.907927" lat="45.982433"><ele>2079.0</ele></trkpt>
   <trkpt lon="6.907917" lat="45.982471"><ele>2080.75</ele></trkpt>
   <trkpt lon="6.907922" lat="45.982496"><ele>2081.5</ele></trkpt>
   <trkpt lon="6.907915" lat="45.982507"><ele>2082.0</ele></trkpt>
   <trkpt lon="6.907886" lat="45.982501"><ele>2083.5</ele></trkpt>
   <trkpt lon="6.907847" lat="45.982468"><ele>2084.25</ele></trkpt>
   <trkpt lon="6.907832" lat="45.982465"><ele>2084.75</ele></trkpt>
   <trkpt lon="6.907821" lat="45.982471"><ele>2085.5</ele></trkpt>
   <trkpt lon="6.907821" lat="45.982480"><ele>2086.0</ele></trkpt>
   <trkpt lon="6.907836" lat="45.982497"><ele>2085.75</ele></trkpt>
   <trkpt lon="6.907833" lat="45.982506"><ele>2086.25</ele></trkpt>
   <trkpt lon="6.907813" lat="45.982505"><ele>2087.25</ele></trkpt>
   <trkpt lon="6.907780" lat="45.982460"><ele>2087.25</ele></trkpt>
   <trkpt lon="6.907756" lat="45.982442"><ele>2087.5</ele></trkpt>
   <trkpt lon="6.907732" lat="45.982437"><ele>2088.25</ele></trkpt>
   <trkpt lon="6.907705" lat="45.982448"><ele>2089.75</ele></trkpt>
   <trkpt lon="6.907722" lat="45.982490"><ele>2090.75</ele></trkpt>
   <trkpt lon="6.907721" lat="45.982524"><ele>2091.5</ele></trkpt>
   <trkpt lon="6.907694" lat="45.982527"><ele>2092.75</ele></trkpt>
   <trkpt lon="6.907685" lat="45.982523"><ele>2093.25</ele></trkpt>
   <trkpt lon="6.907628" lat="45.982468"><ele>2094.0</ele></trkpt>
   <trkpt lon="6.907619" lat="45.982474"><ele>2094.5</ele></trkpt>
   <trkpt lon="6.907611" lat="45.982542"><ele>2096.5</ele></trkpt>
   <trkpt lon="6.907602" lat="45.982549"><ele>2097.0</ele></trkpt>
   <trkpt lon="6.907581" lat="45.982546"><ele>2097.75</ele></trkpt>
   <trkpt lon="6.907568" lat="45.982521"><ele>2098.25</ele></trkpt>
   <trkpt lon="6.907495" lat="45.982477"><ele>2100.0</ele></trkpt>
   <trkpt lon="6.907406" lat="45.982462"><ele>2102.5</ele></trkpt>
   <trkpt lon="6.907379" lat="45.982436"><ele>2102.25</ele></trkpt>
   <trkpt lon="6.907276" lat="45.982411"><ele>2104.75</ele></trkpt>
   <trkpt lon="6.907263" lat="45.982419"><ele>2105.5</ele></trkpt>
   <trkpt lon="6.907267" lat="45.982454"><ele>2107.0</ele></trkpt>
   <trkpt lon="6.907292" lat="45.982518"><ele>2108.5</ele></trkpt>
   <trkpt lon="6.907284" lat="45.982526"><ele>2109.0</ele></trkpt>
   <trkpt lon="6.907220" lat="45.982537"><ele>2111.5</ele></trkpt>
   <trkpt lon="6.907196" lat="45.982565"><ele>2112.5</ele></trkpt>
   <trkpt lon="6.907130" lat="45.982555"><ele>2114.5</ele></trkpt>
   <trkpt lon="6.907113" lat="45.982559"><ele>2115.0</ele></trkpt>
   <trkpt lon="6.907103" lat="45.982546"><ele>2115.25</ele></trkpt>
   <trkpt lon="6.907099" lat="45.982507"><ele>2115.0</ele></trkpt>
   <trkpt lon="6.907085" lat="45.982502"><ele>2115.25</ele></trkpt>
   <trkpt lon="6.907068" lat="45.982504"><ele>2116.0</ele></trkpt>
   <trkpt lon="6.907049" lat="45.982515"><ele>2116.75</ele></trkpt>
   <trkpt lon="6.907018" lat="45.982519"><ele>2117.75</ele></trkpt>
   <trkpt lon="6.907003" lat="45.982508"><ele>2118.0</ele></trkpt>
   <trkpt lon="6.906994" lat="45.982465"><ele>2116.75</ele></trkpt>
   <trkpt lon="6.906970" lat="45.982464"><ele>2117.5</ele></trkpt>
   <trkpt lon="6.906940" lat="45.982478"><ele>2119.25</ele></trkpt>
   <trkpt lon="6.906929" lat="45.982477"><ele>2119.5</ele></trkpt>
   <trkpt lon="6.906907" lat="45.982463"><ele>2119.75</ele></trkpt>
   <trkpt lon="6.906917" lat="45.982436"><ele>2118.25</ele></trkpt>
   <trkpt lon="6.906898" lat="45.982408"><ele>2117.75</ele></trkpt>
   <trkpt lon="6.906868" lat="45.982400"><ele>2118.5</ele></trkpt>
   <trkpt lon="6.906816" lat="45.982431"><ele>2121.75</ele></trkpt>
   <trkpt lon="6.906783" lat="45.982487"><ele>2125.25</ele></trkpt>
   <trkpt lon="6.906666" lat="45.982487"><ele>2129.25</ele></trkpt>
   <trkpt lon="6.906643" lat="45.982508"><ele>2130.5</ele></trkpt>
   <trkpt lon="6.906632" lat="45.982509"><ele>2130.75</ele></trkpt>
   <trkpt lon="6.906630" lat="45.982486"><ele>2130.25</ele></trkpt>
   <trkpt lon="6.906609" lat="45.982467"><ele>2130.0</ele></trkpt>
   <trkpt lon="6.906564" lat="45.982458"><ele>2130.75</ele></trkpt>
   <trkpt lon="6.906328" lat="45.982421"><ele>2134.5</ele></trkpt>
   <trkpt lon="6.906215" lat="45.982400"><ele>2135.25</ele></trkpt>
   <trkpt lon="6.906183" lat="45.982383"><ele>2135.0</ele></trkpt>
   <trkpt lon="6.906117" lat="45.982383"><ele>2136.25</ele></trkpt>
   <trkpt lon="6.906078" lat="45.982369"><ele>2136.25</ele></trkpt>
   <trkpt lon="6.905959" lat="45.982361"><ele>2138.0</ele></trkpt>
   <trkpt lon="6.905836" lat="45.982339"><ele>2139.5</ele></trkpt>
   <trkpt lon="6.905774" lat="45.982317"><ele>2139.75</ele></trkpt>
   <trkpt lon="6.905723" lat="45.982314"><ele>2140.5</ele></trkpt>
   <trkpt lon="6.905621" lat="45.982319"><ele>2142.5</ele></trkpt>
   <trkpt lon="6.905576" lat="45.982338"><ele>2144.0</ele></trkpt>
   <trkpt lon="6.905499" lat="45.982348"><ele>2145.25</ele></trkpt>
   <trkpt lon="6.905413" lat="45.982384"><ele>2147.25</ele></trkpt>
   <trkpt lon="6.905278" lat="45.982420"><ele>2148.75</ele></trkpt>
   <trkpt lon="6.905270" lat="45.982448"><ele>2149.5</ele></trkpt>
   <trkpt lon="6.905186" lat="45.982545"><ele>2152.0</ele></trkpt>
   <trkpt lon="6.905171" lat="45.982592"><ele>2153.0</ele></trkpt>
   <trkpt lon="6.905140" lat="45.982619"><ele>2153.75</ele></trkpt>
   <trkpt lon="6.905145" lat="45.982644"><ele>2154.25</ele></trkpt>
   <trkpt lon="6.905178" lat="45.982659"><ele>2154.5</ele></trkpt>
   <trkpt lon="6.905199" lat="45.982698"><ele>2155.25</ele></trkpt>
   <trkpt lon="6.905200" lat="45.982727"><ele>2156.0</ele></trkpt>
   <trkpt lon="6.905171" lat="45.982760"><ele>2156.75</ele></trkpt>
   <trkpt lon="6.905168" lat="45.982808"><ele>2157.75</ele></trkpt>
   <trkpt lon="6.905113" lat="45.982832"><ele>2158.5</ele></trkpt>
   <trkpt lon="6.905077" lat="45.982838"><ele>2158.75</ele></trkpt>
   <trkpt lon="6.905030" lat="45.982828"><ele>2158.75</ele></trkpt>
   <trkpt lon="6.904998" lat="45.982830"><ele>2159.0</ele></trkpt>
   <trkpt lon="6.904976" lat="45.982841"><ele>2159.25</ele></trkpt>
   <trkpt lon="6.904966" lat="45.982865"><ele>2160.0</ele></trkpt>
   <trkpt lon="6.904978" lat="45.982895"><ele>2160.5</ele></trkpt>
   <trkpt lon="6.905018" lat="45.982920"><ele>2160.75</ele></trkpt>
   <trkpt lon="6.905011" lat="45.982947"><ele>2161.5</ele></trkpt>
   <trkpt lon="6.904950" lat="45.982953"><ele>2162.0</ele></trkpt>
   <trkpt lon="6.904937" lat="45.982990"><ele>2163.25</ele></trkpt>
   <trkpt lon="6.904875" lat="45.983011"><ele>2164.5</ele></trkpt>
   <trkpt lon="6.904681" lat="45.983023"><ele>2166.5</ele></trkpt>
   <trkpt lon="6.904655" lat="45.983033"><ele>2166.75</ele></trkpt>
   <trkpt lon="6.904634" lat="45.983074"><ele>2168.0</ele></trkpt>
   <trkpt lon="6.904571" lat="45.983094"><ele>2168.0</ele></trkpt>
   <trkpt lon="6.904516" lat="45.983129"><ele>2168.75</ele></trkpt>
   <trkpt lon="6.904502" lat="45.983153"><ele>2169.25</ele></trkpt>
   <trkpt lon="6.904525" lat="45.983214"><ele>2170.75</ele></trkpt>
   <trkpt lon="6.904538" lat="45.983365"><ele>2172.75</ele></trkpt>
   <trkpt lon="6.904497" lat="45.983382"><ele>2172.5</ele></trkpt>
   <trkpt lon="6.904317" lat="45.983408"><ele>2173.25</ele></trkpt>
   <trkpt lon="6.904267" lat="45.983406"><ele>2173.75</ele></trkpt>
   <trkpt lon="6.904143" lat="45.983370"><ele>2175.25</ele></trkpt>
   <trkpt lon="6.904088" lat="45.983362"><ele>2177.0</ele></trkpt>
   <trkpt lon="6.904056" lat="45.983338"><ele>2178.0</ele></trkpt>
   <trkpt lon="6.903915" lat="45.983284"><ele>2179.75</ele></trkpt>
   <trkpt lon="6.903845" lat="45.983242"><ele>2179.5</ele></trkpt>
   <trkpt lon="6.903803" lat="45.983205"><ele>2179.0</ele></trkpt>
   <trkpt lon="6.903706" lat="45.983168"><ele>2179.75</ele></trkpt>
   <trkpt lon="6.903644" lat="45.983157"><ele>2181.0</ele></trkpt>
   <trkpt lon="6.903535" lat="45.983097"><ele>2180.5</ele></trkpt>
   <trkpt lon="6.903314" lat="45.983013"><ele>2181.0</ele></trkpt>
   <trkpt lon="6.903267" lat="45.982955"><ele>2179.0</ele></trkpt>
   <trkpt lon="6.903234" lat="45.982933"><ele>2178.75</ele></trkpt>
   <trkpt lon="6.903199" lat="45.982920"><ele>2179.0</ele></trkpt>
   <trkpt lon="6.902879" lat="45.982870"><ele>2182.75</ele></trkpt>
   <trkpt lon="6.902796" lat="45.982871"><ele>2184.25</ele></trkpt>
   <trkpt lon="6.902748" lat="45.982857"><ele>2184.0</ele></trkpt>
   <trkpt lon="6.902339" lat="45.982779"><ele>2184.0</ele></trkpt>
   <trkpt lon="6.902121" lat="45.982778"><ele>2185.0</ele></trkpt>
   <trkpt lon="6.901987" lat="45.982790"><ele>2185.25</ele></trkpt>
   <trkpt lon="6.901901" lat="45.982788"><ele>2185.0</ele></trkpt>
   <trkpt lon="6.901775" lat="45.982818"><ele>2185.5</ele></trkpt>
   <trkpt lon="6.901726" lat="45.982820"><ele>2185.25</ele></trkpt>
   <trkpt lon="6.901663" lat="45.982817"><ele>2185.0</ele></trkpt>
   <trkpt lon="6.901623" lat="45.982807"><ele>2185.0</ele></trkpt>
   <trkpt lon="6.901583" lat="45.982812"><ele>2185.25</ele></trkpt>
   <trkpt lon="6.901504" lat="45.982800"><ele>2185.5</ele></trkpt>
   <trkpt lon="6.901461" lat="45.982808"><ele>2186.0</ele></trkpt>
   <trkpt lon="6.901386" lat="45.982804"><ele>2186.5</ele></trkpt>
   <trkpt lon="6.901317" lat="45.982809"><ele>2187.75</ele></trkpt>
   <trkpt lon="6.901176" lat="45.982786"><ele>2189.75</ele></trkpt>
   <trkpt lon="6.900903" lat="45.982674"><ele>2189.0</ele></trkpt>
   <trkpt lon="6.900807" lat="45.982651"><ele>2189.75</ele></trkpt>
   <trkpt lon="6.900745" lat="45.982645"><ele>2190.0</ele></trkpt>
   <trkpt lon="6.900709" lat="45.982648"><ele>2190.5</ele></trkpt>
   <trkpt lon="6.900677" lat="45.982640"><ele>2190.5</ele></trkpt>
   <trkpt lon="6.900600" lat="45.982642"><ele>2191.5</ele></trkpt>
   <trkpt lon="6.900560" lat="45.982670"><ele>2192.5</ele></trkpt>
   <trkpt lon="6.900498" lat="45.982675"><ele>2193.5</ele></trkpt>
   <trkpt lon="6.900366" lat="45.982634"><ele>2194.25</ele></trkpt>
   <trkpt lon="6.900296" lat="45.982671"><ele>2196.0</ele></trkpt>
   <trkpt lon="6.900084" lat="45.982728"><ele>2201.5</ele></trkpt>
   <trkpt lon="6.899908" lat="45.982749"><ele>2207.0</ele></trkpt>
   <trkpt lon="6.899919" lat="45.982823"><ele>2208.0</ele></trkpt>
   <trkpt lon="6.899867" lat="45.982895"><ele>2210.0</ele></trkpt>
   <trkpt lon="6.899837" lat="45.982956"><ele>2211.25</ele></trkpt>
   <trkpt lon="6.899619" lat="45.982937"><ele>2215.75</ele></trkpt>
   <trkpt lon="6.899484" lat="45.982895"><ele>2218.25</ele></trkpt>
   <trkpt lon="6.899447" lat="45.982895"><ele>2218.75</ele></trkpt>
   <trkpt lon="6.899315" lat="45.982869"><ele>2221.5</ele></trkpt>
   <trkpt lon="6.899099" lat="45.982925"><ele>2223.75</ele></trkpt>
   <trkpt lon="6.899019" lat="45.982931"><ele>2225.0</ele></trkpt>
   <trkpt lon="6.898815" lat="45.982896"><ele>2229.25</ele></trkpt>
   <trkpt lon="6.898763" lat="45.982896"><ele>2230.0</ele></trkpt>
   <trkpt lon="6.898658" lat="45.982859"><ele>2231.5</ele></trkpt>
   <trkpt lon="6.898623" lat="45.982839"><ele>2232.0</ele></trkpt>
   <trkpt lon="6.898400" lat="45.982662"><ele>2229.5</ele></trkpt>
   <trkpt lon="6.898248" lat="45.982593"><ele>2226.5</ele></trkpt>
   <trkpt lon="6.898193" lat="45.982525"><ele>2223.75</ele></trkpt>
   <trkpt lon="6.898175" lat="45.982468"><ele>2222.0</ele></trkpt>
   <trkpt lon="6.898156" lat="45.982343"><ele>2218.75</ele></trkpt>
   <trkpt lon="6.898115" lat="45.982293"><ele>2217.25</ele></trkpt>
   <trkpt lon="6.898083" lat="45.982225"><ele>2216.0</ele></trkpt>
   <trkpt lon="6.897930" lat="45.982064"><ele>2211.25</ele></trkpt>
   <trkpt lon="6.897892" lat="45.982051"><ele>2210.75</ele></trkpt>
   <trkpt lon="6.897835" lat="45.981982"><ele>2210.0</ele></trkpt>
   <trkpt lon="6.897728" lat="45.981891"><ele>2208.5</ele></trkpt>
   <trkpt lon="6.897597" lat="45.981812"><ele>2207.5</ele></trkpt>
   <trkpt lon="6.897518" lat="45.981773"><ele>2207.75</ele></trkpt>
   <trkpt lon="6.897361" lat="45.981725"><ele>2208.75</ele></trkpt>
   <trkpt lon="6.897287" lat="45.981717"><ele>2209.25</ele></trkpt>
   <trkpt lon="6.897178" lat="45.981696"><ele>2209.5</ele></trkpt>
   <trkpt lon="6.897065" lat="45.981660"><ele>2209.25</ele></trkpt>
   <trkpt lon="6.896953" lat="45.981610"><ele>2208.75</ele></trkpt>
   <trkpt lon="6.896811" lat="45.981620"><ele>2209.25</ele></trkpt>
   <trkpt lon="6.896771" lat="45.981644"><ele>2209.5</ele></trkpt>
   <trkpt lon="6.896706" lat="45.981641"><ele>2209.75</ele></trkpt>
   <trkpt lon="6.896630" lat="45.981681"><ele>2210.25</ele></trkpt>
   <trkpt lon="6.896553" lat="45.981690"><ele>2211.25</ele></trkpt>
   <trkpt lon="6.896405" lat="45.981675"><ele>2212.75</ele></trkpt>
   <trkpt lon="6.896413" lat="45.981697"><ele>2213.0</ele></trkpt>
   <trkpt lon="6.896396" lat="45.981751"><ele>2214.0</ele></trkpt>
   <trkpt lon="6.896337" lat="45.981766"><ele>2215.25</ele></trkpt>
   <trkpt lon="6.896310" lat="45.981817"><ele>2216.5</ele></trkpt>
   <trkpt lon="6.896264" lat="45.981842"><ele>2217.75</ele></trkpt>
   <trkpt lon="6.896240" lat="45.981855"><ele>2218.25</ele></trkpt>
   <trkpt lon="6.896161" lat="45.981877"><ele>2220.0</ele></trkpt>
   <trkpt lon="6.896094" lat="45.981862"><ele>2221.0</ele></trkpt>
   <trkpt lon="6.895950" lat="45.981876"><ele>2224.75</ele></trkpt>
   <trkpt lon="6.895905" lat="45.981903"><ele>2226.25</ele></trkpt>
   <trkpt lon="6.895920" lat="45.981971"><ele>2227.25</ele></trkpt>
   <trkpt lon="6.895861" lat="45.982071"><ele>2230.5</ele></trkpt>
   <trkpt lon="6.895840" lat="45.982101"><ele>2231.5</ele></trkpt>
   <trkpt lon="6.895803" lat="45.982115"><ele>2233.0</ele></trkpt>
   <trkpt lon="6.895659" lat="45.982069"><ele>2237.25</ele></trkpt>
   <trkpt lon="6.895588" lat="45.982030"><ele>2239.0</ele></trkpt>
   <trkpt lon="6.895339" lat="45.982104"><ele>2250.5</ele></trkpt>
   <trkpt lon="6.895247" lat="45.982190"><ele>2256.0</ele></trkpt>
   <trkpt lon="6.895215" lat="45.982212"><ele>2257.75</ele></trkpt>
   <trkpt lon="6.895156" lat="45.982239"><ele>2259.75</ele></trkpt>
   <trkpt lon="6.895070" lat="45.982225"><ele>2262.5</ele></trkpt>
   <trkpt lon="6.894944" lat="45.982169"><ele>2265.5</ele></trkpt>
   <trkpt lon="6.894919" lat="45.982208"><ele>2267.0</ele></trkpt>
   <trkpt lon="6.894811" lat="45.982197"><ele>2269.75</ele></trkpt>
   <trkpt lon="6.894759" lat="45.982150"><ele>2270.5</ele></trkpt>
   <trkpt lon="6.894708" lat="45.982140"><ele>2271.75</ele></trkpt>
   <trkpt lon="6.894419" lat="45.982176"><ele>2278.25</ele></trkpt>
   <trkpt lon="6.894292" lat="45.982144"><ele>2281.5</ele></trkpt>
   <trkpt lon="6.894074" lat="45.982049"><ele>2288.5</ele></trkpt>
   <trkpt lon="6.894008" lat="45.982028"><ele>2290.75</ele></trkpt>
   <trkpt lon="6.893942" lat="45.982016"><ele>2293.25</ele></trkpt>
   <trkpt lon="6.893860" lat="45.982012"><ele>2295.5</ele></trkpt>
   <trkpt lon="6.893752" lat="45.982025"><ele>2297.75</ele></trkpt>
   <trkpt lon="6.893680" lat="45.982011"><ele>2299.75</ele></trkpt>
   <trkpt lon="6.893572" lat="45.982008"><ele>2301.75</ele></trkpt>
   <trkpt lon="6.893443" lat="45.981982"><ele>2304.25</ele></trkpt>
   <trkpt lon="6.893426" lat="45.981974"><ele>2304.5</ele></trkpt>
   <trkpt lon="6.893412" lat="45.981952"><ele>2305.0</ele></trkpt>
   <trkpt lon="6.893433" lat="45.981925"><ele>2305.5</ele></trkpt>
   <trkpt lon="6.893546" lat="45.981899"><ele>2305.0</ele></trkpt>
   <trkpt lon="6.893632" lat="45.981845"><ele>2305.5</ele></trkpt>
   <trkpt lon="6.893633" lat="45.981827"><ele>2306.0</ele></trkpt>
   <trkpt lon="6.893659" lat="45.981780"><ele>2306.75</ele></trkpt>
   <trkpt lon="6.893628" lat="45.981763"><ele>2308.25</ele></trkpt>
   <trkpt lon="6.893618" lat="45.981745"><ele>2309.25</ele></trkpt>
   <trkpt lon="6.893641" lat="45.981712"><ele>2309.5</ele></trkpt>
   <trkpt lon="6.893634" lat="45.981694"><ele>2310.25</ele></trkpt>
   <trkpt lon="6.893607" lat="45.981675"><ele>2311.75</ele></trkpt>
   <trkpt lon="6.893545" lat="45.981671"><ele>2312.5</ele></trkpt>
   <trkpt lon="6.893472" lat="45.981654"><ele>2313.5</ele></trkpt>
   <trkpt lon="6.893372" lat="45.981579"><ele>2314.75</ele></trkpt>
   <trkpt lon="6.893372" lat="45.981543"><ele>2314.75</ele></trkpt>
   <trkpt lon="6.893352" lat="45.981524"><ele>2315.25</ele></trkpt>
   <trkpt lon="6.893301" lat="45.981537"><ele>2316.25</ele></trkpt>
   <trkpt lon="6.893233" lat="45.981526"><ele>2318.0</ele></trkpt>
   <trkpt lon="6.893190" lat="45.981533"><ele>2319.25</ele></trkpt>
   <trkpt lon="6.893167" lat="45.981530"><ele>2319.75</ele></trkpt>
   <trkpt lon="6.893154" lat="45.981516"><ele>2320.25</ele></trkpt>
   <trkpt lon="6.893130" lat="45.981479"><ele>2321.5</ele></trkpt>
   <trkpt lon="6.893119" lat="45.981443"><ele>2322.25</ele></trkpt>
   <trkpt lon="6.893149" lat="45.981384"><ele>2321.75</ele></trkpt>
   <trkpt lon="6.893142" lat="45.981360"><ele>2321.5</ele></trkpt>
   <trkpt lon="6.893125" lat="45.981351"><ele>2321.75</ele></trkpt>
   <trkpt lon="6.893033" lat="45.981401"><ele>2325.75</ele></trkpt>
   <trkpt lon="6.893034" lat="45.981353"><ele>2325.0</ele></trkpt>
   <trkpt lon="6.892916" lat="45.981265"><ele>2327.75</ele></trkpt>
   <trkpt lon="6.892844" lat="45.981231"><ele>2329.75</ele></trkpt>
   <trkpt lon="6.892844" lat="45.981268"><ele>2330.75</ele></trkpt>
   <trkpt lon="6.892816" lat="45.981307"><ele>2333.0</ele></trkpt>
   <trkpt lon="6.892756" lat="45.981306"><ele>2335.25</ele></trkpt>
   <trkpt lon="6.892688" lat="45.981283"><ele>2337.25</ele></trkpt>
   <trkpt lon="6.892632" lat="45.981424"><ele>2342.5</ele></trkpt>
   <trkpt lon="6.892605" lat="45.981456"><ele>2343.0</ele></trkpt>
   <trkpt lon="6.892548" lat="45.981451"><ele>2345.5</ele></trkpt>
   <trkpt lon="6.892536" lat="45.981397"><ele>2347.25</ele></trkpt>
   <trkpt lon="6.892474" lat="45.981358"><ele>2347.75</ele></trkpt>
   <trkpt lon="6.892385" lat="45.981336"><ele>2347.75</ele></trkpt>
   <trkpt lon="6.892285" lat="45.981358"><ele>2349.5</ele></trkpt>
   <trkpt lon="6.892281" lat="45.981432"><ele>2350.25</ele></trkpt>
   <trkpt lon="6.892239" lat="45.981509"><ele>2350.25</ele></trkpt>
   <trkpt lon="6.892116" lat="45.981466"><ele>2351.0</ele></trkpt>
   <trkpt lon="6.892031" lat="45.981447"><ele>2351.25</ele></trkpt>
   <trkpt lon="6.891975" lat="45.981437"><ele>2351.0</ele></trkpt>
   <trkpt lon="6.891880" lat="45.981455"><ele>2351.75</ele></trkpt>
   <trkpt lon="6.891788" lat="45.981491"><ele>2352.75</ele></trkpt>
   <trkpt lon="6.891784" lat="45.981511"><ele>2353.25</ele></trkpt>
   <trkpt lon="6.891767" lat="45.981532"><ele>2353.75</ele></trkpt>
   <trkpt lon="6.891711" lat="45.981568"><ele>2354.75</ele></trkpt>
   <trkpt lon="6.891496" lat="45.981658"><ele>2354.25</ele></trkpt>
   <trkpt lon="6.891457" lat="45.981676"><ele>2354.25</ele></trkpt>
   <trkpt lon="6.891443" lat="45.981700"><ele>2355.0</ele></trkpt>
   <trkpt lon="6.891362" lat="45.981737"><ele>2355.75</ele></trkpt>
   <trkpt lon="6.891307" lat="45.981754"><ele>2355.75</ele></trkpt>
   <trkpt lon="6.891282" lat="45.981776"><ele>2356.25</ele></trkpt>
   <trkpt lon="6.891247" lat="45.981794"><ele>2356.25</ele></trkpt>
   <trkpt lon="6.891202" lat="45.981804"><ele>2355.75</ele></trkpt>
   <trkpt lon="6.891133" lat="45.981850"><ele>2355.5</ele></trkpt>
   <trkpt lon="6.891048" lat="45.981899"><ele>2356.0</ele></trkpt>
   <trkpt lon="6.891026" lat="45.981917"><ele>2356.25</ele></trkpt>
   <trkpt lon="6.891018" lat="45.981938"><ele>2356.5</ele></trkpt>
   <trkpt lon="6.891039" lat="45.981951"><ele>2356.75</ele></trkpt>
   <trkpt lon="6.891022" lat="45.981965"><ele>2357.25</ele></trkpt>
   <trkpt lon="6.891041" lat="45.981986"><ele>2358.0</ele></trkpt>
   <trkpt lon="6.891016" lat="45.982001"><ele>2358.25</ele></trkpt>
   <trkpt lon="6.891006" lat="45.982019"><ele>2359.0</ele></trkpt>
   <trkpt lon="6.891029" lat="45.982067"><ele>2360.5</ele></trkpt>
   <trkpt lon="6.891015" lat="45.982101"><ele>2361.5</ele></trkpt>
   <trkpt lon="6.890977" lat="45.982151"><ele>2363.0</ele></trkpt>
   <trkpt lon="6.890938" lat="45.982232"><ele>2365.5</ele></trkpt>
   <trkpt lon="6.890972" lat="45.982250"><ele>2366.25</ele></trkpt>
   <trkpt lon="6.890927" lat="45.982273"><ele>2367.0</ele></trkpt>
   <trkpt lon="6.890925" lat="45.982321"><ele>2369.0</ele></trkpt>
   <trkpt lon="6.890880" lat="45.982365"><ele>2370.5</ele></trkpt>
   <trkpt lon="6.890808" lat="45.982379"><ele>2371.25</ele></trkpt>
   <trkpt lon="6.890769" lat="45.982373"><ele>2371.5</ele></trkpt>
   <trkpt lon="6.890747" lat="45.982383"><ele>2372.0</ele></trkpt>
   <trkpt lon="6.890753" lat="45.982399"><ele>2372.5</ele></trkpt>
   <trkpt lon="6.890745" lat="45.982418"><ele>2373.25</ele></trkpt>
   <trkpt lon="6.890639" lat="45.982488"><ele>2376.25</ele></trkpt>
   <trkpt lon="6.890633" lat="45.982507"><ele>2377.0</ele></trkpt>
   <trkpt lon="6.890644" lat="45.982534"><ele>2378.0</ele></trkpt>
   <trkpt lon="6.890690" lat="45.982551"><ele>2378.75</ele></trkpt>
   <trkpt lon="6.890761" lat="45.982560"><ele>2379.0</ele></trkpt>
   <trkpt lon="6.890666" lat="45.982607"><ele>2381.0</ele></trkpt>
   <trkpt lon="6.890657" lat="45.982628"><ele>2382.0</ele></trkpt>
   <trkpt lon="6.890666" lat="45.982639"><ele>2382.5</ele></trkpt>
   <trkpt lon="6.890694" lat="45.982650"><ele>2383.0</ele></trkpt>
   <trkpt lon="6.890747" lat="45.982648"><ele>2383.25</ele></trkpt>
   <trkpt lon="6.890766" lat="45.982657"><ele>2384.0</ele></trkpt>
   <trkpt lon="6.890753" lat="45.982666"><ele>2384.25</ele></trkpt>
   <trkpt lon="6.890686" lat="45.982676"><ele>2384.25</ele></trkpt>
   <trkpt lon="6.890633" lat="45.982708"><ele>2385.25</ele></trkpt>
   <trkpt lon="6.890600" lat="45.982757"><ele>2386.75</ele></trkpt>
   <trkpt lon="6.890563" lat="45.982776"><ele>2387.0</ele></trkpt>
   <trkpt lon="6.890557" lat="45.982805"><ele>2387.75</ele></trkpt>
   <trkpt lon="6.890529" lat="45.982816"><ele>2387.0</ele></trkpt>
   <trkpt lon="6.890494" lat="45.982869"><ele>2387.0</ele></trkpt>
   <trkpt lon="6.890469" lat="45.982878"><ele>2386.25</ele></trkpt>
   <trkpt lon="6.890470" lat="45.982910"><ele>2387.0</ele></trkpt>
   <trkpt lon="6.890483" lat="45.982923"><ele>2388.0</ele></trkpt>
   <trkpt lon="6.890464" lat="45.982945"><ele>2387.75</ele></trkpt>
   <trkpt lon="6.890501" lat="45.983041"><ele>2392.25</ele></trkpt>
   <trkpt lon="6.890509" lat="45.983073"><ele>2393.5</ele></trkpt>
   <trkpt lon="6.890527" lat="45.983093"><ele>2395.0</ele></trkpt>
   <trkpt lon="6.890569" lat="45.983096"><ele>2396.75</ele></trkpt>
   <trkpt lon="6.890589" lat="45.983104"><ele>2397.25</ele></trkpt>
   <trkpt lon="6.890623" lat="45.983195"><ele>2399.5</ele></trkpt>
   <trkpt lon="6.890612" lat="45.983253"><ele>2400.25</ele></trkpt>
   <trkpt lon="6.890643" lat="45.983297"><ele>2401.5</ele></trkpt>
   <trkpt lon="6.890655" lat="45.983381"><ele>2404.25</ele></trkpt>
   <trkpt lon="6.890643" lat="45.983297"><ele>2401.5</ele></trkpt>
   <trkpt lon="6.890612" lat="45.983253"><ele>2400.25</ele></trkpt>
   <trkpt lon="6.890623" lat="45.983195"><ele>2399.5</ele></trkpt>
   <trkpt lon="6.890589" lat="45.983104"><ele>2397.25</ele></trkpt>
   <trkpt lon="6.890569" lat="45.983096"><ele>2396.75</ele></trkpt>
   <trkpt lon="6.890527" lat="45.983093"><ele>2395.0</ele></trkpt>
   <trkpt lon="6.890509" lat="45.983073"><ele>2393.5</ele></trkpt>
   <trkpt lon="6.890501" lat="45.983041"><ele>2392.25</ele></trkpt>
   <trkpt lon="6.890464" lat="45.982945"><ele>2387.75</ele></trkpt>
   <trkpt lon="6.890483" lat="45.982923"><ele>2388.0</ele></trkpt>
   <trkpt lon="6.890470" lat="45.982910"><ele>2387.0</ele></trkpt>
   <trkpt lon="6.890469" lat="45.982878"><ele>2386.25</ele></trkpt>
   <trkpt lon="6.890494" lat="45.982869"><ele>2387.0</ele></trkpt>
   <trkpt lon="6.890529" lat="45.982816"><ele>2387.0</ele></trkpt>
   <trkpt lon="6.890557" lat="45.982805"><ele>2387.75</ele></trkpt>
   <trkpt lon="6.890563" lat="45.982776"><ele>2387.0</ele></trkpt>
   <trkpt lon="6.890600" lat="45.982757"><ele>2386.75</ele></trkpt>
   <trkpt lon="6.890633" lat="45.982708"><ele>2385.25</ele></trkpt>
   <trkpt lon="6.890686" lat="45.982676"><ele>2384.25</ele></trkpt>
   <trkpt lon="6.890753" lat="45.982666"><ele>2384.25</ele></trkpt>
   <trkpt lon="6.890766" lat="45.982657"><ele>2384.0</ele></trkpt>
   <trkpt lon="6.890747" lat="45.982648"><ele>2383.25</ele></trkpt>
   <trkpt lon="6.890694" lat="45.982650"><ele>2383.0</ele></trkpt>
   <trkpt lon="6.890666" lat="45.982639"><ele>2382.5</ele></trkpt>
   <trkpt lon="6.890657" lat="45.982628"><ele>2382.0</ele></trkpt>
   <trkpt lon="6.890666" lat="45.982607"><ele>2381.0</ele></trkpt>
   <trkpt lon="6.890761" lat="45.982560"><ele>2379.0</ele></trkpt>
   <trkpt lon="6.890690" lat="45.982551"><ele>2378.75</ele></trkpt>
   <trkpt lon="6.890644" lat="45.982534"><ele>2378.0</ele></trkpt>
   <trkpt lon="6.890633" lat="45.982507"><ele>2377.0</ele></trkpt>
   <trkpt lon="6.890639" lat="45.982488"><ele>2376.25</ele></trkpt>
   <trkpt lon="6.890745" lat="45.982418"><ele>2373.25</ele></trkpt>
   <trkpt lon="6.890753" lat="45.982399"><ele>2372.5</ele></trkpt>
   <trkpt lon="6.890747" lat="45.982383"><ele>2372.0</ele></trkpt>
   <trkpt lon="6.890769" lat="45.982373"><ele>2371.5</ele></trkpt>
   <trkpt lon="6.890808" lat="45.982379"><ele>2371.25</ele></trkpt>
   <trkpt lon="6.890880" lat="45.982365"><ele>2370.5</ele></trkpt>
   <trkpt lon="6.890925" lat="45.982321"><ele>2369.0</ele></trkpt>
   <trkpt lon="6.890927" lat="45.982273"><ele>2367.0</ele></trkpt>
   <trkpt lon="6.890972" lat="45.982250"><ele>2366.25</ele></trkpt>
   <trkpt lon="6.890938" lat="45.982232"><ele>2365.5</ele></trkpt>
   <trkpt lon="6.890977" lat="45.982151"><ele>2363.0</ele></trkpt>
   <trkpt lon="6.891015" lat="45.982101"><ele>2361.5</ele></trkpt>
   <trkpt lon="6.891029" lat="45.982067"><ele>2360.5</ele></trkpt>
   <trkpt lon="6.891006" lat="45.982019"><ele>2359.0</ele></trkpt>
   <trkpt lon="6.891016" lat="45.982001"><ele>2358.25</ele></trkpt>
   <trkpt lon="6.891041" lat="45.981986"><ele>2358.0</ele></trkpt>
   <trkpt lon="6.891022" lat="45.981965"><ele>2357.25</ele></trkpt>
   <trkpt lon="6.891039" lat="45.981951"><ele>2356.75</ele></trkpt>
   <trkpt lon="6.891018" lat="45.981938"><ele>2356.5</ele></trkpt>
   <trkpt lon="6.891026" lat="45.981917"><ele>2356.25</ele></trkpt>
   <trkpt lon="6.891048" lat="45.981899"><ele>2356.0</ele></trkpt>
   <trkpt lon="6.891133" lat="45.981850"><ele>2355.5</ele></trkpt>
   <trkpt lon="6.891202" lat="45.981804"><ele>2355.75</ele></trkpt>
   <trkpt lon="6.891247" lat="45.981794"><ele>2356.25</ele></trkpt>
   <trkpt lon="6.891282" lat="45.981776"><ele>2356.25</ele></trkpt>
   <trkpt lon="6.891307" lat="45.981754"><ele>2355.75</ele></trkpt>
   <trkpt lon="6.891362" lat="45.981737"><ele>2355.75</ele></trkpt>
   <trkpt lon="6.891443" lat="45.981700"><ele>2355.0</ele></trkpt>
   <trkpt lon="6.891457" lat="45.981676"><ele>2354.25</ele></trkpt>
   <trkpt lon="6.891496" lat="45.981658"><ele>2354.25</ele></trkpt>
   <trkpt lon="6.891476" lat="45.981561"><ele>2353.25</ele></trkpt>
   <trkpt lon="6.891493" lat="45.981486"><ele>2352.5</ele></trkpt>
   <trkpt lon="6.891513" lat="45.981450"><ele>2352.25</ele></trkpt>
   <trkpt lon="6.891518" lat="45.981409"><ele>2351.75</ele></trkpt>
   <trkpt lon="6.891510" lat="45.981370"><ele>2351.5</ele></trkpt>
   <trkpt lon="6.891580" lat="45.981283"><ele>2351.5</ele></trkpt>
   <trkpt lon="6.891565" lat="45.981185"><ele>2351.75</ele></trkpt>
   <trkpt lon="6.891536" lat="45.981005"><ele>2353.25</ele></trkpt>
   <trkpt lon="6.891512" lat="45.980975"><ele>2353.5</ele></trkpt>
   <trkpt lon="6.891437" lat="45.980941"><ele>2353.5</ele></trkpt>
   <trkpt lon="6.891397" lat="45.980905"><ele>2353.25</ele></trkpt>
   <trkpt lon="6.891331" lat="45.980793"><ele>2353.25</ele></trkpt>
   <trkpt lon="6.891287" lat="45.980766"><ele>2353.5</ele></trkpt>
   <trkpt lon="6.891241" lat="45.980655"><ele>2354.5</ele></trkpt>
   <trkpt lon="6.891339" lat="45.980473"><ele>2352.75</ele></trkpt>
   <trkpt lon="6.891328" lat="45.980326"><ele>2351.75</ele></trkpt>
   <trkpt lon="6.891334" lat="45.980258"><ele>2351.0</ele></trkpt>
   <trkpt lon="6.891277" lat="45.980131"><ele>2349.25</ele></trkpt>
   <trkpt lon="6.891277" lat="45.980070"><ele>2348.0</ele></trkpt>
   <trkpt lon="6.891237" lat="45.980046"><ele>2347.75</ele></trkpt>
   <trkpt lon="6.891138" lat="45.980032"><ele>2347.75</ele></trkpt>
   <trkpt lon="6.890948" lat="45.980020"><ele>2350.0</ele></trkpt>
   <trkpt lon="6.890905" lat="45.980003"><ele>2350.0</ele></trkpt>
   <trkpt lon="6.890911" lat="45.979989"><ele>2349.5</ele></trkpt>
   <trkpt lon="6.890947" lat="45.979977"><ele>2348.5</ele></trkpt>
   <trkpt lon="6.891013" lat="45.979964"><ele>2347.0</ele></trkpt>
   <trkpt lon="6.891070" lat="45.979944"><ele>2345.25</ele></trkpt>
   <trkpt lon="6.891168" lat="45.979927"><ele>2343.5</ele></trkpt>
   <trkpt lon="6.891315" lat="45.979879"><ele>2340.25</ele></trkpt>
   <trkpt lon="6.891510" lat="45.979785"><ele>2334.75</ele></trkpt>
   <trkpt lon="6.891607" lat="45.979777"><ele>2334.0</ele></trkpt>
   <trkpt lon="6.891623" lat="45.979766"><ele>2333.5</ele></trkpt>
   <trkpt lon="6.891604" lat="45.979739"><ele>2332.5</ele></trkpt>
   <trkpt lon="6.891543" lat="45.979711"><ele>2331.5</ele></trkpt>
   <trkpt lon="6.891407" lat="45.979685"><ele>2330.5</ele></trkpt>
   <trkpt lon="6.891395" lat="45.979658"><ele>2329.25</ele></trkpt>
   <trkpt lon="6.891425" lat="45.979621"><ele>2328.0</ele></trkpt>
   <trkpt lon="6.891414" lat="45.979594"><ele>2327.0</ele></trkpt>
   <trkpt lon="6.891404" lat="45.979501"><ele>2323.25</ele></trkpt>
   <trkpt lon="6.891393" lat="45.979485"><ele>2322.5</ele></trkpt>
   <trkpt lon="6.891448" lat="45.979422"><ele>2320.75</ele></trkpt>
   <trkpt lon="6.891473" lat="45.979358"><ele>2319.25</ele></trkpt>
   <trkpt lon="6.891465" lat="45.979301"><ele>2317.5</ele></trkpt>
   <trkpt lon="6.891484" lat="45.979242"><ele>2316.0</ele></trkpt>
   <trkpt lon="6.891485" lat="45.979173"><ele>2314.0</ele></trkpt>
   <trkpt lon="6.891566" lat="45.979104"><ele>2311.25</ele></trkpt>
   <trkpt lon="6.891606" lat="45.979043"><ele>2309.25</ele></trkpt>
   <trkpt lon="6.891645" lat="45.978900"><ele>2304.5</ele></trkpt>
   <trkpt lon="6.891655" lat="45.978871"><ele>2303.75</ele></trkpt>
   <trkpt lon="6.891623" lat="45.978757"><ele>2301.0</ele></trkpt>
   <trkpt lon="6.891609" lat="45.978733"><ele>2300.75</ele></trkpt>
   <trkpt lon="6.891555" lat="45.978710"><ele>2300.5</ele></trkpt>
   <trkpt lon="6.891551" lat="45.978687"><ele>2300.0</ele></trkpt>
   <trkpt lon="6.891601" lat="45.978620"><ele>2297.5</ele></trkpt>
   <trkpt lon="6.891674" lat="45.978577"><ele>2295.75</ele></trkpt>
   <trkpt lon="6.891712" lat="45.978478"><ele>2292.5</ele></trkpt>
   <trkpt lon="6.891731" lat="45.978458"><ele>2291.75</ele></trkpt>
   <trkpt lon="6.891801" lat="45.978414"><ele>2290.25</ele></trkpt>
   <trkpt lon="6.891835" lat="45.978384"><ele>2289.0</ele></trkpt>
   <trkpt lon="6.891869" lat="45.978317"><ele>2286.5</ele></trkpt>
   <trkpt lon="6.891914" lat="45.978271"><ele>2284.75</ele></trkpt>
   <trkpt lon="6.892037" lat="45.978208"><ele>2281.25</ele></trkpt>
   <trkpt lon="6.892046" lat="45.978179"><ele>2280.25</ele></trkpt>
   <trkpt lon="6.892026" lat="45.978123"><ele>2278.5</ele></trkpt>
   <trkpt lon="6.891975" lat="45.978061"><ele>2276.75</ele></trkpt>
   <trkpt lon="6.891968" lat="45.978025"><ele>2275.75</ele></trkpt>
   <trkpt lon="6.891984" lat="45.977971"><ele>2274.0</ele></trkpt>
   <trkpt lon="6.892016" lat="45.977944"><ele>2272.75</ele></trkpt>
   <trkpt lon="6.892060" lat="45.977920"><ele>2271.25</ele></trkpt>
   <trkpt lon="6.892175" lat="45.977891"><ele>2268.5</ele></trkpt>
   <trkpt lon="6.892245" lat="45.977885"><ele>2266.75</ele></trkpt>
   <trkpt lon="6.892323" lat="45.977898"><ele>2264.75</ele></trkpt>
   <trkpt lon="6.892447" lat="45.977949"><ele>2262.25</ele></trkpt>
   <trkpt lon="6.892520" lat="45.977989"><ele>2260.75</ele></trkpt>
   <trkpt lon="6.892578" lat="45.977990"><ele>2258.25</ele></trkpt>
   <trkpt lon="6.892601" lat="45.977952"><ele>2256.0</ele></trkpt>
   <trkpt lon="6.892629" lat="45.977884"><ele>2253.25</ele></trkpt>
   <trkpt lon="6.892618" lat="45.977843"><ele>2252.75</ele></trkpt>
   <trkpt lon="6.892527" lat="45.977743"><ele>2252.25</ele></trkpt>
   <trkpt lon="6.892514" lat="45.977718"><ele>2251.5</ele></trkpt>
   <trkpt lon="6.892488" lat="45.977602"><ele>2247.0</ele></trkpt>
   <trkpt lon="6.892439" lat="45.977525"><ele>2244.5</ele></trkpt>
   <trkpt lon="6.892439" lat="45.977500"><ele>2243.5</ele></trkpt>
   <trkpt lon="6.892465" lat="45.977480"><ele>2241.75</ele></trkpt>
   <trkpt lon="6.892513" lat="45.977478"><ele>2240.5</ele></trkpt>
   <trkpt lon="6.892665" lat="45.977513"><ele>2236.5</ele></trkpt>
   <trkpt lon="6.892681" lat="45.977508"><ele>2235.75</ele></trkpt>
   <trkpt lon="6.892680" lat="45.977363"><ele>2229.5</ele></trkpt>
   <trkpt lon="6.892686" lat="45.977329"><ele>2228.0</ele></trkpt>
   <trkpt lon="6.892700" lat="45.977311"><ele>2226.75</ele></trkpt>
   <trkpt lon="6.892699" lat="45.977284"><ele>2225.75</ele></trkpt>
   <trkpt lon="6.892653" lat="45.977224"><ele>2224.5</ele></trkpt>
   <trkpt lon="6.892648" lat="45.977196"><ele>2223.75</ele></trkpt>
   <trkpt lon="6.892698" lat="45.977119"><ele>2220.0</ele></trkpt>
   <trkpt lon="6.892732" lat="45.977092"><ele>2218.5</ele></trkpt>
   <trkpt lon="6.892818" lat="45.977059"><ele>2215.0</ele></trkpt>
   <trkpt lon="6.892835" lat="45.977033"><ele>2213.75</ele></trkpt>
   <trkpt lon="6.892837" lat="45.976999"><ele>2213.0</ele></trkpt>
   <trkpt lon="6.892837" lat="45.976952"><ele>2212.0</ele></trkpt>
   <trkpt lon="6.892823" lat="45.976908"><ele>2211.25</ele></trkpt>
   <trkpt lon="6.892723" lat="45.976828"><ele>2210.0</ele></trkpt>
   <trkpt lon="6.892705" lat="45.976803"><ele>2209.25</ele></trkpt>
   <trkpt lon="6.892711" lat="45.976773"><ele>2208.25</ele></trkpt>
   <trkpt lon="6.892745" lat="45.976738"><ele>2206.5</ele></trkpt>
   <trkpt lon="6.892801" lat="45.976645"><ele>2203.0</ele></trkpt>
   <trkpt lon="6.892851" lat="45.976452"><ele>2197.5</ele></trkpt>
   <trkpt lon="6.892872" lat="45.976426"><ele>2197.0</ele></trkpt>
   <trkpt lon="6.892909" lat="45.976334"><ele>2194.5</ele></trkpt>
   <trkpt lon="6.893015" lat="45.976261"><ele>2193.0</ele></trkpt>
   <trkpt lon="6.893124" lat="45.976218"><ele>2191.75</ele></trkpt>
   <trkpt lon="6.893157" lat="45.976195"><ele>2191.25</ele></trkpt>
   <trkpt lon="6.893155" lat="45.976178"><ele>2190.75</ele></trkpt>
   <trkpt lon="6.893138" lat="45.976168"><ele>2190.5</ele></trkpt>
   <trkpt lon="6.893085" lat="45.976158"><ele>2190.0</ele></trkpt>
   <trkpt lon="6.893076" lat="45.976144"><ele>2189.25</ele></trkpt>
   <trkpt lon="6.893126" lat="45.976101"><ele>2188.5</ele></trkpt>
   <trkpt lon="6.893150" lat="45.976048"><ele>2187.0</ele></trkpt>
   <trkpt lon="6.893174" lat="45.975918"><ele>2182.75</ele></trkpt>
   <trkpt lon="6.893191" lat="45.975871"><ele>2181.5</ele></trkpt>
   <trkpt lon="6.893181" lat="45.975769"><ele>2179.25</ele></trkpt>
   <trkpt lon="6.893134" lat="45.975675"><ele>2177.25</ele></trkpt>
   <trkpt lon="6.893020" lat="45.975584"><ele>2175.75</ele></trkpt>
   <trkpt lon="6.893006" lat="45.975570"><ele>2175.5</ele></trkpt>
   <trkpt lon="6.892938" lat="45.975411"><ele>2174.75</ele></trkpt>
   <trkpt lon="6.892933" lat="45.975299"><ele>2174.75</ele></trkpt>
   <trkpt lon="6.892954" lat="45.975234"><ele>2174.25</ele></trkpt>
   <trkpt lon="6.892959" lat="45.975169"><ele>2173.5</ele></trkpt>
   <trkpt lon="6.892967" lat="45.975154"><ele>2173.25</ele></trkpt>
   <trkpt lon="6.893028" lat="45.975134"><ele>2171.75</ele></trkpt>
   <trkpt lon="6.893045" lat="45.975108"><ele>2171.0</ele></trkpt>
   <trkpt lon="6.893028" lat="45.975074"><ele>2171.0</ele></trkpt>
   <trkpt lon="6.893039" lat="45.975023"><ele>2169.75</ele></trkpt>
   <trkpt lon="6.893141" lat="45.974903"><ele>2165.5</ele></trkpt>
   <trkpt lon="6.893151" lat="45.974809"><ele>2163.5</ele></trkpt>
   <trkpt lon="6.893165" lat="45.974784"><ele>2162.75</ele></trkpt>
   <trkpt lon="6.893184" lat="45.974763"><ele>2162.0</ele></trkpt>
   <trkpt lon="6.893348" lat="45.974636"><ele>2155.25</ele></trkpt>
   <trkpt lon="6.893369" lat="45.974587"><ele>2154.0</ele></trkpt>
   <trkpt lon="6.893364" lat="45.974549"><ele>2153.5</ele></trkpt>
   <trkpt lon="6.893350" lat="45.974521"><ele>2153.5</ele></trkpt>
   <trkpt lon="6.893350" lat="45.974461"><ele>2152.75</ele></trkpt>
   <trkpt lon="6.893321" lat="45.974339"><ele>2149.75</ele></trkpt>
   <trkpt lon="6.893294" lat="45.974267"><ele>2148.0</ele></trkpt>
   <trkpt lon="6.893284" lat="45.974255"><ele>2147.75</ele></trkpt>
   <trkpt lon="6.893170" lat="45.974213"><ele>2148.5</ele></trkpt>
   <trkpt lon="6.893120" lat="45.974186"><ele>2148.5</ele></trkpt>
   <trkpt lon="6.893090" lat="45.974163"><ele>2148.0</ele></trkpt>
   <trkpt lon="6.893075" lat="45.974135"><ele>2147.0</ele></trkpt>
   <trkpt lon="6.893067" lat="45.974095"><ele>2145.25</ele></trkpt>
   <trkpt lon="6.893074" lat="45.974045"><ele>2142.75</ele></trkpt>
   <trkpt lon="6.893102" lat="45.974020"><ele>2141.0</ele></trkpt>
   <trkpt lon="6.893167" lat="45.974007"><ele>2139.0</ele></trkpt>
   <trkpt lon="6.893173" lat="45.973997"><ele>2138.25</ele></trkpt>
   <trkpt lon="6.893163" lat="45.973975"><ele>2137.5</ele></trkpt>
   <trkpt lon="6.893136" lat="45.973926"><ele>2135.75</ele></trkpt>
   <trkpt lon="6.893086" lat="45.973868"><ele>2133.75</ele></trkpt>
   <trkpt lon="6.893020" lat="45.973849"><ele>2134.5</ele></trkpt>
   <trkpt lon="6.893006" lat="45.973839"><ele>2134.25</ele></trkpt>
   <trkpt lon="6.893014" lat="45.973828"><ele>2133.5</ele></trkpt>
   <trkpt lon="6.893067" lat="45.973816"><ele>2131.0</ele></trkpt>
   <trkpt lon="6.893147" lat="45.973833"><ele>2130.0</ele></trkpt>
   <trkpt lon="6.893212" lat="45.973829"><ele>2128.25</ele></trkpt>
   <trkpt lon="6.893223" lat="45.973824"><ele>2127.5</ele></trkpt>
   <trkpt lon="6.893215" lat="45.973817"><ele>2127.25</ele></trkpt>
   <trkpt lon="6.893152" lat="45.973803"><ele>2128.0</ele></trkpt>
   <trkpt lon="6.893130" lat="45.973783"><ele>2127.5</ele></trkpt>
   <trkpt lon="6.893083" lat="45.973764"><ele>2127.5</ele></trkpt>
   <trkpt lon="6.893018" lat="45.973722"><ele>2127.0</ele></trkpt>
   <trkpt lon="6.893026" lat="45.973712"><ele>2126.0</ele></trkpt>
   <trkpt lon="6.893092" lat="45.973725"><ele>2124.75</ele></trkpt>
   <trkpt lon="6.893124" lat="45.973724"><ele>2124.0</ele></trkpt>
   <trkpt lon="6.893075" lat="45.973703"><ele>2124.0</ele></trkpt>
   <trkpt lon="6.893078" lat="45.973697"><ele>2123.5</ele></trkpt>
   <trkpt lon="6.893137" lat="45.973695"><ele>2121.75</ele></trkpt>
   <trkpt lon="6.893120" lat="45.973670"><ele>2120.75</ele></trkpt>
   <trkpt lon="6.893006" lat="45.973625"><ele>2121.5</ele></trkpt>
   <trkpt lon="6.892925" lat="45.973458"><ele>2117.0</ele></trkpt>
   <trkpt lon="6.892887" lat="45.973297"><ele>2111.5</ele></trkpt>
   <trkpt lon="6.892880" lat="45.973191"><ele>2108.0</ele></trkpt>
   <trkpt lon="6.892858" lat="45.973051"><ele>2103.5</ele></trkpt>
   <trkpt lon="6.892859" lat="45.973007"><ele>2101.5</ele></trkpt>
   <trkpt lon="6.892849" lat="45.972977"><ele>2100.25</ele></trkpt>
   <trkpt lon="6.892831" lat="45.972957"><ele>2099.75</ele></trkpt>
   <trkpt lon="6.892707" lat="45.972882"><ele>2097.25</ele></trkpt>
   <trkpt lon="6.892591" lat="45.972842"><ele>2095.5</ele></trkpt>
   <trkpt lon="6.892496" lat="45.972798"><ele>2093.25</ele></trkpt>
   <trkpt lon="6.892463" lat="45.972771"><ele>2092.5</ele></trkpt>
   <trkpt lon="6.892448" lat="45.972750"><ele>2091.75</ele></trkpt>
   <trkpt lon="6.892456" lat="45.972729"><ele>2090.75</ele></trkpt>
   <trkpt lon="6.892562" lat="45.972683"><ele>2087.75</ele></trkpt>
   <trkpt lon="6.892576" lat="45.972673"><ele>2087.25</ele></trkpt>
   <trkpt lon="6.892573" lat="45.972662"><ele>2086.75</ele></trkpt>
   <trkpt lon="6.892509" lat="45.972588"><ele>2083.75</ele></trkpt>
   <trkpt lon="6.892422" lat="45.972445"><ele>2079.5</ele></trkpt>
   <trkpt lon="6.892331" lat="45.972377"><ele>2078.75</ele></trkpt>
   <trkpt lon="6.892292" lat="45.972358"><ele>2078.75</ele></trkpt>
   <trkpt lon="6.892261" lat="45.972327"><ele>2078.25</ele></trkpt>
   <trkpt lon="6.892230" lat="45.972262"><ele>2076.25</ele></trkpt>
   <trkpt lon="6.892111" lat="45.972136"><ele>2075.0</ele></trkpt>
   <trkpt lon="6.892069" lat="45.972105"><ele>2075.0</ele></trkpt>
   <trkpt lon="6.892043" lat="45.972014"><ele>2072.75</ele></trkpt>
   <trkpt lon="6.891982" lat="45.971864"><ele>2069.25</ele></trkpt>
   <trkpt lon="6.891865" lat="45.971845"><ele>2070.5</ele></trkpt>
   <trkpt lon="6.891771" lat="45.971782"><ele>2069.0</ele></trkpt>
   <trkpt lon="6.891734" lat="45.971775"><ele>2069.25</ele></trkpt>
   <trkpt lon="6.891594" lat="45.971793"><ele>2071.0</ele></trkpt>
   <trkpt lon="6.891527" lat="45.971792"><ele>2071.5</ele></trkpt>
   <trkpt lon="6.891487" lat="45.971778"><ele>2071.5</ele></trkpt>
   <trkpt lon="6.891400" lat="45.971708"><ele>2069.5</ele></trkpt>
   <trkpt lon="6.891134" lat="45.971504"><ele>2066.0</ele></trkpt>
   <trkpt lon="6.890809" lat="45.971327"><ele>2066.25</ele></trkpt>
   <trkpt lon="6.890624" lat="45.971217"><ele>2066.0</ele></trkpt>
   <trkpt lon="6.890542" lat="45.971145"><ele>2065.0</ele></trkpt>
   <trkpt lon="6.890459" lat="45.971039"><ele>2063.0</ele></trkpt>
   <trkpt lon="6.890344" lat="45.970911"><ele>2061.25</ele></trkpt>
   <trkpt lon="6.890263" lat="45.970773"><ele>2057.0</ele></trkpt>
   <trkpt lon="6.890205" lat="45.970728"><ele>2056.25</ele></trkpt>
   <trkpt lon="6.890171" lat="45.970716"><ele>2056.75</ele></trkpt>
   <trkpt lon="6.890122" lat="45.970720"><ele>2058.75</ele></trkpt>
   <trkpt lon="6.890106" lat="45.970712"><ele>2058.75</ele></trkpt>
   <trkpt lon="6.889982" lat="45.970548"><ele>2053.25</ele></trkpt>
   <trkpt lon="6.889880" lat="45.970483"><ele>2053.75</ele></trkpt>
   <trkpt lon="6.889763" lat="45.970362"><ele>2052.0</ele></trkpt>
   <trkpt lon="6.889699" lat="45.970267"><ele>2049.25</ele></trkpt>
   <trkpt lon="6.889603" lat="45.970222"><ele>2050.5</ele></trkpt>
   <trkpt lon="6.889516" lat="45.970138"><ele>2049.75</ele></trkpt>
   <trkpt lon="6.889424" lat="45.970089"><ele>2050.75</ele></trkpt>
   <trkpt lon="6.889372" lat="45.970038"><ele>2049.75</ele></trkpt>
   <trkpt lon="6.889332" lat="45.969982"><ele>2048.5</ele></trkpt>
   <trkpt lon="6.889321" lat="45.969954"><ele>2047.5</ele></trkpt>
   <trkpt lon="6.889312" lat="45.969827"><ele>2042.25</ele></trkpt>
   <trkpt lon="6.889275" lat="45.969789"><ele>2041.0</ele></trkpt>
   <trkpt lon="6.889233" lat="45.969781"><ele>2040.75</ele></trkpt>
   <trkpt lon="6.889163" lat="45.969779"><ele>2041.0</ele></trkpt>
   <trkpt lon="6.889050" lat="45.969784"><ele>2039.5</ele></trkpt>
   <trkpt lon="6.888773" lat="45.969841"><ele>2039.5</ele></trkpt>
   <trkpt lon="6.888675" lat="45.969849"><ele>2038.5</ele></trkpt>
   <trkpt lon="6.888534" lat="45.969828"><ele>2036.25</ele></trkpt>
   <trkpt lon="6.888344" lat="45.969833"><ele>2036.0</ele></trkpt>
   <trkpt lon="6.888264" lat="45.969821"><ele>2035.75</ele></trkpt>
   <trkpt lon="6.888160" lat="45.969819"><ele>2036.25</ele></trkpt>
   <trkpt lon="6.888063" lat="45.969792"><ele>2035.75</ele></trkpt>
   <trkpt lon="6.887897" lat="45.969696"><ele>2033.5</ele></trkpt>
   <trkpt lon="6.887898" lat="45.969654"><ele>2032.5</ele></trkpt>
   <trkpt lon="6.887877" lat="45.969611"><ele>2031.75</ele></trkpt>
   <trkpt lon="6.887807" lat="45.969578"><ele>2031.5</ele></trkpt>
   <trkpt lon="6.887782" lat="45.969538"><ele>2030.5</ele></trkpt>
   <trkpt lon="6.887722" lat="45.969443"><ele>2028.0</ele></trkpt>
   <trkpt lon="6.887720" lat="45.969413"><ele>2027.5</ele></trkpt>
   <trkpt lon="6.887692" lat="45.969383"><ele>2026.75</ele></trkpt>
   <trkpt lon="6.887615" lat="45.969352"><ele>2026.75</ele></trkpt>
   <trkpt lon="6.887568" lat="45.969326"><ele>2026.0</ele></trkpt>
   <trkpt lon="6.887517" lat="45.969313"><ele>2025.5</ele></trkpt>
   <trkpt lon="6.887461" lat="45.969317"><ele>2025.0</ele></trkpt>
   <trkpt lon="6.887436" lat="45.969227"><ele>2022.25</ele></trkpt>
   <trkpt lon="6.887420" lat="45.969201"><ele>2021.25</ele></trkpt>
   <trkpt lon="6.887400" lat="45.969175"><ele>2020.25</ele></trkpt>
   <trkpt lon="6.887358" lat="45.969162"><ele>2019.25</ele></trkpt>
   <trkpt lon="6.887343" lat="45.969149"><ele>2018.75</ele></trkpt>
   <trkpt lon="6.887338" lat="45.969089"><ele>2018.0</ele></trkpt>
   <trkpt lon="6.887357" lat="45.969050"><ele>2017.75</ele></trkpt>
   <trkpt lon="6.887352" lat="45.969028"><ele>2017.5</ele></trkpt>
   <trkpt lon="6.887323" lat="45.969003"><ele>2016.5</ele></trkpt>
   <trkpt lon="6.887307" lat="45.968974"><ele>2015.75</ele></trkpt>
   <trkpt lon="6.887305" lat="45.968947"><ele>2015.5</ele></trkpt>
   <trkpt lon="6.887326" lat="45.968911"><ele>2015.5</ele></trkpt>
   <trkpt lon="6.887330" lat="45.968861"><ele>2014.75</ele></trkpt>
   <trkpt lon="6.887364" lat="45.968781"><ele>2014.0</ele></trkpt>
   <trkpt lon="6.887375" lat="45.968737"><ele>2013.5</ele></trkpt>
   <trkpt lon="6.887357" lat="45.968695"><ele>2012.25</ele></trkpt>
   <trkpt lon="6.887361" lat="45.968566"><ele>2009.75</ele></trkpt>
   <trkpt lon="6.887390" lat="45.968525"><ele>2009.0</ele></trkpt>
   <trkpt lon="6.887423" lat="45.968498"><ele>2008.75</ele></trkpt>
   <trkpt lon="6.887433" lat="45.968396"><ele>2005.75</ele></trkpt>
   <trkpt lon="6.887419" lat="45.968339"><ele>2004.25</ele></trkpt>
   <trkpt lon="6.887394" lat="45.968319"><ele>2004.0</ele></trkpt>
   <trkpt lon="6.887376" lat="45.968282"><ele>2003.25</ele></trkpt>
   <trkpt lon="6.887358" lat="45.968263"><ele>2002.75</ele></trkpt>
   <trkpt lon="6.887327" lat="45.968246"><ele>2002.5</ele></trkpt>
   <trkpt lon="6.887209" lat="45.968098"><ele>1999.0</ele></trkpt>
   <trkpt lon="6.887187" lat="45.968080"><ele>1998.75</ele></trkpt>
   <trkpt lon="6.887155" lat="45.968066"><ele>1998.5</ele></trkpt>
   <trkpt lon="6.887148" lat="45.968046"><ele>1998.0</ele></trkpt>
   <trkpt lon="6.887207" lat="45.967893"><ele>1995.5</ele></trkpt>
   <trkpt lon="6.887250" lat="45.967838"><ele>1994.5</ele></trkpt>
   <trkpt lon="6.887268" lat="45.967746"><ele>1993.0</ele></trkpt>
   <trkpt lon="6.887260" lat="45.967687"><ele>1992.0</ele></trkpt>
   <trkpt lon="6.887278" lat="45.967636"><ele>1990.75</ele></trkpt>
   <trkpt lon="6.887262" lat="45.967573"><ele>1989.75</ele></trkpt>
   <trkpt lon="6.887232" lat="45.967542"><ele>1989.5</ele></trkpt>
   <trkpt lon="6.887199" lat="45.967521"><ele>1989.5</ele></trkpt>
   <trkpt lon="6.887173" lat="45.967513"><ele>1989.75</ele></trkpt>
   <trkpt lon="6.887157" lat="45.967495"><ele>1989.5</ele></trkpt>
   <trkpt lon="6.887153" lat="45.967471"><ele>1989.0</ele></trkpt>
   <trkpt lon="6.887130" lat="45.967358"><ele>1987.25</ele></trkpt>
   <trkpt lon="6.887105" lat="45.967289"><ele>1986.25</ele></trkpt>
   <trkpt lon="6.886867" lat="45.966799"><ele>1976.5</ele></trkpt>
   <trkpt lon="6.886873" lat="45.966771"><ele>1975.5</ele></trkpt>
   <trkpt lon="6.886897" lat="45.966739"><ele>1974.5</ele></trkpt>
   <trkpt lon="6.886932" lat="45.966719"><ele>1973.5</ele></trkpt>
   <trkpt lon="6.887053" lat="45.966686"><ele>1972.5</ele></trkpt>
   <trkpt lon="6.887078" lat="45.966652"><ele>1971.25</ele></trkpt>
   <trkpt lon="6.887057" lat="45.966635"><ele>1970.75</ele></trkpt>
   <trkpt lon="6.886922" lat="45.966585"><ele>1969.75</ele></trkpt>
   <trkpt lon="6.886880" lat="45.966556"><ele>1969.75</ele></trkpt>
   <trkpt lon="6.886870" lat="45.966526"><ele>1969.25</ele></trkpt>
   <trkpt lon="6.886879" lat="45.966496"><ele>1968.25</ele></trkpt>
   <trkpt lon="6.886915" lat="45.966439"><ele>1966.0</ele></trkpt>
   <trkpt lon="6.886956" lat="45.966306"><ele>1963.25</ele></trkpt>
   <trkpt lon="6.887046" lat="45.966156"><ele>1959.5</ele></trkpt>
   <trkpt lon="6.887242" lat="45.965910"><ele>1951.5</ele></trkpt>
   <trkpt lon="6.887310" lat="45.965776"><ele>1947.0</ele></trkpt>
   <trkpt lon="6.887341" lat="45.965674"><ele>1943.75</ele></trkpt>
   <trkpt lon="6.887312" lat="45.965596"><ele>1942.5</ele></trkpt>
   <trkpt lon="6.887201" lat="45.965539"><ele>1942.0</ele></trkpt>
   <trkpt lon="6.886481" lat="45.965235"><ele>1929.5</ele></trkpt>
   <trkpt lon="6.886356" lat="45.965107"><ele>1925.0</ele></trkpt>
   <trkpt lon="6.886260" lat="45.964928"><ele>1919.25</ele></trkpt>
   <trkpt lon="6.886229" lat="45.964792"><ele>1914.5</ele></trkpt>
   <trkpt lon="6.886189" lat="45.964672"><ele>1910.25</ele></trkpt>
   <trkpt lon="6.886115" lat="45.964617"><ele>1909.25</ele></trkpt>
   <trkpt lon="6.885888" lat="45.964512"><ele>1906.25</ele></trkpt>
   <trkpt lon="6.885798" lat="45.964419"><ele>1903.5</ele></trkpt>
   <trkpt lon="6.885719" lat="45.964237"><ele>1898.5</ele></trkpt>
   <trkpt lon="6.885710" lat="45.964181"><ele>1896.5</ele></trkpt>
   <trkpt lon="6.885733" lat="45.964149"><ele>1895.0</ele></trkpt>
   <trkpt lon="6.885765" lat="45.964134"><ele>1894.0</ele></trkpt>
   <trkpt lon="6.885981" lat="45.964094"><ele>1889.5</ele></trkpt>
   <trkpt lon="6.886300" lat="45.964096"><ele>1885.75</ele></trkpt>
   <trkpt lon="6.886227" lat="45.964044"><ele>1885.0</ele></trkpt>
   <trkpt lon="6.886195" lat="45.964005"><ele>1884.25</ele></trkpt>
   <trkpt lon="6.886149" lat="45.963950"><ele>1883.0</ele></trkpt>
   <trkpt lon="6.885994" lat="45.963610"><ele>1873.75</ele></trkpt>
   <trkpt lon="6.885929" lat="45.963523"><ele>1871.25</ele></trkpt>
   <trkpt lon="6.885892" lat="45.963453"><ele>1869.25</ele></trkpt>
   <trkpt lon="6.885763" lat="45.963327"><ele>1867.5</ele></trkpt>
   <trkpt lon="6.885809" lat="45.963232"><ele>1864.5</ele></trkpt>
   <trkpt lon="6.885728" lat="45.963050"><ele>1864.0</ele></trkpt>
   <trkpt lon="6.885807" lat="45.962691"><ele>1864.75</ele></trkpt>
   <trkpt lon="6.885919" lat="45.962539"><ele>1865.5</ele></trkpt>
   <trkpt lon="6.886052" lat="45.962236"><ele>1874.5</ele></trkpt>
   <trkpt lon="6.886240" lat="45.961990"><ele>1876.0</ele></trkpt>
   <trkpt lon="6.886218" lat="45.961970"><ele>1877.75</ele></trkpt>
   <trkpt lon="6.886212" lat="45.961946"><ele>1879.0</ele></trkpt>
   <trkpt lon="6.886372" lat="45.961746"><ele>1882.25</ele></trkpt>
   <trkpt lon="6.886522" lat="45.961626"><ele>1883.5</ele></trkpt>
   <trkpt lon="6.886648" lat="45.961542"><ele>1884.25</ele></trkpt>
   <trkpt lon="6.886750" lat="45.961436"><ele>1885.5</ele></trkpt>
   <trkpt lon="6.886808" lat="45.961327"><ele>1886.5</ele></trkpt>
   <trkpt lon="6.886884" lat="45.961116"><ele>1888.0</ele></trkpt>
   <trkpt lon="6.886847" lat="45.960972"><ele>1890.25</ele></trkpt>
   <trkpt lon="6.886842" lat="45.960770"><ele>1891.0</ele></trkpt>
   <trkpt lon="6.886821" lat="45.960727"><ele>1891.0</ele></trkpt>
   <trkpt lon="6.886788" lat="45.960705"><ele>1891.5</ele></trkpt>
   <trkpt lon="6.886497" lat="45.960571"><ele>1894.0</ele></trkpt>
   <trkpt lon="6.886118" lat="45.960442"><ele>1892.25</ele></trkpt>
   <trkpt lon="6.886041" lat="45.960402"><ele>1891.5</ele></trkpt>
   <trkpt lon="6.885961" lat="45.960349"><ele>1890.5</ele></trkpt>
   <trkpt lon="6.885890" lat="45.960222"><ele>1886.75</ele></trkpt>
   <trkpt lon="6.886029" lat="45.960125"><ele>1882.25</ele></trkpt>
   <trkpt lon="6.886125" lat="45.960089"><ele>1880.0</ele></trkpt>
   <trkpt lon="6.886219" lat="45.960066"><ele>1878.25</ele></trkpt>
   <trkpt lon="6.886330" lat="45.960007"><ele>1874.75</ele></trkpt>
   <trkpt lon="6.886347" lat="45.959982"><ele>1873.5</ele></trkpt>
   <trkpt lon="6.886472" lat="45.959857"><ele>1867.0</ele></trkpt>
   <trkpt lon="6.886493" lat="45.959810"><ele>1864.75</ele></trkpt>
   <trkpt lon="6.886508" lat="45.959731"><ele>1860.75</ele></trkpt>
   <trkpt lon="6.886557" lat="45.959659"><ele>1857.5</ele></trkpt>
   <trkpt lon="6.886523" lat="45.959547"><ele>1852.5</ele></trkpt>
   <trkpt lon="6.886408" lat="45.959528"><ele>1851.5</ele></trkpt>
   <trkpt lon="6.886339" lat="45.959495"><ele>1850.75</ele></trkpt>
   <trkpt lon="6.886191" lat="45.959415"><ele>1849.25</ele></trkpt>
   <trkpt lon="6.886039" lat="45.959265"><ele>1844.75</ele></trkpt>
   <trkpt lon="6.885821" lat="45.959099"><ele>1840.75</ele></trkpt>
   <trkpt lon="6.885596" lat="45.958934"><ele>1837.25</ele></trkpt>
   <trkpt lon="6.885493" lat="45.958823"><ele>1834.25</ele></trkpt>
   <trkpt lon="6.885363" lat="45.958546"><ele>1824.5</ele></trkpt>
   <trkpt lon="6.885251" lat="45.958334"><ele>1818.5</ele></trkpt>
   <trkpt lon="6.885156" lat="45.958204"><ele>1814.75</ele></trkpt>
   <trkpt lon="6.885017" lat="45.958091"><ele>1812.25</ele></trkpt>
   <trkpt lon="6.884106" lat="45.957560"><ele>1792.5</ele></trkpt>
   <trkpt lon="6.883345" lat="45.957212"><ele>1784.25</ele></trkpt>
   <trkpt lon="6.883104" lat="45.957123"><ele>1782.0</ele></trkpt>
   <trkpt lon="6.882914" lat="45.957016"><ele>1778.25</ele></trkpt>
   <trkpt lon="6.882656" lat="45.956794"><ele>1769.25</ele></trkpt>
   <trkpt lon="6.882531" lat="45.956714"><ele>1766.0</ele></trkpt>
   <trkpt lon="6.882364" lat="45.956651"><ele>1761.5</ele></trkpt>
   <trkpt lon="6.882191" lat="45.956645"><ele>1759.0</ele></trkpt>
   <trkpt lon="6.882019" lat="45.956653"><ele>1757.0</ele></trkpt>
   <trkpt lon="6.881594" lat="45.956762"><ele>1755.5</ele></trkpt>
   <trkpt lon="6.881197" lat="45.956719"><ele>1744.5</ele></trkpt>
   <trkpt lon="6.881862" lat="45.956456"><ele>1741.0</ele></trkpt>
   <trkpt lon="6.882253" lat="45.956271"><ele>1735.75</ele></trkpt>
   <trkpt lon="6.882641" lat="45.956070"><ele>1726.25</ele></trkpt>
   <trkpt lon="6.882942" lat="45.956005"><ele>1723.0</ele></trkpt>
   <trkpt lon="6.883681" lat="45.956061"><ele>1716.0</ele></trkpt>
   <trkpt lon="6.884249" lat="45.956166"><ele>1713.25</ele></trkpt>
   <trkpt lon="6.884485" lat="45.956217"><ele>1712.25</ele></trkpt>
   <trkpt lon="6.884961" lat="45.956387"><ele>1712.75</ele></trkpt>
   <trkpt lon="6.885362" lat="45.956442"><ele>1705.25</ele></trkpt>
   <trkpt lon="6.885666" lat="45.956587"><ele>1707.0</ele></trkpt>
   <trkpt lon="6.885860" lat="45.956569"><ele>1700.75</ele></trkpt>
   <trkpt lon="6.886085" lat="45.956499"><ele>1690.75</ele></trkpt>
   <trkpt lon="6.885976" lat="45.956458"><ele>1690.75</ele></trkpt>
   <trkpt lon="6.885751" lat="45.956406"><ele>1693.0</ele></trkpt>
   <trkpt lon="6.885402" lat="45.956047"><ele>1677.0</ele></trkpt>
   <trkpt lon="6.885149" lat="45.955929"><ele>1673.75</ele></trkpt>
   <trkpt lon="6.884932" lat="45.955888"><ele>1675.25</ele></trkpt>
   <trkpt lon="6.885118" lat="45.955850"><ele>1668.0</ele></trkpt>
   <trkpt lon="6.885238" lat="45.955860"><ele>1666.75</ele></trkpt>
   <trkpt lon="6.885420" lat="45.955886"><ele>1664.75</ele></trkpt>
   <trkpt lon="6.885614" lat="45.956034"><ele>1670.75</ele></trkpt>
   <trkpt lon="6.885619" lat="45.955940"><ele>1663.75</ele></trkpt>
   <trkpt lon="6.885524" lat="45.955812"><ele>1656.75</ele></trkpt>
   <trkpt lon="6.885442" lat="45.955610"><ele>1641.5</ele></trkpt>
   <trkpt lon="6.885363" lat="45.955567"><ele>1639.25</ele></trkpt>
   <trkpt lon="6.885169" lat="45.955611"><ele>1646.0</ele></trkpt>
   <trkpt lon="6.885048" lat="45.955614"><ele>1647.75</ele></trkpt>
   <trkpt lon="6.884707" lat="45.955514"><ele>1645.5</ele></trkpt>
   <trkpt lon="6.884609" lat="45.955479"><ele>1645.25</ele></trkpt>
   <trkpt lon="6.884629" lat="45.955460"><ele>1642.75</ele></trkpt>
   <trkpt lon="6.885034" lat="45.955452"><ele>1633.5</ele></trkpt>
   <trkpt lon="6.885168" lat="45.955408"><ele>1628.25</ele></trkpt>
   <trkpt lon="6.885279" lat="45.955334"><ele>1620.75</ele></trkpt>
   <trkpt lon="6.885008" lat="45.955358"><ele>1625.75</ele></trkpt>
   <trkpt lon="6.884878" lat="45.955340"><ele>1626.5</ele></trkpt>
   <trkpt lon="6.884704" lat="45.955208"><ele>1618.75</ele></trkpt>
   <trkpt lon="6.884463" lat="45.955074"><ele>1613.5</ele></trkpt>
   <trkpt lon="6.884313" lat="45.954997"><ele>1611.5</ele></trkpt>
   <trkpt lon="6.883920" lat="45.954845"><ele>1610.5</ele></trkpt>
   <trkpt lon="6.884539" lat="45.954838"><ele>1594.25</ele></trkpt>
   <trkpt lon="6.884871" lat="45.954975"><ele>1597.5</ele></trkpt>
   <trkpt lon="6.885040" lat="45.954996"><ele>1596.0</ele></trkpt>
   <trkpt lon="6.885234" lat="45.954997"><ele>1593.25</ele></trkpt>
   <trkpt lon="6.885510" lat="45.954988"><ele>1588.75</ele></trkpt>
   <trkpt lon="6.885777" lat="45.954995"><ele>1585.25</ele></trkpt>
   <trkpt lon="6.885938" lat="45.955015"><ele>1584.5</ele></trkpt>
   <trkpt lon="6.886229" lat="45.955006"><ele>1580.0</ele></trkpt>
   <trkpt lon="6.886350" lat="45.954972"><ele>1576.5</ele></trkpt>
   <trkpt lon="6.886428" lat="45.955012"><ele>1578.0</ele></trkpt>
   <trkpt lon="6.886493" lat="45.955102"><ele>1582.75</ele></trkpt>
   <trkpt lon="6.886607" lat="45.955126"><ele>1582.5</ele></trkpt>
   <trkpt lon="6.886667" lat="45.955120"><ele>1581.25</ele></trkpt>
   <trkpt lon="6.886727" lat="45.955124"><ele>1579.25</ele></trkpt>
   <trkpt lon="6.886752" lat="45.955144"><ele>1579.75</ele></trkpt>
  </trkseg>
  </trk>
</gpx>
