<?xml version="1.0" encoding="UTF-8"?>
<gpx xmlns="http://www.topografix.com/GPX/1/1" xmlns:xsi="http://www.w3.org/2001/XMLSchema-instance" xsi:schemaLocation="http://www.topografix.com/GPX/1/1 http://www.topografix.com/GPX/1/1/gpx.xsd" version="1.1" creator="tmb2027 build-gpx (BRouter hiking-mountain)">
  <metadata>
    <name>TMB 2027 Day 10 · Trient → Col de Balme → Aiguillette des Posettes → Tré-le-Champ</name>
    <desc>트리앙 → 콜 드 발므 → 에귀예트 데 포제트 → 트레르샹 · 경유 5지점 · 참고용 산길 경로. 실제 길 찾기는 공식 지도·현장 표지 우선.</desc>
    <copyright author="OpenStreetMap contributors"><license>https://www.openstreetmap.org/copyright</license></copyright>
    <link href="https://brouter.de/"><text>Routing: BRouter hiking-mountain</text></link>
    <time>2026-09-18T00:00:00Z</time>
  </metadata>
  <wpt lat="46.058" lon="6.993"><ele>1300</ele><name>Trient</name><type>lodging</type></wpt>
  <wpt lat="46.028" lon="6.972"><ele>2191</ele><name>Col de Balme</name><type>pass</type></wpt>
  <wpt lat="46.0215" lon="6.9615"><ele>1997</ele><name>Col des Posettes</name><type>pass</type></wpt>
  <wpt lat="46.01" lon="6.958"><ele>2201</ele><name>Aiguillette des Posettes</name><type>pass</type></wpt>
  <wpt lat="45.994" lon="6.935"><ele>1417</ele><name>Tré-le-Champ</name><type>lodging</type></wpt>
  <trk>
    <name>TMB 2027 Day 10 · Trient → Col de Balme → Aiguillette des Posettes → Tré-le-Champ</name>
    <trkseg>
   <trkpt lon="6.993854" lat="46.058004"><ele>1273.0</ele></trkpt>
   <trkpt lon="6.993865" lat="46.057853"><ele>1274.25</ele></trkpt>
   <trkpt lon="6.993893" lat="46.057740"><ele>1275.0</ele></trkpt>
   <trkpt lon="6.994095" lat="46.057340"><ele>1275.5</ele></trkpt>
   <trkpt lon="6.994137" lat="46.057185"><ele>1276.0</ele></trkpt>
   <trkpt lon="6.994143" lat="46.057064"><ele>1277.0</ele></trkpt>
   <trkpt lon="6.994125" lat="46.057008"><ele>1277.5</ele></trkpt>
   <trkpt lon="6.994070" lat="46.056813"><ele>1278.5</ele></trkpt>
   <trkpt lon="6.994064" lat="46.056746"><ele>1278.75</ele></trkpt>
   <trkpt lon="6.994046" lat="46.056543"><ele>1280.75</ele></trkpt>
   <trkpt lon="6.994015" lat="46.056448"><ele>1281.5</ele></trkpt>
   <trkpt lon="6.993942" lat="46.056346"><ele>1281.75</ele></trkpt>
   <trkpt lon="6.993866" lat="46.056135"><ele>1283.5</ele></trkpt>
   <trkpt lon="6.993866" lat="46.055952"><ele>1283.75</ele></trkpt>
   <trkpt lon="6.993859" lat="46.055885"><ele>1283.75</ele></trkpt>
   <trkpt lon="6.993844" lat="46.055833"><ele>1283.75</ele></trkpt>
   <trkpt lon="6.993799" lat="46.055722"><ele>1284.0</ele></trkpt>
   <trkpt lon="6.993714" lat="46.055573"><ele>1284.0</ele></trkpt>
   <trkpt lon="6.993678" lat="46.055512"><ele>1283.75</ele></trkpt>
   <trkpt lon="6.993657" lat="46.055395"><ele>1284.25</ele></trkpt>
   <trkpt lon="6.993651" lat="46.055346"><ele>1284.5</ele></trkpt>
   <trkpt lon="6.993669" lat="46.055234"><ele>1285.0</ele></trkpt>
   <trkpt lon="6.993711" lat="46.055040"><ele>1286.0</ele></trkpt>
   <trkpt lon="6.993707" lat="46.054759"><ele>1287.0</ele></trkpt>
   <trkpt lon="6.993684" lat="46.054608"><ele>1288.25</ele></trkpt>
   <trkpt lon="6.993679" lat="46.054582"><ele>1288.75</ele></trkpt>
   <trkpt lon="6.993587" lat="46.054151"><ele>1291.0</ele></trkpt>
   <trkpt lon="6.993589" lat="46.054079"><ele>1291.25</ele></trkpt>
   <trkpt lon="6.993607" lat="46.054005"><ele>1291.5</ele></trkpt>
   <trkpt lon="6.993712" lat="46.053735"><ele>1292.0</ele></trkpt>
   <trkpt lon="6.993785" lat="46.053482"><ele>1293.0</ele></trkpt>
   <trkpt lon="6.993797" lat="46.053390"><ele>1293.5</ele></trkpt>
   <trkpt lon="6.993796" lat="46.053172"><ele>1294.25</ele></trkpt>
   <trkpt lon="6.993797" lat="46.053009"><ele>1294.75</ele></trkpt>
   <trkpt lon="6.993820" lat="46.052945"><ele>1295.0</ele></trkpt>
   <trkpt lon="6.993845" lat="46.052913"><ele>1295.0</ele></trkpt>
   <trkpt lon="6.994017" lat="46.052760"><ele>1296.75</ele></trkpt>
   <trkpt lon="6.994238" lat="46.052538"><ele>1298.5</ele></trkpt>
   <trkpt lon="6.994016" lat="46.052473"><ele>1298.0</ele></trkpt>
   <trkpt lon="6.993997" lat="46.052358"><ele>1298.75</ele></trkpt>
   <trkpt lon="6.993953" lat="46.051943"><ele>1301.75</ele></trkpt>
   <trkpt lon="6.993951" lat="46.051717"><ele>1302.75</ele></trkpt>
   <trkpt lon="6.994006" lat="46.051448"><ele>1304.0</ele></trkpt>
   <trkpt lon="6.994043" lat="46.051270"><ele>1305.0</ele></trkpt>
   <trkpt lon="6.994038" lat="46.051129"><ele>1305.75</ele></trkpt>
   <trkpt lon="6.994001" lat="46.050999"><ele>1306.0</ele></trkpt>
   <trkpt lon="6.993868" lat="46.050608"><ele>1308.5</ele></trkpt>
   <trkpt lon="6.993761" lat="46.050365"><ele>1309.75</ele></trkpt>
   <trkpt lon="6.993756" lat="46.050356"><ele>1309.75</ele></trkpt>
   <trkpt lon="6.993709" lat="46.050223"><ele>1310.25</ele></trkpt>
   <trkpt lon="6.993674" lat="46.050070"><ele>1311.25</ele></trkpt>
   <trkpt lon="6.993711" lat="46.049494"><ele>1313.5</ele></trkpt>
   <trkpt lon="6.993819" lat="46.048641"><ele>1316.75</ele></trkpt>
   <trkpt lon="6.993881" lat="46.047999"><ele>1320.0</ele></trkpt>
   <trkpt lon="6.993894" lat="46.047864"><ele>1320.5</ele></trkpt>
   <trkpt lon="6.994003" lat="46.046741"><ele>1326.25</ele></trkpt>
   <trkpt lon="6.994026" lat="46.046653"><ele>1326.5</ele></trkpt>
   <trkpt lon="6.994108" lat="46.046498"><ele>1327.5</ele></trkpt>
   <trkpt lon="6.994071" lat="46.046332"><ele>1329.0</ele></trkpt>
   <trkpt lon="6.994085" lat="46.046225"><ele>1329.75</ele></trkpt>
   <trkpt lon="6.994139" lat="46.046143"><ele>1329.75</ele></trkpt>
   <trkpt lon="6.994171" lat="46.046063"><ele>1330.0</ele></trkpt>
   <trkpt lon="6.994175" lat="46.045985"><ele>1330.25</ele></trkpt>
   <trkpt lon="6.994062" lat="46.045716"><ele>1333.5</ele></trkpt>
   <trkpt lon="6.994025" lat="46.045606"><ele>1335.0</ele></trkpt>
   <trkpt lon="6.994037" lat="46.045563"><ele>1335.25</ele></trkpt>
   <trkpt lon="6.994047" lat="46.045432"><ele>1336.5</ele></trkpt>
   <trkpt lon="6.994085" lat="46.045278"><ele>1338.0</ele></trkpt>
   <trkpt lon="6.993942" lat="46.044478"><ele>1350.25</ele></trkpt>
   <trkpt lon="6.993932" lat="46.044359"><ele>1351.75</ele></trkpt>
   <trkpt lon="6.993934" lat="46.044240"><ele>1353.0</ele></trkpt>
   <trkpt lon="6.993959" lat="46.044049"><ele>1355.0</ele></trkpt>
   <trkpt lon="6.993956" lat="46.043938"><ele>1356.25</ele></trkpt>
   <trkpt lon="6.993930" lat="46.043763"><ele>1358.5</ele></trkpt>
   <trkpt lon="6.993880" lat="46.043516"><ele>1362.25</ele></trkpt>
   <trkpt lon="6.993855" lat="46.043448"><ele>1363.25</ele></trkpt>
   <trkpt lon="6.993866" lat="46.043249"><ele>1366.5</ele></trkpt>
   <trkpt lon="6.993869" lat="46.043075"><ele>1369.5</ele></trkpt>
   <trkpt lon="6.993820" lat="46.042890"><ele>1372.5</ele></trkpt>
   <trkpt lon="6.993790" lat="46.042656"><ele>1375.75</ele></trkpt>
   <trkpt lon="6.993763" lat="46.042501"><ele>1378.25</ele></trkpt>
   <trkpt lon="6.993690" lat="46.042381"><ele>1380.75</ele></trkpt>
   <trkpt lon="6.993656" lat="46.042260"><ele>1383.0</ele></trkpt>
   <trkpt lon="6.993683" lat="46.042137"><ele>1384.25</ele></trkpt>
   <trkpt lon="6.993697" lat="46.041940"><ele>1386.75</ele></trkpt>
   <trkpt lon="6.993657" lat="46.041823"><ele>1389.0</ele></trkpt>
   <trkpt lon="6.993568" lat="46.041726"><ele>1391.0</ele></trkpt>
   <trkpt lon="6.993467" lat="46.041598"><ele>1394.0</ele></trkpt>
   <trkpt lon="6.993445" lat="46.041517"><ele>1396.0</ele></trkpt>
   <trkpt lon="6.993431" lat="46.041313"><ele>1400.75</ele></trkpt>
   <trkpt lon="6.993343" lat="46.041098"><ele>1406.0</ele></trkpt>
   <trkpt lon="6.993214" lat="46.040935"><ele>1410.0</ele></trkpt>
   <trkpt lon="6.993184" lat="46.040769"><ele>1413.5</ele></trkpt>
   <trkpt lon="6.993172" lat="46.040698"><ele>1415.0</ele></trkpt>
   <trkpt lon="6.993178" lat="46.040654"><ele>1415.75</ele></trkpt>
   <trkpt lon="6.993151" lat="46.040575"><ele>1417.5</ele></trkpt>
   <trkpt lon="6.993155" lat="46.040543"><ele>1418.0</ele></trkpt>
   <trkpt lon="6.993158" lat="46.040513"><ele>1418.25</ele></trkpt>
   <trkpt lon="6.993241" lat="46.040501"><ele>1417.5</ele></trkpt>
   <trkpt lon="6.993256" lat="46.040490"><ele>1417.5</ele></trkpt>
   <trkpt lon="6.993273" lat="46.040477"><ele>1417.5</ele></trkpt>
   <trkpt lon="6.993260" lat="46.040427"><ele>1418.25</ele></trkpt>
   <trkpt lon="6.993184" lat="46.040407"><ele>1419.5</ele></trkpt>
   <trkpt lon="6.993095" lat="46.040369"><ele>1421.0</ele></trkpt>
   <trkpt lon="6.993058" lat="46.040316"><ele>1422.25</ele></trkpt>
   <trkpt lon="6.992980" lat="46.040299"><ele>1423.75</ele></trkpt>
   <trkpt lon="6.992797" lat="46.040297"><ele>1426.5</ele></trkpt>
   <trkpt lon="6.992618" lat="46.040228"><ele>1429.5</ele></trkpt>
   <trkpt lon="6.992474" lat="46.040158"><ele>1432.0</ele></trkpt>
   <trkpt lon="6.992066" lat="46.040121"><ele>1438.25</ele></trkpt>
   <trkpt lon="6.991733" lat="46.040059"><ele>1445.0</ele></trkpt>
   <trkpt lon="6.991701" lat="46.040034"><ele>1446.0</ele></trkpt>
   <trkpt lon="6.991653" lat="46.039993"><ele>1447.5</ele></trkpt>
   <trkpt lon="6.991648" lat="46.039965"><ele>1449.5</ele></trkpt>
   <trkpt lon="6.991657" lat="46.039942"><ele>1451.25</ele></trkpt>
   <trkpt lon="6.991683" lat="46.039915"><ele>1453.0</ele></trkpt>
   <trkpt lon="6.991734" lat="46.039895"><ele>1454.0</ele></trkpt>
   <trkpt lon="6.991853" lat="46.039884"><ele>1453.75</ele></trkpt>
   <trkpt lon="6.991923" lat="46.039863"><ele>1454.5</ele></trkpt>
   <trkpt lon="6.991973" lat="46.039829"><ele>1455.75</ele></trkpt>
   <trkpt lon="6.992078" lat="46.039704"><ele>1459.25</ele></trkpt>
   <trkpt lon="6.992113" lat="46.039634"><ele>1461.5</ele></trkpt>
   <trkpt lon="6.992134" lat="46.039565"><ele>1464.75</ele></trkpt>
   <trkpt lon="6.992173" lat="46.039521"><ele>1466.0</ele></trkpt>
   <trkpt lon="6.992239" lat="46.039482"><ele>1466.0</ele></trkpt>
   <trkpt lon="6.992339" lat="46.039450"><ele>1466.0</ele></trkpt>
   <trkpt lon="6.992383" lat="46.039421"><ele>1467.5</ele></trkpt>
   <trkpt lon="6.992477" lat="46.039341"><ele>1472.0</ele></trkpt>
   <trkpt lon="6.992535" lat="46.039314"><ele>1473.5</ele></trkpt>
   <trkpt lon="6.992752" lat="46.039257"><ele>1475.25</ele></trkpt>
   <trkpt lon="6.992790" lat="46.039241"><ele>1475.5</ele></trkpt>
   <trkpt lon="6.992825" lat="46.039208"><ele>1475.75</ele></trkpt>
   <trkpt lon="6.992853" lat="46.039159"><ele>1477.0</ele></trkpt>
   <trkpt lon="6.992958" lat="46.039030"><ele>1479.0</ele></trkpt>
   <trkpt lon="6.992958" lat="46.038991"><ele>1481.5</ele></trkpt>
   <trkpt lon="6.992923" lat="46.038960"><ele>1485.25</ele></trkpt>
   <trkpt lon="6.992881" lat="46.038950"><ele>1488.0</ele></trkpt>
   <trkpt lon="6.992834" lat="46.038952"><ele>1490.25</ele></trkpt>
   <trkpt lon="6.992720" lat="46.039001"><ele>1492.5</ele></trkpt>
   <trkpt lon="6.992671" lat="46.039001"><ele>1494.25</ele></trkpt>
   <trkpt lon="6.992643" lat="46.038984"><ele>1496.5</ele></trkpt>
   <trkpt lon="6.992624" lat="46.038962"><ele>1498.75</ele></trkpt>
   <trkpt lon="6.992631" lat="46.038934"><ele>1500.5</ele></trkpt>
   <trkpt lon="6.992672" lat="46.038897"><ele>1501.25</ele></trkpt>
   <trkpt lon="6.992702" lat="46.038857"><ele>1502.0</ele></trkpt>
   <trkpt lon="6.992719" lat="46.038805"><ele>1504.0</ele></trkpt>
   <trkpt lon="6.992714" lat="46.038782"><ele>1505.5</ele></trkpt>
   <trkpt lon="6.992686" lat="46.038764"><ele>1507.5</ele></trkpt>
   <trkpt lon="6.992623" lat="46.038769"><ele>1510.0</ele></trkpt>
   <trkpt lon="6.992527" lat="46.038790"><ele>1513.25</ele></trkpt>
   <trkpt lon="6.992455" lat="46.038821"><ele>1513.75</ele></trkpt>
   <trkpt lon="6.992375" lat="46.038829"><ele>1514.5</ele></trkpt>
   <trkpt lon="6.992168" lat="46.038824"><ele>1517.75</ele></trkpt>
   <trkpt lon="6.992053" lat="46.038836"><ele>1518.5</ele></trkpt>
   <trkpt lon="6.991953" lat="46.038834"><ele>1519.5</ele></trkpt>
   <trkpt lon="6.991936" lat="46.038816"><ele>1520.25</ele></trkpt>
   <trkpt lon="6.991934" lat="46.038794"><ele>1521.0</ele></trkpt>
   <trkpt lon="6.991955" lat="46.038756"><ele>1522.0</ele></trkpt>
   <trkpt lon="6.992032" lat="46.038682"><ele>1524.5</ele></trkpt>
   <trkpt lon="6.992324" lat="46.038453"><ele>1530.5</ele></trkpt>
   <trkpt lon="6.992373" lat="46.038396"><ele>1531.0</ele></trkpt>
   <trkpt lon="6.992380" lat="46.038367"><ele>1531.5</ele></trkpt>
   <trkpt lon="6.992364" lat="46.038327"><ele>1533.0</ele></trkpt>
   <trkpt lon="6.992322" lat="46.038299"><ele>1535.25</ele></trkpt>
   <trkpt lon="6.992219" lat="46.038277"><ele>1539.0</ele></trkpt>
   <trkpt lon="6.992037" lat="46.038286"><ele>1542.25</ele></trkpt>
   <trkpt lon="6.991981" lat="46.038273"><ele>1544.25</ele></trkpt>
   <trkpt lon="6.991962" lat="46.038241"><ele>1546.75</ele></trkpt>
   <trkpt lon="6.991976" lat="46.038199"><ele>1549.25</ele></trkpt>
   <trkpt lon="6.992046" lat="46.038123"><ele>1552.25</ele></trkpt>
   <trkpt lon="6.992053" lat="46.038093"><ele>1554.0</ele></trkpt>
   <trkpt lon="6.992032" lat="46.038072"><ele>1556.0</ele></trkpt>
   <trkpt lon="6.991969" lat="46.038074"><ele>1557.75</ele></trkpt>
   <trkpt lon="6.991668" lat="46.038184"><ele>1560.75</ele></trkpt>
   <trkpt lon="6.991483" lat="46.038220"><ele>1565.0</ele></trkpt>
   <trkpt lon="6.991068" lat="46.038315"><ele>1571.25</ele></trkpt>
   <trkpt lon="6.991007" lat="46.038315"><ele>1574.0</ele></trkpt>
   <trkpt lon="6.990949" lat="46.038302"><ele>1577.5</ele></trkpt>
   <trkpt lon="6.990937" lat="46.038270"><ele>1580.5</ele></trkpt>
   <trkpt lon="6.991325" lat="46.037912"><ele>1596.25</ele></trkpt>
   <trkpt lon="6.991367" lat="46.037884"><ele>1597.25</ele></trkpt>
   <trkpt lon="6.991378" lat="46.037865"><ele>1598.25</ele></trkpt>
   <trkpt lon="6.991378" lat="46.037847"><ele>1599.75</ele></trkpt>
   <trkpt lon="6.991343" lat="46.037836"><ele>1601.75</ele></trkpt>
   <trkpt lon="6.991297" lat="46.037837"><ele>1603.25</ele></trkpt>
   <trkpt lon="6.991045" lat="46.037854"><ele>1609.75</ele></trkpt>
   <trkpt lon="6.990884" lat="46.037884"><ele>1612.25</ele></trkpt>
   <trkpt lon="6.990856" lat="46.037885"><ele>1613.0</ele></trkpt>
   <trkpt lon="6.990835" lat="46.037877"><ele>1614.25</ele></trkpt>
   <trkpt lon="6.990833" lat="46.037853"><ele>1616.25</ele></trkpt>
   <trkpt lon="6.990846" lat="46.037830"><ele>1617.5</ele></trkpt>
   <trkpt lon="6.990948" lat="46.037787"><ele>1617.75</ele></trkpt>
   <trkpt lon="6.990978" lat="46.037767"><ele>1618.5</ele></trkpt>
   <trkpt lon="6.990980" lat="46.037743"><ele>1620.5</ele></trkpt>
   <trkpt lon="6.990962" lat="46.037726"><ele>1622.25</ele></trkpt>
   <trkpt lon="6.990814" lat="46.037718"><ele>1627.0</ele></trkpt>
   <trkpt lon="6.990793" lat="46.037710"><ele>1628.25</ele></trkpt>
   <trkpt lon="6.990791" lat="46.037694"><ele>1629.5</ele></trkpt>
   <trkpt lon="6.990814" lat="46.037668"><ele>1631.0</ele></trkpt>
   <trkpt lon="6.990995" lat="46.037569"><ele>1633.75</ele></trkpt>
   <trkpt lon="6.991062" lat="46.037502"><ele>1637.25</ele></trkpt>
   <trkpt lon="6.991076" lat="46.037473"><ele>1639.0</ele></trkpt>
   <trkpt lon="6.991065" lat="46.037452"><ele>1640.75</ele></trkpt>
   <trkpt lon="6.991025" lat="46.037440"><ele>1643.0</ele></trkpt>
   <trkpt lon="6.990963" lat="46.037438"><ele>1644.75</ele></trkpt>
   <trkpt lon="6.990917" lat="46.037422"><ele>1647.25</ele></trkpt>
   <trkpt lon="6.990906" lat="46.037405"><ele>1649.0</ele></trkpt>
   <trkpt lon="6.990917" lat="46.037379"><ele>1650.5</ele></trkpt>
   <trkpt lon="6.990913" lat="46.037341"><ele>1653.5</ele></trkpt>
   <trkpt lon="6.990897" lat="46.037329"><ele>1655.0</ele></trkpt>
   <trkpt lon="6.990862" lat="46.037318"><ele>1656.75</ele></trkpt>
   <trkpt lon="6.990719" lat="46.037321"><ele>1660.5</ele></trkpt>
   <trkpt lon="6.990586" lat="46.037343"><ele>1662.25</ele></trkpt>
   <trkpt lon="6.990545" lat="46.037343"><ele>1663.0</ele></trkpt>
   <trkpt lon="6.990533" lat="46.037328"><ele>1663.75</ele></trkpt>
   <trkpt lon="6.990563" lat="46.037295"><ele>1666.5</ele></trkpt>
   <trkpt lon="6.990708" lat="46.037233"><ele>1667.25</ele></trkpt>
   <trkpt lon="6.990959" lat="46.037083"><ele>1672.0</ele></trkpt>
   <trkpt lon="6.991048" lat="46.037001"><ele>1675.5</ele></trkpt>
   <trkpt lon="6.991067" lat="46.036962"><ele>1678.0</ele></trkpt>
   <trkpt lon="6.991062" lat="46.036938"><ele>1680.0</ele></trkpt>
   <trkpt lon="6.991021" lat="46.036922"><ele>1682.75</ele></trkpt>
   <trkpt lon="6.990890" lat="46.036919"><ele>1687.25</ele></trkpt>
   <trkpt lon="6.990666" lat="46.036926"><ele>1693.25</ele></trkpt>
   <trkpt lon="6.990627" lat="46.036918"><ele>1695.0</ele></trkpt>
   <trkpt lon="6.990609" lat="46.036892"><ele>1697.5</ele></trkpt>
   <trkpt lon="6.990630" lat="46.036862"><ele>1699.25</ele></trkpt>
   <trkpt lon="6.990828" lat="46.036750"><ele>1703.0</ele></trkpt>
   <trkpt lon="6.990974" lat="46.036682"><ele>1705.5</ele></trkpt>
   <trkpt lon="6.991073" lat="46.036646"><ele>1706.25</ele></trkpt>
   <trkpt lon="6.991101" lat="46.036621"><ele>1707.5</ele></trkpt>
   <trkpt lon="6.991113" lat="46.036582"><ele>1710.25</ele></trkpt>
   <trkpt lon="6.991101" lat="46.036559"><ele>1712.25</ele></trkpt>
   <trkpt lon="6.991057" lat="46.036544"><ele>1714.5</ele></trkpt>
   <trkpt lon="6.990897" lat="46.036539"><ele>1718.75</ele></trkpt>
   <trkpt lon="6.990638" lat="46.036548"><ele>1725.25</ele></trkpt>
   <trkpt lon="6.990490" lat="46.036537"><ele>1730.0</ele></trkpt>
   <trkpt lon="6.990062" lat="46.036559"><ele>1734.0</ele></trkpt>
   <trkpt lon="6.989957" lat="46.036548"><ele>1734.0</ele></trkpt>
   <trkpt lon="6.989908" lat="46.036529"><ele>1734.0</ele></trkpt>
   <trkpt lon="6.989868" lat="46.036499"><ele>1735.5</ele></trkpt>
   <trkpt lon="6.989856" lat="46.036464"><ele>1739.0</ele></trkpt>
   <trkpt lon="6.989874" lat="46.036434"><ele>1742.5</ele></trkpt>
   <trkpt lon="6.989973" lat="46.036411"><ele>1747.25</ele></trkpt>
   <trkpt lon="6.990210" lat="46.036334"><ele>1753.25</ele></trkpt>
   <trkpt lon="6.990256" lat="46.036323"><ele>1754.0</ele></trkpt>
   <trkpt lon="6.990333" lat="46.036315"><ele>1753.25</ele></trkpt>
   <trkpt lon="6.990373" lat="46.036302"><ele>1753.5</ele></trkpt>
   <trkpt lon="6.990389" lat="46.036280"><ele>1755.0</ele></trkpt>
   <trkpt lon="6.990358" lat="46.036253"><ele>1758.25</ele></trkpt>
   <trkpt lon="6.990222" lat="46.036208"><ele>1764.25</ele></trkpt>
   <trkpt lon="6.990171" lat="46.036197"><ele>1765.0</ele></trkpt>
   <trkpt lon="6.990160" lat="46.036179"><ele>1766.75</ele></trkpt>
   <trkpt lon="6.990169" lat="46.036150"><ele>1769.25</ele></trkpt>
   <trkpt lon="6.990347" lat="46.036105"><ele>1771.75</ele></trkpt>
   <trkpt lon="6.990592" lat="46.035975"><ele>1776.25</ele></trkpt>
   <trkpt lon="6.990695" lat="46.035861"><ele>1783.25</ele></trkpt>
   <trkpt lon="6.990755" lat="46.035821"><ele>1784.75</ele></trkpt>
   <trkpt lon="6.990855" lat="46.035786"><ele>1784.5</ele></trkpt>
   <trkpt lon="6.990914" lat="46.035757"><ele>1785.0</ele></trkpt>
   <trkpt lon="6.990933" lat="46.035732"><ele>1786.25</ele></trkpt>
   <trkpt lon="6.990935" lat="46.035700"><ele>1788.5</ele></trkpt>
   <trkpt lon="6.990919" lat="46.035664"><ele>1791.25</ele></trkpt>
   <trkpt lon="6.990860" lat="46.035635"><ele>1794.75</ele></trkpt>
   <trkpt lon="6.990795" lat="46.035630"><ele>1796.75</ele></trkpt>
   <trkpt lon="6.990596" lat="46.035643"><ele>1800.75</ele></trkpt>
   <trkpt lon="6.990344" lat="46.035682"><ele>1805.25</ele></trkpt>
   <trkpt lon="6.990237" lat="46.035687"><ele>1807.0</ele></trkpt>
   <trkpt lon="6.990192" lat="46.035679"><ele>1807.5</ele></trkpt>
   <trkpt lon="6.990171" lat="46.035663"><ele>1808.75</ele></trkpt>
   <trkpt lon="6.990171" lat="46.035637"><ele>1810.25</ele></trkpt>
   <trkpt lon="6.990239" lat="46.035546"><ele>1815.0</ele></trkpt>
   <trkpt lon="6.990269" lat="46.035518"><ele>1816.25</ele></trkpt>
   <trkpt lon="6.990272" lat="46.035497"><ele>1817.25</ele></trkpt>
   <trkpt lon="6.990265" lat="46.035481"><ele>1818.5</ele></trkpt>
   <trkpt lon="6.990209" lat="46.035463"><ele>1820.5</ele></trkpt>
   <trkpt lon="6.989964" lat="46.035478"><ele>1823.75</ele></trkpt>
   <trkpt lon="6.989870" lat="46.035476"><ele>1823.75</ele></trkpt>
   <trkpt lon="6.989669" lat="46.035436"><ele>1825.5</ele></trkpt>
   <trkpt lon="6.989335" lat="46.035317"><ele>1829.0</ele></trkpt>
   <trkpt lon="6.989144" lat="46.035225"><ele>1832.5</ele></trkpt>
   <trkpt lon="6.989053" lat="46.035201"><ele>1833.5</ele></trkpt>
   <trkpt lon="6.988987" lat="46.035196"><ele>1833.0</ele></trkpt>
   <trkpt lon="6.988899" lat="46.035162"><ele>1834.25</ele></trkpt>
   <trkpt lon="6.988740" lat="46.035072"><ele>1836.0</ele></trkpt>
   <trkpt lon="6.988618" lat="46.035024"><ele>1836.0</ele></trkpt>
   <trkpt lon="6.988433" lat="46.034912"><ele>1841.0</ele></trkpt>
   <trkpt lon="6.988274" lat="46.034762"><ele>1846.0</ele></trkpt>
   <trkpt lon="6.987671" lat="46.034291"><ele>1858.25</ele></trkpt>
   <trkpt lon="6.986871" lat="46.033615"><ele>1876.25</ele></trkpt>
   <trkpt lon="6.986650" lat="46.033486"><ele>1879.25</ele></trkpt>
   <trkpt lon="6.986583" lat="46.033348"><ele>1885.0</ele></trkpt>
   <trkpt lon="6.986174" lat="46.032994"><ele>1894.0</ele></trkpt>
   <trkpt lon="6.986007" lat="46.032906"><ele>1895.75</ele></trkpt>
   <trkpt lon="6.985856" lat="46.032781"><ele>1900.0</ele></trkpt>
   <trkpt lon="6.985528" lat="46.032512"><ele>1905.25</ele></trkpt>
   <trkpt lon="6.985356" lat="46.032429"><ele>1908.75</ele></trkpt>
   <trkpt lon="6.985239" lat="46.032381"><ele>1909.75</ele></trkpt>
   <trkpt lon="6.984948" lat="46.032162"><ele>1916.5</ele></trkpt>
   <trkpt lon="6.984901" lat="46.032089"><ele>1919.5</ele></trkpt>
   <trkpt lon="6.984636" lat="46.032113"><ele>1917.5</ele></trkpt>
   <trkpt lon="6.984506" lat="46.032044"><ele>1919.0</ele></trkpt>
   <trkpt lon="6.984333" lat="46.031899"><ele>1923.25</ele></trkpt>
   <trkpt lon="6.984211" lat="46.031878"><ele>1922.25</ele></trkpt>
   <trkpt lon="6.984118" lat="46.031814"><ele>1923.75</ele></trkpt>
   <trkpt lon="6.984012" lat="46.031779"><ele>1923.75</ele></trkpt>
   <trkpt lon="6.983861" lat="46.031661"><ele>1927.0</ele></trkpt>
   <trkpt lon="6.983577" lat="46.031509"><ele>1931.25</ele></trkpt>
   <trkpt lon="6.983253" lat="46.031455"><ele>1935.0</ele></trkpt>
   <trkpt lon="6.983084" lat="46.031402"><ele>1938.0</ele></trkpt>
   <trkpt lon="6.982791" lat="46.031344"><ele>1942.0</ele></trkpt>
   <trkpt lon="6.982575" lat="46.031249"><ele>1945.5</ele></trkpt>
   <trkpt lon="6.982462" lat="46.031141"><ele>1949.0</ele></trkpt>
   <trkpt lon="6.982309" lat="46.031050"><ele>1951.75</ele></trkpt>
   <trkpt lon="6.982109" lat="46.030988"><ele>1954.5</ele></trkpt>
   <trkpt lon="6.981939" lat="46.030987"><ele>1955.0</ele></trkpt>
   <trkpt lon="6.981626" lat="46.030884"><ele>1959.5</ele></trkpt>
   <trkpt lon="6.981373" lat="46.030753"><ele>1963.75</ele></trkpt>
   <trkpt lon="6.981084" lat="46.030743"><ele>1966.5</ele></trkpt>
   <trkpt lon="6.980588" lat="46.030636"><ele>1973.75</ele></trkpt>
   <trkpt lon="6.980352" lat="46.030656"><ele>1975.0</ele></trkpt>
   <trkpt lon="6.980042" lat="46.030614"><ele>1981.0</ele></trkpt>
   <trkpt lon="6.979822" lat="46.030652"><ele>1981.25</ele></trkpt>
   <trkpt lon="6.978731" lat="46.030434"><ele>1997.5</ele></trkpt>
   <trkpt lon="6.978615" lat="46.030447"><ele>1998.0</ele></trkpt>
   <trkpt lon="6.978543" lat="46.030469"><ele>1999.0</ele></trkpt>
   <trkpt lon="6.978334" lat="46.030601"><ele>2000.25</ele></trkpt>
   <trkpt lon="6.978238" lat="46.030617"><ele>2002.0</ele></trkpt>
   <trkpt lon="6.978175" lat="46.030618"><ele>2003.25</ele></trkpt>
   <trkpt lon="6.977982" lat="46.030679"><ele>2005.25</ele></trkpt>
   <trkpt lon="6.977551" lat="46.030764"><ele>2008.75</ele></trkpt>
   <trkpt lon="6.977350" lat="46.030745"><ele>2009.5</ele></trkpt>
   <trkpt lon="6.977141" lat="46.030695"><ele>2010.25</ele></trkpt>
   <trkpt lon="6.976902" lat="46.030524"><ele>2018.5</ele></trkpt>
   <trkpt lon="6.976777" lat="46.030412"><ele>2021.0</ele></trkpt>
   <trkpt lon="6.976670" lat="46.030233"><ele>2027.0</ele></trkpt>
   <trkpt lon="6.976609" lat="46.030156"><ele>2029.75</ele></trkpt>
   <trkpt lon="6.976478" lat="46.030060"><ele>2033.0</ele></trkpt>
   <trkpt lon="6.976649" lat="46.030063"><ele>2034.75</ele></trkpt>
   <trkpt lon="6.976416" lat="46.029899"><ele>2040.0</ele></trkpt>
   <trkpt lon="6.976590" lat="46.029885"><ele>2041.0</ele></trkpt>
   <trkpt lon="6.976614" lat="46.029849"><ele>2042.25</ele></trkpt>
   <trkpt lon="6.976508" lat="46.029805"><ele>2044.25</ele></trkpt>
   <trkpt lon="6.976339" lat="46.029758"><ele>2046.75</ele></trkpt>
   <trkpt lon="6.976229" lat="46.029728"><ele>2048.0</ele></trkpt>
   <trkpt lon="6.975881" lat="46.029572"><ele>2052.0</ele></trkpt>
   <trkpt lon="6.975727" lat="46.029445"><ele>2057.0</ele></trkpt>
   <trkpt lon="6.975716" lat="46.029406"><ele>2058.25</ele></trkpt>
   <trkpt lon="6.975747" lat="46.029397"><ele>2059.25</ele></trkpt>
   <trkpt lon="6.975883" lat="46.029418"><ele>2060.0</ele></trkpt>
   <trkpt lon="6.975994" lat="46.029402"><ele>2061.0</ele></trkpt>
   <trkpt lon="6.976184" lat="46.029392"><ele>2061.75</ele></trkpt>
   <trkpt lon="6.976221" lat="46.029364"><ele>2063.0</ele></trkpt>
   <trkpt lon="6.976188" lat="46.029341"><ele>2063.75</ele></trkpt>
   <trkpt lon="6.976093" lat="46.029319"><ele>2064.0</ele></trkpt>
   <trkpt lon="6.975724" lat="46.029144"><ele>2069.0</ele></trkpt>
   <trkpt lon="6.975527" lat="46.029006"><ele>2071.25</ele></trkpt>
   <trkpt lon="6.975535" lat="46.028963"><ele>2073.0</ele></trkpt>
   <trkpt lon="6.975582" lat="46.028946"><ele>2074.0</ele></trkpt>
   <trkpt lon="6.975763" lat="46.028942"><ele>2075.75</ele></trkpt>
   <trkpt lon="6.975886" lat="46.028904"><ele>2078.25</ele></trkpt>
   <trkpt lon="6.976192" lat="46.028929"><ele>2081.25</ele></trkpt>
   <trkpt lon="6.976474" lat="46.028988"><ele>2081.0</ele></trkpt>
   <trkpt lon="6.976540" lat="46.028977"><ele>2080.75</ele></trkpt>
   <trkpt lon="6.976526" lat="46.028948"><ele>2081.75</ele></trkpt>
   <trkpt lon="6.976394" lat="46.028882"><ele>2086.0</ele></trkpt>
   <trkpt lon="6.976298" lat="46.028788"><ele>2087.0</ele></trkpt>
   <trkpt lon="6.975850" lat="46.028568"><ele>2096.0</ele></trkpt>
   <trkpt lon="6.975837" lat="46.028554"><ele>2096.5</ele></trkpt>
   <trkpt lon="6.975844" lat="46.028546"><ele>2097.0</ele></trkpt>
   <trkpt lon="6.975862" lat="46.028546"><ele>2097.0</ele></trkpt>
   <trkpt lon="6.975933" lat="46.028561"><ele>2096.25</ele></trkpt>
   <trkpt lon="6.976033" lat="46.028560"><ele>2096.5</ele></trkpt>
   <trkpt lon="6.976096" lat="46.028535"><ele>2097.25</ele></trkpt>
   <trkpt lon="6.976257" lat="46.028322"><ele>2102.75</ele></trkpt>
   <trkpt lon="6.976269" lat="46.028287"><ele>2103.75</ele></trkpt>
   <trkpt lon="6.976261" lat="46.028272"><ele>2104.25</ele></trkpt>
   <trkpt lon="6.976239" lat="46.028266"><ele>2104.75</ele></trkpt>
   <trkpt lon="6.976201" lat="46.028282"><ele>2104.75</ele></trkpt>
   <trkpt lon="6.976129" lat="46.028345"><ele>2103.25</ele></trkpt>
   <trkpt lon="6.976031" lat="46.028366"><ele>2103.5</ele></trkpt>
   <trkpt lon="6.975945" lat="46.028371"><ele>2104.0</ele></trkpt>
   <trkpt lon="6.975760" lat="46.028302"><ele>2108.5</ele></trkpt>
   <trkpt lon="6.975204" lat="46.028178"><ele>2115.25</ele></trkpt>
   <trkpt lon="6.974953" lat="46.028081"><ele>2119.5</ele></trkpt>
   <trkpt lon="6.974712" lat="46.028030"><ele>2122.25</ele></trkpt>
   <trkpt lon="6.974492" lat="46.027866"><ele>2127.0</ele></trkpt>
   <trkpt lon="6.974341" lat="46.027817"><ele>2128.25</ele></trkpt>
   <trkpt lon="6.974325" lat="46.027799"><ele>2129.0</ele></trkpt>
   <trkpt lon="6.974352" lat="46.027786"><ele>2129.75</ele></trkpt>
   <trkpt lon="6.974622" lat="46.027802"><ele>2133.25</ele></trkpt>
   <trkpt lon="6.974747" lat="46.027850"><ele>2133.0</ele></trkpt>
   <trkpt lon="6.974828" lat="46.027840"><ele>2134.75</ele></trkpt>
   <trkpt lon="6.974603" lat="46.027709"><ele>2139.0</ele></trkpt>
   <trkpt lon="6.974210" lat="46.027506"><ele>2145.5</ele></trkpt>
   <trkpt lon="6.973798" lat="46.027426"><ele>2149.25</ele></trkpt>
   <trkpt lon="6.973663" lat="46.027361"><ele>2151.5</ele></trkpt>
   <trkpt lon="6.973065" lat="46.027277"><ele>2158.25</ele></trkpt>
   <trkpt lon="6.972705" lat="46.027152"><ele>2161.5</ele></trkpt>
   <trkpt lon="6.972464" lat="46.027175"><ele>2161.75</ele></trkpt>
   <trkpt lon="6.972337" lat="46.027133"><ele>2164.75</ele></trkpt>
   <trkpt lon="6.972289" lat="46.027167"><ele>2165.0</ele></trkpt>
   <trkpt lon="6.972279" lat="46.027250"><ele>2163.75</ele></trkpt>
   <trkpt lon="6.972169" lat="46.027363"><ele>2166.0</ele></trkpt>
   <trkpt lon="6.972076" lat="46.027445"><ele>2168.0</ele></trkpt>
   <trkpt lon="6.972058" lat="46.027454"><ele>2168.5</ele></trkpt>
   <trkpt lon="6.972036" lat="46.027455"><ele>2169.0</ele></trkpt>
   <trkpt lon="6.972011" lat="46.027447"><ele>2169.5</ele></trkpt>
   <trkpt lon="6.971964" lat="46.027406"><ele>2170.5</ele></trkpt>
   <trkpt lon="6.971927" lat="46.027350"><ele>2171.25</ele></trkpt>
   <trkpt lon="6.971887" lat="46.027330"><ele>2172.25</ele></trkpt>
   <trkpt lon="6.971867" lat="46.027330"><ele>2172.75</ele></trkpt>
   <trkpt lon="6.971842" lat="46.027338"><ele>2173.25</ele></trkpt>
   <trkpt lon="6.971802" lat="46.027393"><ele>2174.25</ele></trkpt>
   <trkpt lon="6.971691" lat="46.027516"><ele>2176.25</ele></trkpt>
   <trkpt lon="6.971609" lat="46.027573"><ele>2177.5</ele></trkpt>
   <trkpt lon="6.971566" lat="46.027595"><ele>2179.5</ele></trkpt>
   <trkpt lon="6.971484" lat="46.027638"><ele>2179.5</ele></trkpt>
   <trkpt lon="6.971371" lat="46.027683"><ele>2181.25</ele></trkpt>
   <trkpt lon="6.971296" lat="46.027692"><ele>2182.5</ele></trkpt>
   <trkpt lon="6.971245" lat="46.027681"><ele>2183.5</ele></trkpt>
   <trkpt lon="6.971229" lat="46.027666"><ele>2184.0</ele></trkpt>
   <trkpt lon="6.971194" lat="46.027548"><ele>2187.0</ele></trkpt>
   <trkpt lon="6.971160" lat="46.027511"><ele>2188.5</ele></trkpt>
   <trkpt lon="6.971139" lat="46.027502"><ele>2189.25</ele></trkpt>
   <trkpt lon="6.971092" lat="46.027504"><ele>2190.0</ele></trkpt>
   <trkpt lon="6.971007" lat="46.027553"><ele>2189.5</ele></trkpt>
   <trkpt lon="6.970975" lat="46.027564"><ele>2189.5</ele></trkpt>
   <trkpt lon="6.970926" lat="46.027568"><ele>2189.75</ele></trkpt>
   <trkpt lon="6.970900" lat="46.027563"><ele>2190.0</ele></trkpt>
   <trkpt lon="6.970865" lat="46.027530"><ele>2191.5</ele></trkpt>
   <trkpt lon="6.970852" lat="46.027481"><ele>2192.75</ele></trkpt>
   <trkpt lon="6.970856" lat="46.027421"><ele>2193.5</ele></trkpt>
   <trkpt lon="6.970813" lat="46.027365"><ele>2194.5</ele></trkpt>
   <trkpt lon="6.970736" lat="46.027307"><ele>2196.5</ele></trkpt>
   <trkpt lon="6.970567" lat="46.027295"><ele>2199.5</ele></trkpt>
   <trkpt lon="6.970487" lat="46.027153"><ele>2201.75</ele></trkpt>
   <trkpt lon="6.970356" lat="46.027018"><ele>2203.5</ele></trkpt>
   <trkpt lon="6.970268" lat="46.026916"><ele>2204.75</ele></trkpt>
   <trkpt lon="6.970242" lat="46.026852"><ele>2205.0</ele></trkpt>
   <trkpt lon="6.970238" lat="46.026799"><ele>2204.75</ele></trkpt>
   <trkpt lon="6.970280" lat="46.026692"><ele>2204.0</ele></trkpt>
   <trkpt lon="6.970205" lat="46.026455"><ele>2202.5</ele></trkpt>
   <trkpt lon="6.970177" lat="46.026357"><ele>2201.75</ele></trkpt>
   <trkpt lon="6.970153" lat="46.026111"><ele>2199.75</ele></trkpt>
   <trkpt lon="6.970148" lat="46.026071"><ele>2199.5</ele></trkpt>
   <trkpt lon="6.970140" lat="46.025807"><ele>2198.25</ele></trkpt>
   <trkpt lon="6.970169" lat="46.025554"><ele>2198.0</ele></trkpt>
   <trkpt lon="6.970013" lat="46.025177"><ele>2189.0</ele></trkpt>
   <trkpt lon="6.969974" lat="46.025135"><ele>2187.0</ele></trkpt>
   <trkpt lon="6.969680" lat="46.025006"><ele>2177.0</ele></trkpt>
   <trkpt lon="6.969610" lat="46.024931"><ele>2173.5</ele></trkpt>
   <trkpt lon="6.969625" lat="46.024687"><ele>2168.5</ele></trkpt>
   <trkpt lon="6.969690" lat="46.024341"><ele>2164.75</ele></trkpt>
   <trkpt lon="6.969658" lat="46.024308"><ele>2164.0</ele></trkpt>
   <trkpt lon="6.969554" lat="46.024142"><ele>2161.25</ele></trkpt>
   <trkpt lon="6.969481" lat="46.023995"><ele>2158.75</ele></trkpt>
   <trkpt lon="6.969455" lat="46.023909"><ele>2157.25</ele></trkpt>
   <trkpt lon="6.969438" lat="46.023757"><ele>2156.25</ele></trkpt>
   <trkpt lon="6.969396" lat="46.023692"><ele>2155.25</ele></trkpt>
   <trkpt lon="6.969273" lat="46.023585"><ele>2153.0</ele></trkpt>
   <trkpt lon="6.969149" lat="46.023495"><ele>2151.0</ele></trkpt>
   <trkpt lon="6.969028" lat="46.023442"><ele>2149.75</ele></trkpt>
   <trkpt lon="6.968971" lat="46.023428"><ele>2149.0</ele></trkpt>
   <trkpt lon="6.968910" lat="46.023425"><ele>2148.25</ele></trkpt>
   <trkpt lon="6.968854" lat="46.023435"><ele>2147.25</ele></trkpt>
   <trkpt lon="6.968787" lat="46.023461"><ele>2146.25</ele></trkpt>
   <trkpt lon="6.968616" lat="46.023586"><ele>2143.75</ele></trkpt>
   <trkpt lon="6.968531" lat="46.023660"><ele>2142.25</ele></trkpt>
   <trkpt lon="6.968347" lat="46.023848"><ele>2138.25</ele></trkpt>
   <trkpt lon="6.968304" lat="46.023902"><ele>2137.25</ele></trkpt>
   <trkpt lon="6.968237" lat="46.024011"><ele>2135.5</ele></trkpt>
   <trkpt lon="6.968175" lat="46.024142"><ele>2134.0</ele></trkpt>
   <trkpt lon="6.968160" lat="46.024192"><ele>2133.5</ele></trkpt>
   <trkpt lon="6.968076" lat="46.024112"><ele>2131.5</ele></trkpt>
   <trkpt lon="6.968027" lat="46.024047"><ele>2130.0</ele></trkpt>
   <trkpt lon="6.968015" lat="46.023993"><ele>2129.75</ele></trkpt>
   <trkpt lon="6.967975" lat="46.023951"><ele>2128.75</ele></trkpt>
   <trkpt lon="6.967933" lat="46.023876"><ele>2127.75</ele></trkpt>
   <trkpt lon="6.967840" lat="46.023842"><ele>2125.75</ele></trkpt>
   <trkpt lon="6.967719" lat="46.023759"><ele>2123.0</ele></trkpt>
   <trkpt lon="6.967586" lat="46.023694"><ele>2119.5</ele></trkpt>
   <trkpt lon="6.967475" lat="46.023613"><ele>2117.0</ele></trkpt>
   <trkpt lon="6.967353" lat="46.023547"><ele>2113.75</ele></trkpt>
   <trkpt lon="6.967337" lat="46.023532"><ele>2113.25</ele></trkpt>
   <trkpt lon="6.967329" lat="46.023493"><ele>2113.5</ele></trkpt>
   <trkpt lon="6.967298" lat="46.023428"><ele>2113.25</ele></trkpt>
   <trkpt lon="6.967294" lat="46.023391"><ele>2113.25</ele></trkpt>
   <trkpt lon="6.967266" lat="46.023345"><ele>2113.0</ele></trkpt>
   <trkpt lon="6.967245" lat="46.023317"><ele>2112.5</ele></trkpt>
   <trkpt lon="6.967198" lat="46.023281"><ele>2110.75</ele></trkpt>
   <trkpt lon="6.967185" lat="46.023250"><ele>2110.25</ele></trkpt>
   <trkpt lon="6.967117" lat="46.023196"><ele>2108.0</ele></trkpt>
   <trkpt lon="6.967063" lat="46.023095"><ele>2106.25</ele></trkpt>
   <trkpt lon="6.966996" lat="46.023043"><ele>2104.25</ele></trkpt>
   <trkpt lon="6.966948" lat="46.022926"><ele>2102.0</ele></trkpt>
   <trkpt lon="6.966951" lat="46.022859"><ele>2101.75</ele></trkpt>
   <trkpt lon="6.966943" lat="46.022846"><ele>2101.25</ele></trkpt>
   <trkpt lon="6.966927" lat="46.022841"><ele>2100.75</ele></trkpt>
   <trkpt lon="6.966908" lat="46.022844"><ele>2100.25</ele></trkpt>
   <trkpt lon="6.966871" lat="46.022878"><ele>2099.5</ele></trkpt>
   <trkpt lon="6.966779" lat="46.023017"><ele>2097.25</ele></trkpt>
   <trkpt lon="6.966735" lat="46.023060"><ele>2096.0</ele></trkpt>
   <trkpt lon="6.966728" lat="46.023115"><ele>2095.25</ele></trkpt>
   <trkpt lon="6.966711" lat="46.023119"><ele>2094.75</ele></trkpt>
   <trkpt lon="6.966705" lat="46.023265"><ele>2093.0</ele></trkpt>
   <trkpt lon="6.966405" lat="46.023049"><ele>2084.5</ele></trkpt>
   <trkpt lon="6.966351" lat="46.022953"><ele>2083.25</ele></trkpt>
   <trkpt lon="6.966201" lat="46.022893"><ele>2079.0</ele></trkpt>
   <trkpt lon="6.966043" lat="46.022807"><ele>2075.0</ele></trkpt>
   <trkpt lon="6.965828" lat="46.023008"><ele>2069.75</ele></trkpt>
   <trkpt lon="6.965525" lat="46.022841"><ele>2063.25</ele></trkpt>
   <trkpt lon="6.965450" lat="46.022774"><ele>2061.5</ele></trkpt>
   <trkpt lon="6.965332" lat="46.022822"><ele>2059.0</ele></trkpt>
   <trkpt lon="6.965235" lat="46.022889"><ele>2057.0</ele></trkpt>
   <trkpt lon="6.965203" lat="46.023005"><ele>2056.25</ele></trkpt>
   <trkpt lon="6.965026" lat="46.022975"><ele>2052.75</ele></trkpt>
   <trkpt lon="6.964613" lat="46.022833"><ele>2044.5</ele></trkpt>
   <trkpt lon="6.964463" lat="46.022796"><ele>2041.25</ele></trkpt>
   <trkpt lon="6.964399" lat="46.022737"><ele>2040.25</ele></trkpt>
   <trkpt lon="6.964018" lat="46.022632"><ele>2032.75</ele></trkpt>
   <trkpt lon="6.963540" lat="46.022535"><ele>2023.25</ele></trkpt>
   <trkpt lon="6.963395" lat="46.022416"><ele>2020.5</ele></trkpt>
   <trkpt lon="6.963235" lat="46.022379"><ele>2018.0</ele></trkpt>
   <trkpt lon="6.963170" lat="46.022308"><ele>2016.5</ele></trkpt>
   <trkpt lon="6.963127" lat="46.022229"><ele>2015.25</ele></trkpt>
   <trkpt lon="6.963047" lat="46.022127"><ele>2013.75</ele></trkpt>
   <trkpt lon="6.962970" lat="46.022114"><ele>2012.25</ele></trkpt>
   <trkpt lon="6.962854" lat="46.022021"><ele>2010.25</ele></trkpt>
   <trkpt lon="6.962741" lat="46.021910"><ele>2008.25</ele></trkpt>
   <trkpt lon="6.962424" lat="46.021701"><ele>2002.75</ele></trkpt>
   <trkpt lon="6.962103" lat="46.021280"><ele>1994.25</ele></trkpt>
   <trkpt lon="6.961991" lat="46.021193"><ele>1990.0</ele></trkpt>
   <trkpt lon="6.961931" lat="46.021146"><ele>1990.0</ele></trkpt>
   <trkpt lon="6.961893" lat="46.021019"><ele>1989.0</ele></trkpt>
   <trkpt lon="6.961824" lat="46.020971"><ele>1987.5</ele></trkpt>
   <trkpt lon="6.961775" lat="46.020807"><ele>1986.25</ele></trkpt>
   <trkpt lon="6.961325" lat="46.020509"><ele>1977.25</ele></trkpt>
   <trkpt lon="6.961116" lat="46.020323"><ele>1973.25</ele></trkpt>
   <trkpt lon="6.961073" lat="46.020222"><ele>1972.5</ele></trkpt>
   <trkpt lon="6.960998" lat="46.020218"><ele>1971.25</ele></trkpt>
   <trkpt lon="6.960332" lat="46.019809"><ele>1961.75</ele></trkpt>
   <trkpt lon="6.960236" lat="46.019727"><ele>1960.0</ele></trkpt>
   <trkpt lon="6.960107" lat="46.019667"><ele>1958.0</ele></trkpt>
   <trkpt lon="6.960096" lat="46.019578"><ele>1958.25</ele></trkpt>
   <trkpt lon="6.959914" lat="46.019399"><ele>1955.75</ele></trkpt>
   <trkpt lon="6.959474" lat="46.019049"><ele>1949.0</ele></trkpt>
   <trkpt lon="6.959088" lat="46.018632"><ele>1942.5</ele></trkpt>
   <trkpt lon="6.958734" lat="46.018311"><ele>1935.0</ele></trkpt>
   <trkpt lon="6.958423" lat="46.017886"><ele>1927.5</ele></trkpt>
   <trkpt lon="6.958185" lat="46.017429"><ele>1918.75</ele></trkpt>
   <trkpt lon="6.958045" lat="46.017311"><ele>1914.5</ele></trkpt>
   <trkpt lon="6.957972" lat="46.017238"><ele>1912.25</ele></trkpt>
   <trkpt lon="6.957875" lat="46.017165"><ele>1908.75</ele></trkpt>
   <trkpt lon="6.957639" lat="46.016903"><ele>1900.5</ele></trkpt>
   <trkpt lon="6.957661" lat="46.016814"><ele>1898.0</ele></trkpt>
   <trkpt lon="6.957609" lat="46.016780"><ele>1896.5</ele></trkpt>
   <trkpt lon="6.957522" lat="46.016677"><ele>1893.25</ele></trkpt>
   <trkpt lon="6.957472" lat="46.016647"><ele>1892.0</ele></trkpt>
   <trkpt lon="6.957421" lat="46.016633"><ele>1891.0</ele></trkpt>
   <trkpt lon="6.957296" lat="46.016628"><ele>1889.25</ele></trkpt>
   <trkpt lon="6.957269" lat="46.016621"><ele>1888.75</ele></trkpt>
   <trkpt lon="6.957261" lat="46.016608"><ele>1888.25</ele></trkpt>
   <trkpt lon="6.957270" lat="46.016594"><ele>1888.25</ele></trkpt>
   <trkpt lon="6.957389" lat="46.016541"><ele>1888.5</ele></trkpt>
   <trkpt lon="6.957507" lat="46.016498"><ele>1888.75</ele></trkpt>
   <trkpt lon="6.957525" lat="46.016421"><ele>1887.0</ele></trkpt>
   <trkpt lon="6.957526" lat="46.016359"><ele>1886.25</ele></trkpt>
   <trkpt lon="6.957556" lat="46.016296"><ele>1886.75</ele></trkpt>
   <trkpt lon="6.957549" lat="46.016036"><ele>1886.5</ele></trkpt>
   <trkpt lon="6.957532" lat="46.015983"><ele>1886.0</ele></trkpt>
   <trkpt lon="6.957462" lat="46.015897"><ele>1884.5</ele></trkpt>
   <trkpt lon="6.957424" lat="46.015825"><ele>1883.75</ele></trkpt>
   <trkpt lon="6.957391" lat="46.015707"><ele>1882.75</ele></trkpt>
   <trkpt lon="6.957403" lat="46.015600"><ele>1882.75</ele></trkpt>
   <trkpt lon="6.957403" lat="46.015429"><ele>1881.5</ele></trkpt>
   <trkpt lon="6.957381" lat="46.015240"><ele>1880.0</ele></trkpt>
   <trkpt lon="6.957386" lat="46.015217"><ele>1880.0</ele></trkpt>
   <trkpt lon="6.957404" lat="46.015201"><ele>1880.0</ele></trkpt>
   <trkpt lon="6.957412" lat="46.015180"><ele>1880.25</ele></trkpt>
   <trkpt lon="6.957396" lat="46.015057"><ele>1879.25</ele></trkpt>
   <trkpt lon="6.957360" lat="46.014971"><ele>1878.25</ele></trkpt>
   <trkpt lon="6.957345" lat="46.014835"><ele>1877.75</ele></trkpt>
   <trkpt lon="6.957369" lat="46.014744"><ele>1878.0</ele></trkpt>
   <trkpt lon="6.957419" lat="46.014716"><ele>1879.25</ele></trkpt>
   <trkpt lon="6.957478" lat="46.014670"><ele>1880.5</ele></trkpt>
   <trkpt lon="6.957536" lat="46.014607"><ele>1882.0</ele></trkpt>
   <trkpt lon="6.957567" lat="46.014537"><ele>1882.75</ele></trkpt>
   <trkpt lon="6.957501" lat="46.014475"><ele>1881.75</ele></trkpt>
   <trkpt lon="6.957468" lat="46.014403"><ele>1881.25</ele></trkpt>
   <trkpt lon="6.957376" lat="46.014273"><ele>1879.25</ele></trkpt>
   <trkpt lon="6.957330" lat="46.014176"><ele>1878.25</ele></trkpt>
   <trkpt lon="6.957317" lat="46.014117"><ele>1878.0</ele></trkpt>
   <trkpt lon="6.957267" lat="46.014004"><ele>1877.5</ele></trkpt>
   <trkpt lon="6.957194" lat="46.013920"><ele>1876.0</ele></trkpt>
   <trkpt lon="6.957107" lat="46.013789"><ele>1874.0</ele></trkpt>
   <trkpt lon="6.956991" lat="46.013647"><ele>1871.75</ele></trkpt>
   <trkpt lon="6.956895" lat="46.013567"><ele>1870.0</ele></trkpt>
   <trkpt lon="6.956838" lat="46.013509"><ele>1869.25</ele></trkpt>
   <trkpt lon="6.956820" lat="46.013476"><ele>1869.0</ele></trkpt>
   <trkpt lon="6.956776" lat="46.013339"><ele>1868.25</ele></trkpt>
   <trkpt lon="6.956933" lat="46.013261"><ele>1872.0</ele></trkpt>
   <trkpt lon="6.957022" lat="46.013239"><ele>1874.25</ele></trkpt>
   <trkpt lon="6.957038" lat="46.013223"><ele>1875.0</ele></trkpt>
   <trkpt lon="6.957043" lat="46.013204"><ele>1875.25</ele></trkpt>
   <trkpt lon="6.957072" lat="46.013193"><ele>1876.0</ele></trkpt>
   <trkpt lon="6.957093" lat="46.013251"><ele>1876.25</ele></trkpt>
   <trkpt lon="6.957135" lat="46.013313"><ele>1876.75</ele></trkpt>
   <trkpt lon="6.957167" lat="46.013313"><ele>1877.75</ele></trkpt>
   <trkpt lon="6.957181" lat="46.013298"><ele>1878.25</ele></trkpt>
   <trkpt lon="6.957190" lat="46.013268"><ele>1878.75</ele></trkpt>
   <trkpt lon="6.957229" lat="46.013205"><ele>1880.5</ele></trkpt>
   <trkpt lon="6.957253" lat="46.013134"><ele>1882.0</ele></trkpt>
   <trkpt lon="6.957272" lat="46.013114"><ele>1882.75</ele></trkpt>
   <trkpt lon="6.957277" lat="46.012978"><ele>1884.25</ele></trkpt>
   <trkpt lon="6.957284" lat="46.012934"><ele>1885.0</ele></trkpt>
   <trkpt lon="6.957316" lat="46.012821"><ele>1887.5</ele></trkpt>
   <trkpt lon="6.957353" lat="46.012743"><ele>1889.25</ele></trkpt>
   <trkpt lon="6.957359" lat="46.012673"><ele>1889.75</ele></trkpt>
   <trkpt lon="6.957369" lat="46.012671"><ele>1890.25</ele></trkpt>
   <trkpt lon="6.957497" lat="46.012751"><ele>1894.0</ele></trkpt>
   <trkpt lon="6.957617" lat="46.012870"><ele>1895.75</ele></trkpt>
   <trkpt lon="6.957684" lat="46.012924"><ele>1896.75</ele></trkpt>
   <trkpt lon="6.957822" lat="46.012968"><ele>1899.75</ele></trkpt>
   <trkpt lon="6.957857" lat="46.012991"><ele>1900.5</ele></trkpt>
   <trkpt lon="6.957893" lat="46.012992"><ele>1901.75</ele></trkpt>
   <trkpt lon="6.957899" lat="46.012985"><ele>1902.0</ele></trkpt>
   <trkpt lon="6.957895" lat="46.012973"><ele>1902.0</ele></trkpt>
   <trkpt lon="6.957869" lat="46.012945"><ele>1901.75</ele></trkpt>
   <trkpt lon="6.957871" lat="46.012847"><ele>1903.5</ele></trkpt>
   <trkpt lon="6.957917" lat="46.012687"><ele>1907.25</ele></trkpt>
   <trkpt lon="6.957917" lat="46.012648"><ele>1908.0</ele></trkpt>
   <trkpt lon="6.957884" lat="46.012591"><ele>1908.0</ele></trkpt>
   <trkpt lon="6.957886" lat="46.012547"><ele>1908.75</ele></trkpt>
   <trkpt lon="6.957902" lat="46.012483"><ele>1910.25</ele></trkpt>
   <trkpt lon="6.957923" lat="46.012473"><ele>1910.75</ele></trkpt>
   <trkpt lon="6.957947" lat="46.012486"><ele>1911.25</ele></trkpt>
   <trkpt lon="6.957971" lat="46.012513"><ele>1911.5</ele></trkpt>
   <trkpt lon="6.958093" lat="46.012596"><ele>1912.75</ele></trkpt>
   <trkpt lon="6.958124" lat="46.012634"><ele>1912.5</ele></trkpt>
   <trkpt lon="6.958231" lat="46.012718"><ele>1912.75</ele></trkpt>
   <trkpt lon="6.958255" lat="46.012748"><ele>1912.75</ele></trkpt>
   <trkpt lon="6.958268" lat="46.012785"><ele>1913.0</ele></trkpt>
   <trkpt lon="6.958263" lat="46.012815"><ele>1912.75</ele></trkpt>
   <trkpt lon="6.958274" lat="46.012846"><ele>1912.5</ele></trkpt>
   <trkpt lon="6.958374" lat="46.012940"><ele>1913.25</ele></trkpt>
   <trkpt lon="6.958411" lat="46.013005"><ele>1913.25</ele></trkpt>
   <trkpt lon="6.958494" lat="46.013071"><ele>1914.0</ele></trkpt>
   <trkpt lon="6.958510" lat="46.013078"><ele>1914.25</ele></trkpt>
   <trkpt lon="6.958540" lat="46.013079"><ele>1914.5</ele></trkpt>
   <trkpt lon="6.958553" lat="46.013104"><ele>1914.75</ele></trkpt>
   <trkpt lon="6.958561" lat="46.013069"><ele>1914.5</ele></trkpt>
   <trkpt lon="6.958530" lat="46.013050"><ele>1914.25</ele></trkpt>
   <trkpt lon="6.958519" lat="46.013028"><ele>1913.75</ele></trkpt>
   <trkpt lon="6.958498" lat="46.012934"><ele>1912.75</ele></trkpt>
   <trkpt lon="6.958482" lat="46.012920"><ele>1912.5</ele></trkpt>
   <trkpt lon="6.958372" lat="46.012760"><ele>1913.0</ele></trkpt>
   <trkpt lon="6.958354" lat="46.012681"><ele>1913.25</ele></trkpt>
   <trkpt lon="6.958332" lat="46.012635"><ele>1913.75</ele></trkpt>
   <trkpt lon="6.958330" lat="46.012600"><ele>1913.75</ele></trkpt>
   <trkpt lon="6.958289" lat="46.012571"><ele>1913.75</ele></trkpt>
   <trkpt lon="6.958283" lat="46.012528"><ele>1913.75</ele></trkpt>
   <trkpt lon="6.958243" lat="46.012443"><ele>1913.0</ele></trkpt>
   <trkpt lon="6.958191" lat="46.012402"><ele>1912.75</ele></trkpt>
   <trkpt lon="6.958173" lat="46.012314"><ele>1912.25</ele></trkpt>
   <trkpt lon="6.958134" lat="46.012253"><ele>1912.75</ele></trkpt>
   <trkpt lon="6.958106" lat="46.012236"><ele>1913.5</ele></trkpt>
   <trkpt lon="6.958059" lat="46.012188"><ele>1914.0</ele></trkpt>
   <trkpt lon="6.958008" lat="46.012095"><ele>1911.0</ele></trkpt>
   <trkpt lon="6.958001" lat="46.012066"><ele>1910.25</ele></trkpt>
   <trkpt lon="6.957881" lat="46.011998"><ele>1907.5</ele></trkpt>
   <trkpt lon="6.957815" lat="46.011981"><ele>1906.75</ele></trkpt>
   <trkpt lon="6.957804" lat="46.011955"><ele>1906.25</ele></trkpt>
   <trkpt lon="6.957690" lat="46.011916"><ele>1903.25</ele></trkpt>
   <trkpt lon="6.957649" lat="46.011866"><ele>1901.25</ele></trkpt>
   <trkpt lon="6.957558" lat="46.011782"><ele>1899.5</ele></trkpt>
   <trkpt lon="6.957555" lat="46.011743"><ele>1898.75</ele></trkpt>
   <trkpt lon="6.957473" lat="46.011682"><ele>1898.75</ele></trkpt>
   <trkpt lon="6.957445" lat="46.011634"><ele>1898.0</ele></trkpt>
   <trkpt lon="6.957430" lat="46.011578"><ele>1897.5</ele></trkpt>
   <trkpt lon="6.957429" lat="46.011530"><ele>1897.25</ele></trkpt>
   <trkpt lon="6.957412" lat="46.011499"><ele>1897.0</ele></trkpt>
   <trkpt lon="6.957407" lat="46.011460"><ele>1897.0</ele></trkpt>
   <trkpt lon="6.957330" lat="46.011326"><ele>1896.5</ele></trkpt>
   <trkpt lon="6.957303" lat="46.011299"><ele>1896.5</ele></trkpt>
   <trkpt lon="6.957277" lat="46.011205"><ele>1896.5</ele></trkpt>
   <trkpt lon="6.957245" lat="46.011158"><ele>1897.25</ele></trkpt>
   <trkpt lon="6.957229" lat="46.011056"><ele>1894.75</ele></trkpt>
   <trkpt lon="6.957194" lat="46.011011"><ele>1892.5</ele></trkpt>
   <trkpt lon="6.957142" lat="46.010989"><ele>1891.0</ele></trkpt>
   <trkpt lon="6.957103" lat="46.010963"><ele>1889.5</ele></trkpt>
   <trkpt lon="6.957035" lat="46.010885"><ele>1886.25</ele></trkpt>
   <trkpt lon="6.956943" lat="46.010823"><ele>1884.25</ele></trkpt>
   <trkpt lon="6.956859" lat="46.010737"><ele>1878.75</ele></trkpt>
   <trkpt lon="6.956801" lat="46.010667"><ele>1875.75</ele></trkpt>
   <trkpt lon="6.956766" lat="46.010577"><ele>1872.75</ele></trkpt>
   <trkpt lon="6.956731" lat="46.010538"><ele>1868.0</ele></trkpt>
   <trkpt lon="6.956588" lat="46.010374"><ele>1868.0</ele></trkpt>
   <trkpt lon="6.956591" lat="46.010351"><ele>1867.5</ele></trkpt>
   <trkpt lon="6.956552" lat="46.010280"><ele>1866.0</ele></trkpt>
   <trkpt lon="6.956487" lat="46.010235"><ele>1864.0</ele></trkpt>
   <trkpt lon="6.956316" lat="46.010152"><ele>1860.25</ele></trkpt>
   <trkpt lon="6.956258" lat="46.010100"><ele>1858.25</ele></trkpt>
   <trkpt lon="6.956246" lat="46.010052"><ele>1856.75</ele></trkpt>
   <trkpt lon="6.956247" lat="46.010010"><ele>1855.75</ele></trkpt>
   <trkpt lon="6.956150" lat="46.009809"><ele>1848.0</ele></trkpt>
   <trkpt lon="6.956127" lat="46.009676"><ele>1843.75</ele></trkpt>
   <trkpt lon="6.956108" lat="46.009635"><ele>1842.75</ele></trkpt>
   <trkpt lon="6.956140" lat="46.009536"><ele>1838.25</ele></trkpt>
   <trkpt lon="6.956146" lat="46.009419"><ele>1833.75</ele></trkpt>
   <trkpt lon="6.956146" lat="46.009379"><ele>1832.25</ele></trkpt>
   <trkpt lon="6.956116" lat="46.009344"><ele>1832.0</ele></trkpt>
   <trkpt lon="6.956166" lat="46.009194"><ele>1825.5</ele></trkpt>
   <trkpt lon="6.956218" lat="46.009178"><ele>1823.5</ele></trkpt>
   <trkpt lon="6.956258" lat="46.009145"><ele>1821.25</ele></trkpt>
   <trkpt lon="6.956268" lat="46.009081"><ele>1818.5</ele></trkpt>
   <trkpt lon="6.956284" lat="46.009052"><ele>1817.0</ele></trkpt>
   <trkpt lon="6.956301" lat="46.008976"><ele>1813.75</ele></trkpt>
   <trkpt lon="6.956316" lat="46.008953"><ele>1813.0</ele></trkpt>
   <trkpt lon="6.956375" lat="46.008908"><ele>1811.5</ele></trkpt>
   <trkpt lon="6.956343" lat="46.008849"><ele>1809.25</ele></trkpt>
   <trkpt lon="6.956270" lat="46.008746"><ele>1806.0</ele></trkpt>
   <trkpt lon="6.956190" lat="46.008693"><ele>1805.75</ele></trkpt>
   <trkpt lon="6.956115" lat="46.008663"><ele>1806.5</ele></trkpt>
   <trkpt lon="6.956057" lat="46.008703"><ele>1805.25</ele></trkpt>
   <trkpt lon="6.956021" lat="46.008767"><ele>1805.5</ele></trkpt>
   <trkpt lon="6.956015" lat="46.008802"><ele>1806.25</ele></trkpt>
   <trkpt lon="6.955935" lat="46.008835"><ele>1805.5</ele></trkpt>
   <trkpt lon="6.955865" lat="46.008838"><ele>1804.25</ele></trkpt>
   <trkpt lon="6.955672" lat="46.008869"><ele>1800.75</ele></trkpt>
   <trkpt lon="6.955629" lat="46.008891"><ele>1800.75</ele></trkpt>
   <trkpt lon="6.955513" lat="46.008973"><ele>1801.0</ele></trkpt>
   <trkpt lon="6.955443" lat="46.009011"><ele>1800.0</ele></trkpt>
   <trkpt lon="6.955385" lat="46.009105"><ele>1802.0</ele></trkpt>
   <trkpt lon="6.955335" lat="46.009121"><ele>1801.0</ele></trkpt>
   <trkpt lon="6.955287" lat="46.009167"><ele>1801.25</ele></trkpt>
   <trkpt lon="6.955236" lat="46.009226"><ele>1800.75</ele></trkpt>
   <trkpt lon="6.955167" lat="46.009263"><ele>1799.0</ele></trkpt>
   <trkpt lon="6.955062" lat="46.009369"><ele>1798.0</ele></trkpt>
   <trkpt lon="6.954967" lat="46.009410"><ele>1796.0</ele></trkpt>
   <trkpt lon="6.954940" lat="46.009436"><ele>1796.0</ele></trkpt>
   <trkpt lon="6.954839" lat="46.009582"><ele>1796.0</ele></trkpt>
   <trkpt lon="6.954796" lat="46.009617"><ele>1795.5</ele></trkpt>
   <trkpt lon="6.954751" lat="46.009694"><ele>1796.0</ele></trkpt>
   <trkpt lon="6.954656" lat="46.009772"><ele>1795.5</ele></trkpt>
   <trkpt lon="6.954621" lat="46.009826"><ele>1796.0</ele></trkpt>
   <trkpt lon="6.954419" lat="46.009825"><ele>1791.25</ele></trkpt>
   <trkpt lon="6.954316" lat="46.009837"><ele>1789.5</ele></trkpt>
   <trkpt lon="6.954102" lat="46.009879"><ele>1785.25</ele></trkpt>
   <trkpt lon="6.954050" lat="46.009908"><ele>1784.25</ele></trkpt>
   <trkpt lon="6.954034" lat="46.009903"><ele>1783.75</ele></trkpt>
   <trkpt lon="6.954157" lat="46.009538"><ele>1776.75</ele></trkpt>
   <trkpt lon="6.954179" lat="46.009501"><ele>1776.0</ele></trkpt>
   <trkpt lon="6.954178" lat="46.009456"><ele>1774.5</ele></trkpt>
   <trkpt lon="6.953955" lat="46.009498"><ele>1770.5</ele></trkpt>
   <trkpt lon="6.953985" lat="46.009458"><ele>1769.75</ele></trkpt>
   <trkpt lon="6.953969" lat="46.009452"><ele>1769.25</ele></trkpt>
   <trkpt lon="6.953573" lat="46.009557"><ele>1761.5</ele></trkpt>
   <trkpt lon="6.953520" lat="46.009594"><ele>1760.75</ele></trkpt>
   <trkpt lon="6.953494" lat="46.009600"><ele>1760.0</ele></trkpt>
   <trkpt lon="6.953488" lat="46.009578"><ele>1759.0</ele></trkpt>
   <trkpt lon="6.953518" lat="46.009533"><ele>1758.75</ele></trkpt>
   <trkpt lon="6.953421" lat="46.009552"><ele>1755.75</ele></trkpt>
   <trkpt lon="6.953410" lat="46.009545"><ele>1755.25</ele></trkpt>
   <trkpt lon="6.953419" lat="46.009512"><ele>1754.5</ele></trkpt>
   <trkpt lon="6.953386" lat="46.009517"><ele>1753.5</ele></trkpt>
   <trkpt lon="6.953344" lat="46.009535"><ele>1752.5</ele></trkpt>
   <trkpt lon="6.953301" lat="46.009806"><ele>1753.75</ele></trkpt>
   <trkpt lon="6.953284" lat="46.010089"><ele>1746.75</ele></trkpt>
   <trkpt lon="6.953298" lat="46.010170"><ele>1744.75</ele></trkpt>
   <trkpt lon="6.953369" lat="46.010333"><ele>1744.75</ele></trkpt>
   <trkpt lon="6.953365" lat="46.010369"><ele>1744.0</ele></trkpt>
   <trkpt lon="6.953254" lat="46.010493"><ele>1738.25</ele></trkpt>
   <trkpt lon="6.953241" lat="46.010572"><ele>1737.5</ele></trkpt>
   <trkpt lon="6.953217" lat="46.010625"><ele>1737.0</ele></trkpt>
   <trkpt lon="6.953184" lat="46.010660"><ele>1736.0</ele></trkpt>
   <trkpt lon="6.953030" lat="46.010766"><ele>1732.5</ele></trkpt>
   <trkpt lon="6.952968" lat="46.010777"><ele>1731.0</ele></trkpt>
   <trkpt lon="6.952875" lat="46.010815"><ele>1729.0</ele></trkpt>
   <trkpt lon="6.952818" lat="46.010828"><ele>1727.75</ele></trkpt>
   <trkpt lon="6.952740" lat="46.010835"><ele>1726.0</ele></trkpt>
   <trkpt lon="6.952728" lat="46.010829"><ele>1725.75</ele></trkpt>
   <trkpt lon="6.952718" lat="46.010789"><ele>1724.75</ele></trkpt>
   <trkpt lon="6.952743" lat="46.010674"><ele>1723.0</ele></trkpt>
   <trkpt lon="6.952744" lat="46.010636"><ele>1722.5</ele></trkpt>
   <trkpt lon="6.952720" lat="46.010539"><ele>1720.0</ele></trkpt>
   <trkpt lon="6.952661" lat="46.010402"><ele>1716.5</ele></trkpt>
   <trkpt lon="6.952607" lat="46.010323"><ele>1713.5</ele></trkpt>
   <trkpt lon="6.952560" lat="46.010273"><ele>1711.0</ele></trkpt>
   <trkpt lon="6.952476" lat="46.010158"><ele>1707.0</ele></trkpt>
   <trkpt lon="6.952453" lat="46.010116"><ele>1705.75</ele></trkpt>
   <trkpt lon="6.952386" lat="46.009941"><ele>1701.75</ele></trkpt>
   <trkpt lon="6.952369" lat="46.009840"><ele>1700.5</ele></trkpt>
   <trkpt lon="6.952372" lat="46.009809"><ele>1700.5</ele></trkpt>
   <trkpt lon="6.952389" lat="46.009768"><ele>1700.75</ele></trkpt>
   <trkpt lon="6.952390" lat="46.009719"><ele>1700.5</ele></trkpt>
   <trkpt lon="6.952365" lat="46.009642"><ele>1700.25</ele></trkpt>
   <trkpt lon="6.952362" lat="46.009533"><ele>1701.0</ele></trkpt>
   <trkpt lon="6.952303" lat="46.009459"><ele>1698.5</ele></trkpt>
   <trkpt lon="6.952187" lat="46.009335"><ele>1692.5</ele></trkpt>
   <trkpt lon="6.952142" lat="46.009267"><ele>1690.25</ele></trkpt>
   <trkpt lon="6.952120" lat="46.009213"><ele>1689.25</ele></trkpt>
   <trkpt lon="6.952077" lat="46.009153"><ele>1687.0</ele></trkpt>
   <trkpt lon="6.952058" lat="46.009092"><ele>1685.5</ele></trkpt>
   <trkpt lon="6.952050" lat="46.008855"><ele>1683.25</ele></trkpt>
   <trkpt lon="6.952035" lat="46.008780"><ele>1682.0</ele></trkpt>
   <trkpt lon="6.952010" lat="46.008722"><ele>1680.5</ele></trkpt>
   <trkpt lon="6.951923" lat="46.008618"><ele>1676.75</ele></trkpt>
   <trkpt lon="6.951898" lat="46.008578"><ele>1674.5</ele></trkpt>
   <trkpt lon="6.951890" lat="46.008542"><ele>1673.0</ele></trkpt>
   <trkpt lon="6.951899" lat="46.008452"><ele>1670.25</ele></trkpt>
   <trkpt lon="6.951935" lat="46.008347"><ele>1668.0</ele></trkpt>
   <trkpt lon="6.951968" lat="46.008280"><ele>1665.5</ele></trkpt>
   <trkpt lon="6.952036" lat="46.008225"><ele>1664.0</ele></trkpt>
   <trkpt lon="6.952123" lat="46.008191"><ele>1664.0</ele></trkpt>
   <trkpt lon="6.952131" lat="46.008179"><ele>1663.5</ele></trkpt>
   <trkpt lon="6.952117" lat="46.008170"><ele>1662.75</ele></trkpt>
   <trkpt lon="6.952058" lat="46.008176"><ele>1661.75</ele></trkpt>
   <trkpt lon="6.951980" lat="46.008191"><ele>1661.0</ele></trkpt>
   <trkpt lon="6.951894" lat="46.008218"><ele>1659.75</ele></trkpt>
   <trkpt lon="6.951805" lat="46.008267"><ele>1659.0</ele></trkpt>
   <trkpt lon="6.951740" lat="46.008323"><ele>1659.25</ele></trkpt>
   <trkpt lon="6.951560" lat="46.008388"><ele>1654.0</ele></trkpt>
   <trkpt lon="6.951527" lat="46.008394"><ele>1652.75</ele></trkpt>
   <trkpt lon="6.951423" lat="46.008392"><ele>1648.5</ele></trkpt>
   <trkpt lon="6.951399" lat="46.008402"><ele>1647.75</ele></trkpt>
   <trkpt lon="6.951358" lat="46.008403"><ele>1646.25</ele></trkpt>
   <trkpt lon="6.951323" lat="46.008412"><ele>1645.25</ele></trkpt>
   <trkpt lon="6.951303" lat="46.008404"><ele>1644.25</ele></trkpt>
   <trkpt lon="6.951295" lat="46.008391"><ele>1643.75</ele></trkpt>
   <trkpt lon="6.951292" lat="46.008357"><ele>1642.75</ele></trkpt>
   <trkpt lon="6.951307" lat="46.008344"><ele>1643.25</ele></trkpt>
   <trkpt lon="6.951407" lat="46.008312"><ele>1645.75</ele></trkpt>
   <trkpt lon="6.951425" lat="46.008300"><ele>1646.0</ele></trkpt>
   <trkpt lon="6.951470" lat="46.008249"><ele>1645.5</ele></trkpt>
   <trkpt lon="6.951500" lat="46.008202"><ele>1644.75</ele></trkpt>
   <trkpt lon="6.951523" lat="46.008152"><ele>1643.25</ele></trkpt>
   <trkpt lon="6.951520" lat="46.008108"><ele>1641.5</ele></trkpt>
   <trkpt lon="6.951508" lat="46.008102"><ele>1640.75</ele></trkpt>
   <trkpt lon="6.951478" lat="46.008105"><ele>1639.75</ele></trkpt>
   <trkpt lon="6.951374" lat="46.008142"><ele>1637.75</ele></trkpt>
   <trkpt lon="6.951221" lat="46.008137"><ele>1633.0</ele></trkpt>
   <trkpt lon="6.951106" lat="46.008177"><ele>1630.75</ele></trkpt>
   <trkpt lon="6.951085" lat="46.008196"><ele>1630.5</ele></trkpt>
   <trkpt lon="6.951069" lat="46.008199"><ele>1630.25</ele></trkpt>
   <trkpt lon="6.951061" lat="46.008187"><ele>1629.5</ele></trkpt>
   <trkpt lon="6.951080" lat="46.008098"><ele>1627.25</ele></trkpt>
   <trkpt lon="6.951106" lat="46.008052"><ele>1626.5</ele></trkpt>
   <trkpt lon="6.951129" lat="46.008028"><ele>1626.25</ele></trkpt>
   <trkpt lon="6.951027" lat="46.008008"><ele>1622.5</ele></trkpt>
   <trkpt lon="6.951009" lat="46.008009"><ele>1622.0</ele></trkpt>
   <trkpt lon="6.950964" lat="46.008030"><ele>1621.5</ele></trkpt>
   <trkpt lon="6.950913" lat="46.008062"><ele>1621.25</ele></trkpt>
   <trkpt lon="6.950859" lat="46.008156"><ele>1622.25</ele></trkpt>
   <trkpt lon="6.950840" lat="46.008204"><ele>1622.75</ele></trkpt>
   <trkpt lon="6.950819" lat="46.008222"><ele>1622.75</ele></trkpt>
   <trkpt lon="6.950779" lat="46.008226"><ele>1621.5</ele></trkpt>
   <trkpt lon="6.950727" lat="46.008221"><ele>1620.0</ele></trkpt>
   <trkpt lon="6.950651" lat="46.008194"><ele>1616.75</ele></trkpt>
   <trkpt lon="6.950535" lat="46.008191"><ele>1613.25</ele></trkpt>
   <trkpt lon="6.950382" lat="46.008215"><ele>1610.25</ele></trkpt>
   <trkpt lon="6.950214" lat="46.008266"><ele>1608.25</ele></trkpt>
   <trkpt lon="6.950039" lat="46.008274"><ele>1605.25</ele></trkpt>
   <trkpt lon="6.949943" lat="46.008290"><ele>1604.0</ele></trkpt>
   <trkpt lon="6.949822" lat="46.008291"><ele>1601.25</ele></trkpt>
   <trkpt lon="6.949782" lat="46.008301"><ele>1601.0</ele></trkpt>
   <trkpt lon="6.949772" lat="46.008298"><ele>1600.5</ele></trkpt>
   <trkpt lon="6.949766" lat="46.008279"><ele>1599.75</ele></trkpt>
   <trkpt lon="6.949790" lat="46.008235"><ele>1598.5</ele></trkpt>
   <trkpt lon="6.949850" lat="46.008041"><ele>1592.0</ele></trkpt>
   <trkpt lon="6.949881" lat="46.007986"><ele>1590.75</ele></trkpt>
   <trkpt lon="6.949901" lat="46.007965"><ele>1590.25</ele></trkpt>
   <trkpt lon="6.949905" lat="46.007931"><ele>1589.0</ele></trkpt>
   <trkpt lon="6.949787" lat="46.007922"><ele>1587.0</ele></trkpt>
   <trkpt lon="6.949680" lat="46.007860"><ele>1583.0</ele></trkpt>
   <trkpt lon="6.949383" lat="46.007874"><ele>1575.0</ele></trkpt>
   <trkpt lon="6.949149" lat="46.007942"><ele>1570.75</ele></trkpt>
   <trkpt lon="6.949007" lat="46.008046"><ele>1569.0</ele></trkpt>
   <trkpt lon="6.948943" lat="46.008110"><ele>1566.75</ele></trkpt>
   <trkpt lon="6.948921" lat="46.008082"><ele>1565.5</ele></trkpt>
   <trkpt lon="6.948917" lat="46.008051"><ele>1565.0</ele></trkpt>
   <trkpt lon="6.948968" lat="46.007861"><ele>1560.0</ele></trkpt>
   <trkpt lon="6.949079" lat="46.007601"><ele>1554.0</ele></trkpt>
   <trkpt lon="6.949098" lat="46.007484"><ele>1550.25</ele></trkpt>
   <trkpt lon="6.949065" lat="46.007190"><ele>1545.25</ele></trkpt>
   <trkpt lon="6.949071" lat="46.007086"><ele>1544.0</ele></trkpt>
   <trkpt lon="6.949097" lat="46.006898"><ele>1541.75</ele></trkpt>
   <trkpt lon="6.949095" lat="46.006785"><ele>1539.75</ele></trkpt>
   <trkpt lon="6.949058" lat="46.006642"><ele>1536.5</ele></trkpt>
   <trkpt lon="6.949056" lat="46.006581"><ele>1535.25</ele></trkpt>
   <trkpt lon="6.949090" lat="46.006513"><ele>1534.0</ele></trkpt>
   <trkpt lon="6.949062" lat="46.006437"><ele>1532.25</ele></trkpt>
   <trkpt lon="6.949039" lat="46.006271"><ele>1529.0</ele></trkpt>
   <trkpt lon="6.949009" lat="46.006156"><ele>1527.0</ele></trkpt>
   <trkpt lon="6.949000" lat="46.006059"><ele>1525.0</ele></trkpt>
   <trkpt lon="6.948990" lat="46.006020"><ele>1524.25</ele></trkpt>
   <trkpt lon="6.948897" lat="46.005844"><ele>1520.25</ele></trkpt>
   <trkpt lon="6.948808" lat="46.005722"><ele>1518.0</ele></trkpt>
   <trkpt lon="6.948616" lat="46.005498"><ele>1513.0</ele></trkpt>
   <trkpt lon="6.948561" lat="46.005391"><ele>1511.5</ele></trkpt>
   <trkpt lon="6.948466" lat="46.005296"><ele>1510.25</ele></trkpt>
   <trkpt lon="6.948390" lat="46.005158"><ele>1507.75</ele></trkpt>
   <trkpt lon="6.948360" lat="46.005130"><ele>1507.25</ele></trkpt>
   <trkpt lon="6.948305" lat="46.005099"><ele>1506.25</ele></trkpt>
   <trkpt lon="6.948246" lat="46.004910"><ele>1503.25</ele></trkpt>
   <trkpt lon="6.948138" lat="46.004734"><ele>1500.5</ele></trkpt>
   <trkpt lon="6.948033" lat="46.004537"><ele>1497.5</ele></trkpt>
   <trkpt lon="6.947949" lat="46.004458"><ele>1495.75</ele></trkpt>
   <trkpt lon="6.947833" lat="46.004398"><ele>1494.0</ele></trkpt>
   <trkpt lon="6.947784" lat="46.004380"><ele>1493.5</ele></trkpt>
   <trkpt lon="6.947684" lat="46.004266"><ele>1491.5</ele></trkpt>
   <trkpt lon="6.947463" lat="46.004011"><ele>1487.5</ele></trkpt>
   <trkpt lon="6.947403" lat="46.003934"><ele>1486.5</ele></trkpt>
   <trkpt lon="6.947308" lat="46.003848"><ele>1485.25</ele></trkpt>
   <trkpt lon="6.947248" lat="46.003807"><ele>1484.75</ele></trkpt>
   <trkpt lon="6.946748" lat="46.003613"><ele>1479.5</ele></trkpt>
   <trkpt lon="6.946488" lat="46.003454"><ele>1475.75</ele></trkpt>
   <trkpt lon="6.946218" lat="46.003322"><ele>1473.5</ele></trkpt>
   <trkpt lon="6.946358" lat="46.003107"><ele>1472.25</ele></trkpt>
   <trkpt lon="6.946501" lat="46.002929"><ele>1472.75</ele></trkpt>
   <trkpt lon="6.946615" lat="46.002744"><ele>1473.25</ele></trkpt>
   <trkpt lon="6.946677" lat="46.002662"><ele>1473.5</ele></trkpt>
   <trkpt lon="6.946776" lat="46.002502"><ele>1474.0</ele></trkpt>
   <trkpt lon="6.946870" lat="46.002386"><ele>1474.75</ele></trkpt>
   <trkpt lon="6.946957" lat="46.002288"><ele>1475.25</ele></trkpt>
   <trkpt lon="6.947061" lat="46.002188"><ele>1475.5</ele></trkpt>
   <trkpt lon="6.947310" lat="46.002000"><ele>1476.0</ele></trkpt>
   <trkpt lon="6.947366" lat="46.001962"><ele>1476.0</ele></trkpt>
   <trkpt lon="6.947406" lat="46.001917"><ele>1476.0</ele></trkpt>
   <trkpt lon="6.947477" lat="46.001790"><ele>1475.5</ele></trkpt>
   <trkpt lon="6.947520" lat="46.001732"><ele>1475.5</ele></trkpt>
   <trkpt lon="6.947585" lat="46.001673"><ele>1475.5</ele></trkpt>
   <trkpt lon="6.947620" lat="46.001607"><ele>1475.25</ele></trkpt>
   <trkpt lon="6.947663" lat="46.001458"><ele>1474.5</ele></trkpt>
   <trkpt lon="6.947705" lat="46.001242"><ele>1473.25</ele></trkpt>
   <trkpt lon="6.947876" lat="46.001108"><ele>1473.5</ele></trkpt>
   <trkpt lon="6.948062" lat="46.000989"><ele>1474.0</ele></trkpt>
   <trkpt lon="6.948317" lat="46.000840"><ele>1474.75</ele></trkpt>
   <trkpt lon="6.948397" lat="46.000810"><ele>1475.0</ele></trkpt>
   <trkpt lon="6.948811" lat="46.000688"><ele>1475.25</ele></trkpt>
   <trkpt lon="6.948915" lat="46.000634"><ele>1475.25</ele></trkpt>
   <trkpt lon="6.948971" lat="46.000597"><ele>1475.25</ele></trkpt>
   <trkpt lon="6.949012" lat="46.000558"><ele>1475.25</ele></trkpt>
   <trkpt lon="6.949036" lat="46.000520"><ele>1475.0</ele></trkpt>
   <trkpt lon="6.949058" lat="46.000383"><ele>1473.25</ele></trkpt>
   <trkpt lon="6.949039" lat="46.000310"><ele>1472.0</ele></trkpt>
   <trkpt lon="6.949060" lat="46.000266"><ele>1471.5</ele></trkpt>
   <trkpt lon="6.949091" lat="46.000240"><ele>1471.25</ele></trkpt>
   <trkpt lon="6.949197" lat="46.000197"><ele>1471.5</ele></trkpt>
   <trkpt lon="6.949326" lat="46.000172"><ele>1472.0</ele></trkpt>
   <trkpt lon="6.949396" lat="46.000136"><ele>1472.0</ele></trkpt>
   <trkpt lon="6.949310" lat="46.000073"><ele>1469.75</ele></trkpt>
   <trkpt lon="6.949248" lat="46.000049"><ele>1468.75</ele></trkpt>
   <trkpt lon="6.949218" lat="46.000049"><ele>1468.5</ele></trkpt>
   <trkpt lon="6.949054" lat="46.000070"><ele>1467.5</ele></trkpt>
   <trkpt lon="6.948825" lat="46.000057"><ele>1465.25</ele></trkpt>
   <trkpt lon="6.948753" lat="46.000060"><ele>1464.5</ele></trkpt>
   <trkpt lon="6.948526" lat="46.000114"><ele>1462.5</ele></trkpt>
   <trkpt lon="6.948309" lat="46.000144"><ele>1460.75</ele></trkpt>
   <trkpt lon="6.948272" lat="46.000139"><ele>1460.5</ele></trkpt>
   <trkpt lon="6.948208" lat="46.000117"><ele>1459.5</ele></trkpt>
   <trkpt lon="6.948160" lat="46.000110"><ele>1459.0</ele></trkpt>
   <trkpt lon="6.948087" lat="46.000088"><ele>1458.0</ele></trkpt>
   <trkpt lon="6.947887" lat="46.000060"><ele>1456.25</ele></trkpt>
   <trkpt lon="6.947678" lat="46.000098"><ele>1455.75</ele></trkpt>
   <trkpt lon="6.947569" lat="46.000094"><ele>1454.5</ele></trkpt>
   <trkpt lon="6.947508" lat="46.000074"><ele>1453.0</ele></trkpt>
   <trkpt lon="6.947385" lat="46.000003"><ele>1450.25</ele></trkpt>
   <trkpt lon="6.947352" lat="45.999984"><ele>1449.75</ele></trkpt>
   <trkpt lon="6.947167" lat="45.999917"><ele>1447.5</ele></trkpt>
   <trkpt lon="6.947115" lat="45.999887"><ele>1447.0</ele></trkpt>
   <trkpt lon="6.946988" lat="45.999849"><ele>1446.25</ele></trkpt>
   <trkpt lon="6.946932" lat="45.999840"><ele>1446.0</ele></trkpt>
   <trkpt lon="6.946867" lat="45.999838"><ele>1445.75</ele></trkpt>
   <trkpt lon="6.946723" lat="45.999849"><ele>1445.75</ele></trkpt>
   <trkpt lon="6.946660" lat="45.999847"><ele>1445.5</ele></trkpt>
   <trkpt lon="6.946604" lat="45.999837"><ele>1445.25</ele></trkpt>
   <trkpt lon="6.946444" lat="45.999758"><ele>1443.5</ele></trkpt>
   <trkpt lon="6.946314" lat="45.999673"><ele>1442.0</ele></trkpt>
   <trkpt lon="6.946187" lat="45.999608"><ele>1440.75</ele></trkpt>
   <trkpt lon="6.946041" lat="45.999486"><ele>1437.5</ele></trkpt>
   <trkpt lon="6.945976" lat="45.999458"><ele>1436.75</ele></trkpt>
   <trkpt lon="6.945629" lat="45.999375"><ele>1434.75</ele></trkpt>
   <trkpt lon="6.945443" lat="45.999316"><ele>1433.25</ele></trkpt>
   <trkpt lon="6.945322" lat="45.999291"><ele>1432.25</ele></trkpt>
   <trkpt lon="6.945221" lat="45.999278"><ele>1431.5</ele></trkpt>
   <trkpt lon="6.945092" lat="45.999273"><ele>1430.75</ele></trkpt>
   <trkpt lon="6.944808" lat="45.999278"><ele>1429.5</ele></trkpt>
   <trkpt lon="6.944707" lat="45.999275"><ele>1429.0</ele></trkpt>
   <trkpt lon="6.944535" lat="45.999259"><ele>1427.25</ele></trkpt>
   <trkpt lon="6.944210" lat="45.999199"><ele>1422.25</ele></trkpt>
   <trkpt lon="6.943956" lat="45.999173"><ele>1419.5</ele></trkpt>
   <trkpt lon="6.943840" lat="45.999130"><ele>1418.0</ele></trkpt>
   <trkpt lon="6.943617" lat="45.999106"><ele>1416.25</ele></trkpt>
   <trkpt lon="6.943476" lat="45.999077"><ele>1415.0</ele></trkpt>
   <trkpt lon="6.943438" lat="45.999060"><ele>1414.75</ele></trkpt>
   <trkpt lon="6.943413" lat="45.999035"><ele>1414.5</ele></trkpt>
   <trkpt lon="6.943345" lat="45.998948"><ele>1414.5</ele></trkpt>
   <trkpt lon="6.943288" lat="45.998892"><ele>1414.5</ele></trkpt>
   <trkpt lon="6.943175" lat="45.998833"><ele>1416.5</ele></trkpt>
   <trkpt lon="6.943019" lat="45.998796"><ele>1416.75</ele></trkpt>
   <trkpt lon="6.942910" lat="45.998778"><ele>1416.0</ele></trkpt>
   <trkpt lon="6.942650" lat="45.998759"><ele>1413.5</ele></trkpt>
   <trkpt lon="6.942504" lat="45.998735"><ele>1413.0</ele></trkpt>
   <trkpt lon="6.942378" lat="45.998704"><ele>1412.75</ele></trkpt>
   <trkpt lon="6.942172" lat="45.998676"><ele>1410.75</ele></trkpt>
   <trkpt lon="6.941973" lat="45.998669"><ele>1409.0</ele></trkpt>
   <trkpt lon="6.941785" lat="45.998639"><ele>1409.25</ele></trkpt>
   <trkpt lon="6.941688" lat="45.998617"><ele>1409.75</ele></trkpt>
   <trkpt lon="6.941621" lat="45.998595"><ele>1410.25</ele></trkpt>
   <trkpt lon="6.941512" lat="45.998539"><ele>1411.75</ele></trkpt>
   <trkpt lon="6.941411" lat="45.998452"><ele>1414.5</ele></trkpt>
   <trkpt lon="6.941360" lat="45.998419"><ele>1414.75</ele></trkpt>
   <trkpt lon="6.940715" lat="45.998180"><ele>1408.25</ele></trkpt>
   <trkpt lon="6.939661" lat="45.997889"><ele>1391.25</ele></trkpt>
   <trkpt lon="6.939076" lat="45.997539"><ele>1388.75</ele></trkpt>
   <trkpt lon="6.938354" lat="45.996989"><ele>1380.75</ele></trkpt>
   <trkpt lon="6.938052" lat="45.996784"><ele>1379.5</ele></trkpt>
   <trkpt lon="6.937706" lat="45.996552"><ele>1376.5</ele></trkpt>
   <trkpt lon="6.937575" lat="45.996450"><ele>1375.5</ele></trkpt>
   <trkpt lon="6.937522" lat="45.996392"><ele>1376.25</ele></trkpt>
   <trkpt lon="6.937416" lat="45.996239"><ele>1376.75</ele></trkpt>
   <trkpt lon="6.937369" lat="45.996193"><ele>1376.5</ele></trkpt>
   <trkpt lon="6.937279" lat="45.996152"><ele>1375.25</ele></trkpt>
   <trkpt lon="6.937183" lat="45.996118"><ele>1374.0</ele></trkpt>
   <trkpt lon="6.936869" lat="45.996021"><ele>1369.25</ele></trkpt>
   <trkpt lon="6.936792" lat="45.995980"><ele>1367.25</ele></trkpt>
   <trkpt lon="6.936514" lat="45.995752"><ele>1365.0</ele></trkpt>
   <trkpt lon="6.936108" lat="45.995461"><ele>1364.5</ele></trkpt>
   <trkpt lon="6.935708" lat="45.995168"><ele>1361.75</ele></trkpt>
   <trkpt lon="6.935611" lat="45.995103"><ele>1361.0</ele></trkpt>
   <trkpt lon="6.935348" lat="45.994973"><ele>1361.0</ele></trkpt>
   <trkpt lon="6.935076" lat="45.994881"><ele>1361.0</ele></trkpt>
   <trkpt lon="6.935126" lat="45.994764"><ele>1361.5</ele></trkpt>
   <trkpt lon="6.935152" lat="45.994672"><ele>1362.5</ele></trkpt>
   <trkpt lon="6.935154" lat="45.994587"><ele>1363.5</ele></trkpt>
   <trkpt lon="6.935131" lat="45.994503"><ele>1364.0</ele></trkpt>
   <trkpt lon="6.935097" lat="45.994441"><ele>1364.0</ele></trkpt>
   <trkpt lon="6.935040" lat="45.994366"><ele>1364.25</ele></trkpt>
   <trkpt lon="6.934801" lat="45.994080"><ele>1363.0</ele></trkpt>
  </trkseg>
  </trk>
</gpx>
