<?xml version="1.0" encoding="UTF-8"?>
<gpx xmlns="http://www.topografix.com/GPX/1/1" xmlns:xsi="http://www.w3.org/2001/XMLSchema-instance" xsi:schemaLocation="http://www.topografix.com/GPX/1/1 http://www.topografix.com/GPX/1/1/gpx.xsd" version="1.1" creator="tmb2027 build-gpx (BRouter hiking-mountain)">
  <metadata>
    <name>TMB 2027 Day 9 · Champex → Bovine → Col de la Forclaz → Trient</name>
    <desc>샹페 → 보빈 → 콜 드 라 포르클라 → 트리앙 · 경유 4지점 · 참고용 산길 경로. 실제 길 찾기는 공식 지도·현장 표지 우선.</desc>
    <copyright author="OpenStreetMap contributors"><license>https://www.openstreetmap.org/copyright</license></copyright>
    <link href="https://brouter.de/"><text>Routing: BRouter hiking-mountain</text></link>
    <time>2026-09-18T00:00:00Z</time>
  </metadata>
  <wpt lat="46.03" lon="7.115"><ele>1466</ele><name>Champex-Lac</name><type>lodging</type></wpt>
  <wpt lat="46.045" lon="7.07"><ele>1987</ele><name>Alpage de Bovine</name><type>waypoint</type></wpt>
  <wpt lat="46.057" lon="7.002"><ele>1526</ele><name>Col de la Forclaz</name><type>pass</type></wpt>
  <wpt lat="46.058" lon="6.993"><ele>1300</ele><name>Trient</name><type>lodging</type></wpt>
  <trk>
    <name>TMB 2027 Day 9 · Champex → Bovine → Col de la Forclaz → Trient</name>
    <trkseg>
   <trkpt lon="7.114957" lat="46.030257"><ele>1467.75</ele></trkpt>
   <trkpt lon="7.114986" lat="46.030386"><ele>1468.0</ele></trkpt>
   <trkpt lon="7.114980" lat="46.030559"><ele>1468.0</ele></trkpt>
   <trkpt lon="7.115115" lat="46.030570"><ele>1468.0</ele></trkpt>
   <trkpt lon="7.115174" lat="46.030600"><ele>1468.25</ele></trkpt>
   <trkpt lon="7.114580" lat="46.030723"><ele>1468.5</ele></trkpt>
   <trkpt lon="7.114177" lat="46.030795"><ele>1468.75</ele></trkpt>
   <trkpt lon="7.114019" lat="46.030833"><ele>1469.5</ele></trkpt>
   <trkpt lon="7.113736" lat="46.030898"><ele>1470.75</ele></trkpt>
   <trkpt lon="7.113183" lat="46.031066"><ele>1473.75</ele></trkpt>
   <trkpt lon="7.112708" lat="46.031241"><ele>1477.75</ele></trkpt>
   <trkpt lon="7.112554" lat="46.031291"><ele>1478.0</ele></trkpt>
   <trkpt lon="7.112218" lat="46.031396"><ele>1481.0</ele></trkpt>
   <trkpt lon="7.111814" lat="46.031509"><ele>1481.0</ele></trkpt>
   <trkpt lon="7.111277" lat="46.031622"><ele>1480.75</ele></trkpt>
   <trkpt lon="7.110537" lat="46.031733"><ele>1478.75</ele></trkpt>
   <trkpt lon="7.109863" lat="46.031862"><ele>1479.5</ele></trkpt>
   <trkpt lon="7.109470" lat="46.031874"><ele>1479.75</ele></trkpt>
   <trkpt lon="7.109078" lat="46.031844"><ele>1481.0</ele></trkpt>
   <trkpt lon="7.108808" lat="46.031914"><ele>1482.25</ele></trkpt>
   <trkpt lon="7.108746" lat="46.031925"><ele>1482.75</ele></trkpt>
   <trkpt lon="7.108666" lat="46.031938"><ele>1483.5</ele></trkpt>
   <trkpt lon="7.108634" lat="46.031943"><ele>1483.75</ele></trkpt>
   <trkpt lon="7.108580" lat="46.031915"><ele>1483.75</ele></trkpt>
   <trkpt lon="7.108421" lat="46.031916"><ele>1484.25</ele></trkpt>
   <trkpt lon="7.108338" lat="46.031895"><ele>1484.5</ele></trkpt>
   <trkpt lon="7.108246" lat="46.031814"><ele>1486.75</ele></trkpt>
   <trkpt lon="7.108061" lat="46.031494"><ele>1487.25</ele></trkpt>
   <trkpt lon="7.108012" lat="46.031448"><ele>1487.75</ele></trkpt>
   <trkpt lon="7.107954" lat="46.031414"><ele>1488.75</ele></trkpt>
   <trkpt lon="7.107839" lat="46.031365"><ele>1490.5</ele></trkpt>
   <trkpt lon="7.107786" lat="46.031441"><ele>1492.75</ele></trkpt>
   <trkpt lon="7.107756" lat="46.031447"><ele>1493.25</ele></trkpt>
   <trkpt lon="7.107720" lat="46.031362"><ele>1493.0</ele></trkpt>
   <trkpt lon="7.107311" lat="46.031089"><ele>1496.25</ele></trkpt>
   <trkpt lon="7.106884" lat="46.030902"><ele>1499.0</ele></trkpt>
   <trkpt lon="7.106924" lat="46.030959"><ele>1498.5</ele></trkpt>
   <trkpt lon="7.106921" lat="46.030986"><ele>1498.25</ele></trkpt>
   <trkpt lon="7.106902" lat="46.031006"><ele>1498.25</ele></trkpt>
   <trkpt lon="7.106651" lat="46.031041"><ele>1497.75</ele></trkpt>
   <trkpt lon="7.106590" lat="46.031088"><ele>1497.25</ele></trkpt>
   <trkpt lon="7.106591" lat="46.031055"><ele>1497.5</ele></trkpt>
   <trkpt lon="7.106461" lat="46.031066"><ele>1497.25</ele></trkpt>
   <trkpt lon="7.106369" lat="46.031119"><ele>1496.75</ele></trkpt>
   <trkpt lon="7.106325" lat="46.031079"><ele>1497.0</ele></trkpt>
   <trkpt lon="7.106247" lat="46.031071"><ele>1497.0</ele></trkpt>
   <trkpt lon="7.106132" lat="46.031069"><ele>1496.75</ele></trkpt>
   <trkpt lon="7.105948" lat="46.031047"><ele>1497.5</ele></trkpt>
   <trkpt lon="7.105306" lat="46.031070"><ele>1504.75</ele></trkpt>
   <trkpt lon="7.105228" lat="46.031089"><ele>1505.75</ele></trkpt>
   <trkpt lon="7.105112" lat="46.031145"><ele>1505.75</ele></trkpt>
   <trkpt lon="7.104980" lat="46.031243"><ele>1504.0</ele></trkpt>
   <trkpt lon="7.104770" lat="46.031398"><ele>1504.25</ele></trkpt>
   <trkpt lon="7.104671" lat="46.031429"><ele>1504.75</ele></trkpt>
   <trkpt lon="7.104551" lat="46.031494"><ele>1504.5</ele></trkpt>
   <trkpt lon="7.104480" lat="46.031559"><ele>1505.5</ele></trkpt>
   <trkpt lon="7.104365" lat="46.031746"><ele>1506.25</ele></trkpt>
   <trkpt lon="7.104040" lat="46.032004"><ele>1506.75</ele></trkpt>
   <trkpt lon="7.103801" lat="46.032128"><ele>1507.25</ele></trkpt>
   <trkpt lon="7.103351" lat="46.032523"><ele>1508.75</ele></trkpt>
   <trkpt lon="7.103117" lat="46.032558"><ele>1511.75</ele></trkpt>
   <trkpt lon="7.102889" lat="46.032756"><ele>1510.5</ele></trkpt>
   <trkpt lon="7.102712" lat="46.032798"><ele>1511.5</ele></trkpt>
   <trkpt lon="7.102547" lat="46.032914"><ele>1511.5</ele></trkpt>
   <trkpt lon="7.102205" lat="46.033074"><ele>1512.25</ele></trkpt>
   <trkpt lon="7.101840" lat="46.033082"><ele>1510.5</ele></trkpt>
   <trkpt lon="7.101510" lat="46.033137"><ele>1509.5</ele></trkpt>
   <trkpt lon="7.101482" lat="46.033139"><ele>1509.5</ele></trkpt>
   <trkpt lon="7.101309" lat="46.033214"><ele>1507.75</ele></trkpt>
   <trkpt lon="7.101183" lat="46.033360"><ele>1502.75</ele></trkpt>
   <trkpt lon="7.101028" lat="46.033420"><ele>1498.25</ele></trkpt>
   <trkpt lon="7.100596" lat="46.033372"><ele>1493.5</ele></trkpt>
   <trkpt lon="7.100429" lat="46.033417"><ele>1490.0</ele></trkpt>
   <trkpt lon="7.100199" lat="46.033536"><ele>1484.25</ele></trkpt>
   <trkpt lon="7.100255" lat="46.033597"><ele>1480.0</ele></trkpt>
   <trkpt lon="7.100231" lat="46.033663"><ele>1477.25</ele></trkpt>
   <trkpt lon="7.100499" lat="46.033749"><ele>1474.5</ele></trkpt>
   <trkpt lon="7.100522" lat="46.033797"><ele>1473.0</ele></trkpt>
   <trkpt lon="7.100561" lat="46.033833"><ele>1472.0</ele></trkpt>
   <trkpt lon="7.100493" lat="46.033871"><ele>1469.75</ele></trkpt>
   <trkpt lon="7.100567" lat="46.033951"><ele>1468.75</ele></trkpt>
   <trkpt lon="7.100431" lat="46.033924"><ele>1467.75</ele></trkpt>
   <trkpt lon="7.100328" lat="46.033916"><ele>1467.0</ele></trkpt>
   <trkpt lon="7.100208" lat="46.033917"><ele>1466.25</ele></trkpt>
   <trkpt lon="7.099961" lat="46.033964"><ele>1464.25</ele></trkpt>
   <trkpt lon="7.099774" lat="46.033983"><ele>1463.25</ele></trkpt>
   <trkpt lon="7.099431" lat="46.033986"><ele>1461.25</ele></trkpt>
   <trkpt lon="7.099272" lat="46.034012"><ele>1460.25</ele></trkpt>
   <trkpt lon="7.099091" lat="46.034085"><ele>1458.5</ele></trkpt>
   <trkpt lon="7.098953" lat="46.034173"><ele>1456.75</ele></trkpt>
   <trkpt lon="7.098924" lat="46.034189"><ele>1456.5</ele></trkpt>
   <trkpt lon="7.098872" lat="46.034242"><ele>1455.75</ele></trkpt>
   <trkpt lon="7.098827" lat="46.034305"><ele>1455.5</ele></trkpt>
   <trkpt lon="7.098806" lat="46.034385"><ele>1454.25</ele></trkpt>
   <trkpt lon="7.098755" lat="46.034472"><ele>1453.5</ele></trkpt>
   <trkpt lon="7.098675" lat="46.034545"><ele>1452.5</ele></trkpt>
   <trkpt lon="7.098579" lat="46.034601"><ele>1451.75</ele></trkpt>
   <trkpt lon="7.098444" lat="46.034648"><ele>1452.25</ele></trkpt>
   <trkpt lon="7.098366" lat="46.034685"><ele>1451.5</ele></trkpt>
   <trkpt lon="7.098251" lat="46.034763"><ele>1450.75</ele></trkpt>
   <trkpt lon="7.098149" lat="46.034857"><ele>1449.5</ele></trkpt>
   <trkpt lon="7.097893" lat="46.035142"><ele>1445.25</ele></trkpt>
   <trkpt lon="7.097745" lat="46.035285"><ele>1442.75</ele></trkpt>
   <trkpt lon="7.097630" lat="46.035409"><ele>1442.25</ele></trkpt>
   <trkpt lon="7.097374" lat="46.035616"><ele>1440.5</ele></trkpt>
   <trkpt lon="7.097088" lat="46.035943"><ele>1436.75</ele></trkpt>
   <trkpt lon="7.097009" lat="46.036018"><ele>1435.5</ele></trkpt>
   <trkpt lon="7.096914" lat="46.036081"><ele>1433.5</ele></trkpt>
   <trkpt lon="7.096739" lat="46.036181"><ele>1431.0</ele></trkpt>
   <trkpt lon="7.096242" lat="46.036358"><ele>1429.25</ele></trkpt>
   <trkpt lon="7.096136" lat="46.036466"><ele>1428.25</ele></trkpt>
   <trkpt lon="7.096043" lat="46.036707"><ele>1428.25</ele></trkpt>
   <trkpt lon="7.095854" lat="46.037469"><ele>1428.0</ele></trkpt>
   <trkpt lon="7.095780" lat="46.037655"><ele>1427.25</ele></trkpt>
   <trkpt lon="7.095702" lat="46.037784"><ele>1426.25</ele></trkpt>
   <trkpt lon="7.095500" lat="46.038033"><ele>1422.75</ele></trkpt>
   <trkpt lon="7.095308" lat="46.038236"><ele>1420.5</ele></trkpt>
   <trkpt lon="7.094953" lat="46.038686"><ele>1416.0</ele></trkpt>
   <trkpt lon="7.094635" lat="46.039064"><ele>1412.75</ele></trkpt>
   <trkpt lon="7.094612" lat="46.039104"><ele>1412.5</ele></trkpt>
   <trkpt lon="7.094095" lat="46.039705"><ele>1408.5</ele></trkpt>
   <trkpt lon="7.094066" lat="46.039770"><ele>1407.5</ele></trkpt>
   <trkpt lon="7.094006" lat="46.039852"><ele>1406.75</ele></trkpt>
   <trkpt lon="7.093905" lat="46.039933"><ele>1406.25</ele></trkpt>
   <trkpt lon="7.093693" lat="46.039998"><ele>1405.75</ele></trkpt>
   <trkpt lon="7.093323" lat="46.040095"><ele>1403.5</ele></trkpt>
   <trkpt lon="7.093070" lat="46.040174"><ele>1403.5</ele></trkpt>
   <trkpt lon="7.092807" lat="46.040356"><ele>1401.75</ele></trkpt>
   <trkpt lon="7.092464" lat="46.040671"><ele>1400.5</ele></trkpt>
   <trkpt lon="7.092360" lat="46.040740"><ele>1400.0</ele></trkpt>
   <trkpt lon="7.092207" lat="46.040785"><ele>1400.5</ele></trkpt>
   <trkpt lon="7.092044" lat="46.040843"><ele>1399.75</ele></trkpt>
   <trkpt lon="7.091901" lat="46.040918"><ele>1399.25</ele></trkpt>
   <trkpt lon="7.091765" lat="46.041014"><ele>1399.25</ele></trkpt>
   <trkpt lon="7.091510" lat="46.041235"><ele>1397.75</ele></trkpt>
   <trkpt lon="7.091311" lat="46.041339"><ele>1397.75</ele></trkpt>
   <trkpt lon="7.090944" lat="46.041496"><ele>1397.0</ele></trkpt>
   <trkpt lon="7.090750" lat="46.041604"><ele>1396.0</ele></trkpt>
   <trkpt lon="7.090337" lat="46.041874"><ele>1395.0</ele></trkpt>
   <trkpt lon="7.090163" lat="46.042010"><ele>1394.5</ele></trkpt>
   <trkpt lon="7.090087" lat="46.042088"><ele>1393.75</ele></trkpt>
   <trkpt lon="7.089799" lat="46.042472"><ele>1390.5</ele></trkpt>
   <trkpt lon="7.089723" lat="46.042549"><ele>1389.5</ele></trkpt>
   <trkpt lon="7.089650" lat="46.042606"><ele>1388.25</ele></trkpt>
   <trkpt lon="7.089389" lat="46.042706"><ele>1390.25</ele></trkpt>
   <trkpt lon="7.089123" lat="46.042851"><ele>1389.5</ele></trkpt>
   <trkpt lon="7.089064" lat="46.042910"><ele>1390.25</ele></trkpt>
   <trkpt lon="7.089025" lat="46.042975"><ele>1390.0</ele></trkpt>
   <trkpt lon="7.089015" lat="46.043048"><ele>1389.0</ele></trkpt>
   <trkpt lon="7.089074" lat="46.043180"><ele>1388.25</ele></trkpt>
   <trkpt lon="7.089089" lat="46.043232"><ele>1387.75</ele></trkpt>
   <trkpt lon="7.089087" lat="46.043293"><ele>1387.75</ele></trkpt>
   <trkpt lon="7.088843" lat="46.043875"><ele>1385.75</ele></trkpt>
   <trkpt lon="7.088708" lat="46.044039"><ele>1386.75</ele></trkpt>
   <trkpt lon="7.088629" lat="46.044150"><ele>1387.5</ele></trkpt>
   <trkpt lon="7.088531" lat="46.044210"><ele>1388.25</ele></trkpt>
   <trkpt lon="7.088370" lat="46.044188"><ele>1391.0</ele></trkpt>
   <trkpt lon="7.088280" lat="46.044217"><ele>1392.0</ele></trkpt>
   <trkpt lon="7.088111" lat="46.044310"><ele>1394.0</ele></trkpt>
   <trkpt lon="7.088035" lat="46.044389"><ele>1394.25</ele></trkpt>
   <trkpt lon="7.087961" lat="46.044483"><ele>1393.75</ele></trkpt>
   <trkpt lon="7.087827" lat="46.044621"><ele>1392.25</ele></trkpt>
   <trkpt lon="7.087676" lat="46.044689"><ele>1392.5</ele></trkpt>
   <trkpt lon="7.087559" lat="46.044809"><ele>1393.0</ele></trkpt>
   <trkpt lon="7.087512" lat="46.045020"><ele>1392.25</ele></trkpt>
   <trkpt lon="7.087502" lat="46.045135"><ele>1390.5</ele></trkpt>
   <trkpt lon="7.087604" lat="46.045269"><ele>1386.5</ele></trkpt>
   <trkpt lon="7.087682" lat="46.045345"><ele>1383.75</ele></trkpt>
   <trkpt lon="7.087677" lat="46.045424"><ele>1382.0</ele></trkpt>
   <trkpt lon="7.087631" lat="46.045558"><ele>1379.5</ele></trkpt>
   <trkpt lon="7.087574" lat="46.045610"><ele>1378.75</ele></trkpt>
   <trkpt lon="7.087288" lat="46.045748"><ele>1378.0</ele></trkpt>
   <trkpt lon="7.087182" lat="46.045849"><ele>1375.75</ele></trkpt>
   <trkpt lon="7.087024" lat="46.045923"><ele>1374.5</ele></trkpt>
   <trkpt lon="7.086828" lat="46.046078"><ele>1370.25</ele></trkpt>
   <trkpt lon="7.086682" lat="46.046179"><ele>1368.0</ele></trkpt>
   <trkpt lon="7.086293" lat="46.046347"><ele>1365.5</ele></trkpt>
   <trkpt lon="7.086152" lat="46.046435"><ele>1363.75</ele></trkpt>
   <trkpt lon="7.086089" lat="46.046457"><ele>1364.0</ele></trkpt>
   <trkpt lon="7.085925" lat="46.046547"><ele>1366.25</ele></trkpt>
   <trkpt lon="7.085523" lat="46.046946"><ele>1368.25</ele></trkpt>
   <trkpt lon="7.085544" lat="46.047075"><ele>1365.5</ele></trkpt>
   <trkpt lon="7.085541" lat="46.047134"><ele>1364.75</ele></trkpt>
   <trkpt lon="7.085556" lat="46.047165"><ele>1363.75</ele></trkpt>
   <trkpt lon="7.085561" lat="46.047222"><ele>1362.75</ele></trkpt>
   <trkpt lon="7.085496" lat="46.047341"><ele>1358.75</ele></trkpt>
   <trkpt lon="7.085442" lat="46.047405"><ele>1357.0</ele></trkpt>
   <trkpt lon="7.085440" lat="46.047445"><ele>1355.0</ele></trkpt>
   <trkpt lon="7.085388" lat="46.047516"><ele>1353.0</ele></trkpt>
   <trkpt lon="7.085333" lat="46.047564"><ele>1352.0</ele></trkpt>
   <trkpt lon="7.085324" lat="46.047598"><ele>1350.75</ele></trkpt>
   <trkpt lon="7.085297" lat="46.047620"><ele>1350.25</ele></trkpt>
   <trkpt lon="7.085271" lat="46.047671"><ele>1348.5</ele></trkpt>
   <trkpt lon="7.085271" lat="46.047704"><ele>1346.75</ele></trkpt>
   <trkpt lon="7.085186" lat="46.047797"><ele>1345.0</ele></trkpt>
   <trkpt lon="7.085178" lat="46.047845"><ele>1343.25</ele></trkpt>
   <trkpt lon="7.085098" lat="46.047932"><ele>1341.25</ele></trkpt>
   <trkpt lon="7.085016" lat="46.048004"><ele>1339.5</ele></trkpt>
   <trkpt lon="7.084937" lat="46.048054"><ele>1338.75</ele></trkpt>
   <trkpt lon="7.084803" lat="46.048166"><ele>1337.0</ele></trkpt>
   <trkpt lon="7.084742" lat="46.048273"><ele>1332.75</ele></trkpt>
   <trkpt lon="7.084627" lat="46.048353"><ele>1329.75</ele></trkpt>
   <trkpt lon="7.084572" lat="46.048404"><ele>1327.75</ele></trkpt>
   <trkpt lon="7.084552" lat="46.048417"><ele>1327.25</ele></trkpt>
   <trkpt lon="7.084525" lat="46.048421"><ele>1327.25</ele></trkpt>
   <trkpt lon="7.084477" lat="46.048409"><ele>1328.0</ele></trkpt>
   <trkpt lon="7.084379" lat="46.048350"><ele>1328.5</ele></trkpt>
   <trkpt lon="7.084302" lat="46.048296"><ele>1327.75</ele></trkpt>
   <trkpt lon="7.084190" lat="46.048201"><ele>1327.0</ele></trkpt>
   <trkpt lon="7.083900" lat="46.048154"><ele>1323.75</ele></trkpt>
   <trkpt lon="7.083824" lat="46.048156"><ele>1323.5</ele></trkpt>
   <trkpt lon="7.083760" lat="46.048077"><ele>1326.25</ele></trkpt>
   <trkpt lon="7.083718" lat="46.048067"><ele>1326.5</ele></trkpt>
   <trkpt lon="7.083590" lat="46.048133"><ele>1324.25</ele></trkpt>
   <trkpt lon="7.083429" lat="46.048132"><ele>1324.75</ele></trkpt>
   <trkpt lon="7.083310" lat="46.048148"><ele>1324.75</ele></trkpt>
   <trkpt lon="7.083232" lat="46.048174"><ele>1324.75</ele></trkpt>
   <trkpt lon="7.083113" lat="46.048245"><ele>1323.75</ele></trkpt>
   <trkpt lon="7.083007" lat="46.048280"><ele>1324.75</ele></trkpt>
   <trkpt lon="7.082969" lat="46.048301"><ele>1325.25</ele></trkpt>
   <trkpt lon="7.082929" lat="46.048351"><ele>1325.0</ele></trkpt>
   <trkpt lon="7.082869" lat="46.048457"><ele>1324.25</ele></trkpt>
   <trkpt lon="7.082763" lat="46.048594"><ele>1325.0</ele></trkpt>
   <trkpt lon="7.082678" lat="46.048720"><ele>1327.5</ele></trkpt>
   <trkpt lon="7.082676" lat="46.048759"><ele>1327.0</ele></trkpt>
   <trkpt lon="7.082638" lat="46.048809"><ele>1328.25</ele></trkpt>
   <trkpt lon="7.082553" lat="46.048984"><ele>1331.5</ele></trkpt>
   <trkpt lon="7.082552" lat="46.049027"><ele>1331.5</ele></trkpt>
   <trkpt lon="7.082499" lat="46.049151"><ele>1334.0</ele></trkpt>
   <trkpt lon="7.082473" lat="46.049252"><ele>1332.75</ele></trkpt>
   <trkpt lon="7.082435" lat="46.049264"><ele>1332.5</ele></trkpt>
   <trkpt lon="7.082387" lat="46.049245"><ele>1333.0</ele></trkpt>
   <trkpt lon="7.082309" lat="46.049226"><ele>1333.75</ele></trkpt>
   <trkpt lon="7.082170" lat="46.049271"><ele>1332.0</ele></trkpt>
   <trkpt lon="7.082011" lat="46.049266"><ele>1331.0</ele></trkpt>
   <trkpt lon="7.081848" lat="46.049302"><ele>1329.5</ele></trkpt>
   <trkpt lon="7.081777" lat="46.049324"><ele>1328.75</ele></trkpt>
   <trkpt lon="7.081540" lat="46.049475"><ele>1325.0</ele></trkpt>
   <trkpt lon="7.081451" lat="46.049555"><ele>1323.25</ele></trkpt>
   <trkpt lon="7.081389" lat="46.049598"><ele>1322.5</ele></trkpt>
   <trkpt lon="7.081271" lat="46.049638"><ele>1321.75</ele></trkpt>
   <trkpt lon="7.081257" lat="46.049655"><ele>1321.5</ele></trkpt>
   <trkpt lon="7.080896" lat="46.049695"><ele>1322.25</ele></trkpt>
   <trkpt lon="7.080704" lat="46.049691"><ele>1322.75</ele></trkpt>
   <trkpt lon="7.080485" lat="46.049666"><ele>1324.0</ele></trkpt>
   <trkpt lon="7.080383" lat="46.049664"><ele>1324.5</ele></trkpt>
   <trkpt lon="7.080199" lat="46.049662"><ele>1325.5</ele></trkpt>
   <trkpt lon="7.080071" lat="46.049686"><ele>1326.25</ele></trkpt>
   <trkpt lon="7.079942" lat="46.049723"><ele>1326.75</ele></trkpt>
   <trkpt lon="7.079489" lat="46.049925"><ele>1331.0</ele></trkpt>
   <trkpt lon="7.079343" lat="46.049975"><ele>1331.0</ele></trkpt>
   <trkpt lon="7.079191" lat="46.050020"><ele>1330.5</ele></trkpt>
   <trkpt lon="7.078865" lat="46.050072"><ele>1329.25</ele></trkpt>
   <trkpt lon="7.078544" lat="46.050138"><ele>1331.75</ele></trkpt>
   <trkpt lon="7.077631" lat="46.050499"><ele>1334.75</ele></trkpt>
   <trkpt lon="7.077323" lat="46.050671"><ele>1336.0</ele></trkpt>
   <trkpt lon="7.077084" lat="46.050814"><ele>1337.5</ele></trkpt>
   <trkpt lon="7.076903" lat="46.050935"><ele>1339.25</ele></trkpt>
   <trkpt lon="7.076793" lat="46.051054"><ele>1338.5</ele></trkpt>
   <trkpt lon="7.076639" lat="46.051177"><ele>1338.75</ele></trkpt>
   <trkpt lon="7.076493" lat="46.051277"><ele>1339.25</ele></trkpt>
   <trkpt lon="7.076346" lat="46.051347"><ele>1340.0</ele></trkpt>
   <trkpt lon="7.075990" lat="46.051454"><ele>1342.0</ele></trkpt>
   <trkpt lon="7.075857" lat="46.051506"><ele>1342.25</ele></trkpt>
   <trkpt lon="7.075732" lat="46.051580"><ele>1343.0</ele></trkpt>
   <trkpt lon="7.075326" lat="46.051887"><ele>1344.75</ele></trkpt>
   <trkpt lon="7.075177" lat="46.051990"><ele>1343.75</ele></trkpt>
   <trkpt lon="7.075019" lat="46.052060"><ele>1343.75</ele></trkpt>
   <trkpt lon="7.074804" lat="46.052124"><ele>1345.5</ele></trkpt>
   <trkpt lon="7.074494" lat="46.052180"><ele>1348.5</ele></trkpt>
   <trkpt lon="7.074344" lat="46.052239"><ele>1349.0</ele></trkpt>
   <trkpt lon="7.074142" lat="46.052333"><ele>1348.75</ele></trkpt>
   <trkpt lon="7.073991" lat="46.052378"><ele>1349.0</ele></trkpt>
   <trkpt lon="7.073843" lat="46.052391"><ele>1350.0</ele></trkpt>
   <trkpt lon="7.073702" lat="46.052390"><ele>1349.5</ele></trkpt>
   <trkpt lon="7.073596" lat="46.052350"><ele>1351.25</ele></trkpt>
   <trkpt lon="7.073506" lat="46.052284"><ele>1353.0</ele></trkpt>
   <trkpt lon="7.073399" lat="46.052239"><ele>1353.25</ele></trkpt>
   <trkpt lon="7.073183" lat="46.052191"><ele>1353.0</ele></trkpt>
   <trkpt lon="7.073013" lat="46.052175"><ele>1352.5</ele></trkpt>
   <trkpt lon="7.072613" lat="46.052155"><ele>1353.0</ele></trkpt>
   <trkpt lon="7.072451" lat="46.052136"><ele>1351.25</ele></trkpt>
   <trkpt lon="7.072384" lat="46.052122"><ele>1349.5</ele></trkpt>
   <trkpt lon="7.072338" lat="46.052097"><ele>1350.0</ele></trkpt>
   <trkpt lon="7.072148" lat="46.051948"><ele>1356.25</ele></trkpt>
   <trkpt lon="7.072011" lat="46.051869"><ele>1356.5</ele></trkpt>
   <trkpt lon="7.071837" lat="46.051784"><ele>1355.75</ele></trkpt>
   <trkpt lon="7.071700" lat="46.051684"><ele>1357.0</ele></trkpt>
   <trkpt lon="7.071515" lat="46.051521"><ele>1358.5</ele></trkpt>
   <trkpt lon="7.071308" lat="46.051315"><ele>1363.75</ele></trkpt>
   <trkpt lon="7.071010" lat="46.051101"><ele>1365.5</ele></trkpt>
   <trkpt lon="7.070930" lat="46.051028"><ele>1366.0</ele></trkpt>
   <trkpt lon="7.070832" lat="46.050924"><ele>1366.0</ele></trkpt>
   <trkpt lon="7.070481" lat="46.050609"><ele>1372.25</ele></trkpt>
   <trkpt lon="7.070353" lat="46.050550"><ele>1371.75</ele></trkpt>
   <trkpt lon="7.070226" lat="46.050463"><ele>1372.75</ele></trkpt>
   <trkpt lon="7.070138" lat="46.050360"><ele>1375.0</ele></trkpt>
   <trkpt lon="7.070054" lat="46.050246"><ele>1377.25</ele></trkpt>
   <trkpt lon="7.070012" lat="46.050163"><ele>1378.5</ele></trkpt>
   <trkpt lon="7.069699" lat="46.049800"><ele>1383.0</ele></trkpt>
   <trkpt lon="7.069047" lat="46.049319"><ele>1388.25</ele></trkpt>
   <trkpt lon="7.068750" lat="46.049136"><ele>1390.0</ele></trkpt>
   <trkpt lon="7.068670" lat="46.049061"><ele>1391.75</ele></trkpt>
   <trkpt lon="7.068283" lat="46.048750"><ele>1394.75</ele></trkpt>
   <trkpt lon="7.068204" lat="46.048660"><ele>1397.25</ele></trkpt>
   <trkpt lon="7.067986" lat="46.048476"><ele>1401.75</ele></trkpt>
   <trkpt lon="7.067936" lat="46.048418"><ele>1403.5</ele></trkpt>
   <trkpt lon="7.067848" lat="46.048364"><ele>1403.25</ele></trkpt>
   <trkpt lon="7.067744" lat="46.048318"><ele>1402.75</ele></trkpt>
   <trkpt lon="7.067648" lat="46.048284"><ele>1403.5</ele></trkpt>
   <trkpt lon="7.067532" lat="46.048261"><ele>1402.0</ele></trkpt>
   <trkpt lon="7.067458" lat="46.048205"><ele>1403.5</ele></trkpt>
   <trkpt lon="7.067372" lat="46.048117"><ele>1406.0</ele></trkpt>
   <trkpt lon="7.067231" lat="46.048021"><ele>1407.25</ele></trkpt>
   <trkpt lon="7.067127" lat="46.047960"><ele>1410.0</ele></trkpt>
   <trkpt lon="7.067044" lat="46.047930"><ele>1411.25</ele></trkpt>
   <trkpt lon="7.066919" lat="46.047927"><ele>1409.25</ele></trkpt>
   <trkpt lon="7.066827" lat="46.047916"><ele>1408.25</ele></trkpt>
   <trkpt lon="7.066653" lat="46.047802"><ele>1412.0</ele></trkpt>
   <trkpt lon="7.066558" lat="46.047749"><ele>1415.0</ele></trkpt>
   <trkpt lon="7.066484" lat="46.047741"><ele>1414.75</ele></trkpt>
   <trkpt lon="7.066307" lat="46.047754"><ele>1412.0</ele></trkpt>
   <trkpt lon="7.066013" lat="46.047700"><ele>1413.5</ele></trkpt>
   <trkpt lon="7.065885" lat="46.047653"><ele>1415.25</ele></trkpt>
   <trkpt lon="7.065845" lat="46.047621"><ele>1416.25</ele></trkpt>
   <trkpt lon="7.065600" lat="46.047276"><ele>1428.75</ele></trkpt>
   <trkpt lon="7.065433" lat="46.047181"><ele>1432.75</ele></trkpt>
   <trkpt lon="7.065255" lat="46.047101"><ele>1436.5</ele></trkpt>
   <trkpt lon="7.065030" lat="46.047053"><ele>1439.25</ele></trkpt>
   <trkpt lon="7.065024" lat="46.046960"><ele>1442.25</ele></trkpt>
   <trkpt lon="7.064968" lat="46.046931"><ele>1443.5</ele></trkpt>
   <trkpt lon="7.064960" lat="46.046899"><ele>1444.5</ele></trkpt>
   <trkpt lon="7.064924" lat="46.046874"><ele>1445.75</ele></trkpt>
   <trkpt lon="7.064815" lat="46.046827"><ele>1447.75</ele></trkpt>
   <trkpt lon="7.064601" lat="46.046673"><ele>1453.0</ele></trkpt>
   <trkpt lon="7.064427" lat="46.046599"><ele>1456.5</ele></trkpt>
   <trkpt lon="7.064151" lat="46.046468"><ele>1462.75</ele></trkpt>
   <trkpt lon="7.064082" lat="46.046444"><ele>1463.75</ele></trkpt>
   <trkpt lon="7.064002" lat="46.046397"><ele>1466.5</ele></trkpt>
   <trkpt lon="7.063770" lat="46.046322"><ele>1471.0</ele></trkpt>
   <trkpt lon="7.063687" lat="46.046264"><ele>1474.0</ele></trkpt>
   <trkpt lon="7.063582" lat="46.046219"><ele>1476.25</ele></trkpt>
   <trkpt lon="7.063481" lat="46.046187"><ele>1477.5</ele></trkpt>
   <trkpt lon="7.063197" lat="46.046172"><ele>1479.5</ele></trkpt>
   <trkpt lon="7.062941" lat="46.046124"><ele>1484.25</ele></trkpt>
   <trkpt lon="7.062620" lat="46.046037"><ele>1488.5</ele></trkpt>
   <trkpt lon="7.062459" lat="46.045983"><ele>1490.25</ele></trkpt>
   <trkpt lon="7.062346" lat="46.045935"><ele>1492.0</ele></trkpt>
   <trkpt lon="7.062227" lat="46.045859"><ele>1495.5</ele></trkpt>
   <trkpt lon="7.062130" lat="46.045789"><ele>1497.75</ele></trkpt>
   <trkpt lon="7.062030" lat="46.045704"><ele>1500.5</ele></trkpt>
   <trkpt lon="7.061933" lat="46.045542"><ele>1506.25</ele></trkpt>
   <trkpt lon="7.061811" lat="46.045417"><ele>1510.75</ele></trkpt>
   <trkpt lon="7.061681" lat="46.045368"><ele>1511.75</ele></trkpt>
   <trkpt lon="7.061621" lat="46.045299"><ele>1514.0</ele></trkpt>
   <trkpt lon="7.061439" lat="46.045182"><ele>1517.75</ele></trkpt>
   <trkpt lon="7.061366" lat="46.045173"><ele>1518.0</ele></trkpt>
   <trkpt lon="7.061241" lat="46.045105"><ele>1521.0</ele></trkpt>
   <trkpt lon="7.061152" lat="46.045114"><ele>1520.75</ele></trkpt>
   <trkpt lon="7.061110" lat="46.045098"><ele>1521.25</ele></trkpt>
   <trkpt lon="7.061078" lat="46.045012"><ele>1524.5</ele></trkpt>
   <trkpt lon="7.060953" lat="46.044877"><ele>1529.75</ele></trkpt>
   <trkpt lon="7.060900" lat="46.044826"><ele>1531.75</ele></trkpt>
   <trkpt lon="7.060789" lat="46.044782"><ele>1532.0</ele></trkpt>
   <trkpt lon="7.060764" lat="46.044744"><ele>1532.75</ele></trkpt>
   <trkpt lon="7.060756" lat="46.044673"><ele>1535.75</ele></trkpt>
   <trkpt lon="7.060643" lat="46.044494"><ele>1543.25</ele></trkpt>
   <trkpt lon="7.060776" lat="46.044386"><ele>1549.25</ele></trkpt>
   <trkpt lon="7.060855" lat="46.044347"><ele>1551.0</ele></trkpt>
   <trkpt lon="7.060874" lat="46.044318"><ele>1552.5</ele></trkpt>
   <trkpt lon="7.060865" lat="46.044288"><ele>1553.75</ele></trkpt>
   <trkpt lon="7.060803" lat="46.044246"><ele>1555.5</ele></trkpt>
   <trkpt lon="7.060781" lat="46.044219"><ele>1556.5</ele></trkpt>
   <trkpt lon="7.060748" lat="46.044130"><ele>1560.5</ele></trkpt>
   <trkpt lon="7.060726" lat="46.044106"><ele>1561.75</ele></trkpt>
   <trkpt lon="7.060618" lat="46.044089"><ele>1562.5</ele></trkpt>
   <trkpt lon="7.060497" lat="46.044028"><ele>1565.25</ele></trkpt>
   <trkpt lon="7.060320" lat="46.043978"><ele>1567.25</ele></trkpt>
   <trkpt lon="7.060255" lat="46.043949"><ele>1568.75</ele></trkpt>
   <trkpt lon="7.060204" lat="46.043902"><ele>1571.25</ele></trkpt>
   <trkpt lon="7.060159" lat="46.043884"><ele>1572.0</ele></trkpt>
   <trkpt lon="7.060020" lat="46.043860"><ele>1573.25</ele></trkpt>
   <trkpt lon="7.059992" lat="46.043871"><ele>1573.0</ele></trkpt>
   <trkpt lon="7.059936" lat="46.043905"><ele>1573.75</ele></trkpt>
   <trkpt lon="7.059931" lat="46.043941"><ele>1572.5</ele></trkpt>
   <trkpt lon="7.059763" lat="46.044024"><ele>1575.5</ele></trkpt>
   <trkpt lon="7.059655" lat="46.044063"><ele>1578.0</ele></trkpt>
   <trkpt lon="7.059567" lat="46.044057"><ele>1581.5</ele></trkpt>
   <trkpt lon="7.059576" lat="46.044023"><ele>1582.25</ele></trkpt>
   <trkpt lon="7.059614" lat="46.043999"><ele>1581.75</ele></trkpt>
   <trkpt lon="7.059614" lat="46.043957"><ele>1583.0</ele></trkpt>
   <trkpt lon="7.059575" lat="46.043935"><ele>1585.25</ele></trkpt>
   <trkpt lon="7.059562" lat="46.043900"><ele>1586.75</ele></trkpt>
   <trkpt lon="7.059533" lat="46.043891"><ele>1588.0</ele></trkpt>
   <trkpt lon="7.059399" lat="46.043949"><ele>1590.5</ele></trkpt>
   <trkpt lon="7.059336" lat="46.043988"><ele>1591.5</ele></trkpt>
   <trkpt lon="7.059258" lat="46.044017"><ele>1593.25</ele></trkpt>
   <trkpt lon="7.059199" lat="46.044056"><ele>1594.25</ele></trkpt>
   <trkpt lon="7.059078" lat="46.044065"><ele>1598.5</ele></trkpt>
   <trkpt lon="7.058937" lat="46.044185"><ele>1601.5</ele></trkpt>
   <trkpt lon="7.058822" lat="46.044223"><ele>1604.5</ele></trkpt>
   <trkpt lon="7.058764" lat="46.044251"><ele>1605.5</ele></trkpt>
   <trkpt lon="7.058722" lat="46.044299"><ele>1605.5</ele></trkpt>
   <trkpt lon="7.058615" lat="46.044296"><ele>1608.5</ele></trkpt>
   <trkpt lon="7.058543" lat="46.044308"><ele>1610.5</ele></trkpt>
   <trkpt lon="7.058477" lat="46.044337"><ele>1612.0</ele></trkpt>
   <trkpt lon="7.058423" lat="46.044375"><ele>1612.75</ele></trkpt>
   <trkpt lon="7.058345" lat="46.044409"><ele>1614.5</ele></trkpt>
   <trkpt lon="7.058299" lat="46.044454"><ele>1614.5</ele></trkpt>
   <trkpt lon="7.058237" lat="46.044466"><ele>1615.5</ele></trkpt>
   <trkpt lon="7.058187" lat="46.044473"><ele>1616.25</ele></trkpt>
   <trkpt lon="7.058132" lat="46.044452"><ele>1618.0</ele></trkpt>
   <trkpt lon="7.058093" lat="46.044428"><ele>1619.5</ele></trkpt>
   <trkpt lon="7.058110" lat="46.044321"><ele>1621.5</ele></trkpt>
   <trkpt lon="7.058073" lat="46.044279"><ele>1623.0</ele></trkpt>
   <trkpt lon="7.057976" lat="46.044243"><ele>1624.75</ele></trkpt>
   <trkpt lon="7.057906" lat="46.044228"><ele>1625.75</ele></trkpt>
   <trkpt lon="7.057801" lat="46.044189"><ele>1627.25</ele></trkpt>
   <trkpt lon="7.057698" lat="46.044187"><ele>1628.0</ele></trkpt>
   <trkpt lon="7.057610" lat="46.044195"><ele>1628.5</ele></trkpt>
   <trkpt lon="7.057457" lat="46.044232"><ele>1628.75</ele></trkpt>
   <trkpt lon="7.057345" lat="46.044241"><ele>1629.75</ele></trkpt>
   <trkpt lon="7.057292" lat="46.044253"><ele>1630.0</ele></trkpt>
   <trkpt lon="7.057270" lat="46.044279"><ele>1629.75</ele></trkpt>
   <trkpt lon="7.057254" lat="46.044322"><ele>1629.25</ele></trkpt>
   <trkpt lon="7.057255" lat="46.044386"><ele>1628.25</ele></trkpt>
   <trkpt lon="7.057182" lat="46.044453"><ele>1626.75</ele></trkpt>
   <trkpt lon="7.057171" lat="46.044499"><ele>1625.0</ele></trkpt>
   <trkpt lon="7.057105" lat="46.044553"><ele>1621.5</ele></trkpt>
   <trkpt lon="7.057048" lat="46.044547"><ele>1620.0</ele></trkpt>
   <trkpt lon="7.056890" lat="46.044459"><ele>1621.25</ele></trkpt>
   <trkpt lon="7.056810" lat="46.044435"><ele>1622.25</ele></trkpt>
   <trkpt lon="7.056764" lat="46.044439"><ele>1622.0</ele></trkpt>
   <trkpt lon="7.056702" lat="46.044543"><ele>1618.75</ele></trkpt>
   <trkpt lon="7.056637" lat="46.044611"><ele>1617.75</ele></trkpt>
   <trkpt lon="7.056598" lat="46.044686"><ele>1616.25</ele></trkpt>
   <trkpt lon="7.056511" lat="46.044763"><ele>1615.75</ele></trkpt>
   <trkpt lon="7.056433" lat="46.044813"><ele>1615.5</ele></trkpt>
   <trkpt lon="7.056282" lat="46.044874"><ele>1615.0</ele></trkpt>
   <trkpt lon="7.056173" lat="46.045008"><ele>1612.25</ele></trkpt>
   <trkpt lon="7.056124" lat="46.045053"><ele>1611.5</ele></trkpt>
   <trkpt lon="7.056095" lat="46.045098"><ele>1611.0</ele></trkpt>
   <trkpt lon="7.056079" lat="46.045163"><ele>1610.0</ele></trkpt>
   <trkpt lon="7.056032" lat="46.045200"><ele>1610.25</ele></trkpt>
   <trkpt lon="7.056018" lat="46.045220"><ele>1610.5</ele></trkpt>
   <trkpt lon="7.056011" lat="46.045293"><ele>1610.0</ele></trkpt>
   <trkpt lon="7.056028" lat="46.045319"><ele>1610.0</ele></trkpt>
   <trkpt lon="7.056219" lat="46.045451"><ele>1604.75</ele></trkpt>
   <trkpt lon="7.056241" lat="46.045544"><ele>1603.25</ele></trkpt>
   <trkpt lon="7.056225" lat="46.045615"><ele>1605.25</ele></trkpt>
   <trkpt lon="7.056227" lat="46.045805"><ele>1608.75</ele></trkpt>
   <trkpt lon="7.056244" lat="46.045877"><ele>1610.25</ele></trkpt>
   <trkpt lon="7.056281" lat="46.045952"><ele>1611.5</ele></trkpt>
   <trkpt lon="7.056270" lat="46.046019"><ele>1615.25</ele></trkpt>
   <trkpt lon="7.056292" lat="46.046071"><ele>1616.25</ele></trkpt>
   <trkpt lon="7.056362" lat="46.046104"><ele>1613.25</ele></trkpt>
   <trkpt lon="7.056431" lat="46.046186"><ele>1614.75</ele></trkpt>
   <trkpt lon="7.056584" lat="46.046296"><ele>1613.25</ele></trkpt>
   <trkpt lon="7.056745" lat="46.046432"><ele>1615.5</ele></trkpt>
   <trkpt lon="7.056823" lat="46.046545"><ele>1621.25</ele></trkpt>
   <trkpt lon="7.056879" lat="46.046679"><ele>1627.75</ele></trkpt>
   <trkpt lon="7.056960" lat="46.046802"><ele>1632.0</ele></trkpt>
   <trkpt lon="7.057142" lat="46.046989"><ele>1635.25</ele></trkpt>
   <trkpt lon="7.057206" lat="46.047097"><ele>1638.0</ele></trkpt>
   <trkpt lon="7.057346" lat="46.047478"><ele>1650.5</ele></trkpt>
   <trkpt lon="7.057358" lat="46.047577"><ele>1654.0</ele></trkpt>
   <trkpt lon="7.057343" lat="46.047688"><ele>1659.0</ele></trkpt>
   <trkpt lon="7.057315" lat="46.047797"><ele>1664.75</ele></trkpt>
   <trkpt lon="7.057326" lat="46.047905"><ele>1669.25</ele></trkpt>
   <trkpt lon="7.057357" lat="46.048050"><ele>1674.25</ele></trkpt>
   <trkpt lon="7.057398" lat="46.048175"><ele>1679.25</ele></trkpt>
   <trkpt lon="7.057438" lat="46.048209"><ele>1679.0</ele></trkpt>
   <trkpt lon="7.057498" lat="46.048321"><ele>1682.25</ele></trkpt>
   <trkpt lon="7.057553" lat="46.048370"><ele>1682.25</ele></trkpt>
   <trkpt lon="7.057555" lat="46.048479"><ele>1687.5</ele></trkpt>
   <trkpt lon="7.057596" lat="46.048666"><ele>1695.25</ele></trkpt>
   <trkpt lon="7.057627" lat="46.048769"><ele>1700.5</ele></trkpt>
   <trkpt lon="7.057672" lat="46.048834"><ele>1702.75</ele></trkpt>
   <trkpt lon="7.057731" lat="46.048878"><ele>1703.25</ele></trkpt>
   <trkpt lon="7.057788" lat="46.048907"><ele>1702.5</ele></trkpt>
   <trkpt lon="7.057817" lat="46.048965"><ele>1705.0</ele></trkpt>
   <trkpt lon="7.057858" lat="46.049006"><ele>1705.5</ele></trkpt>
   <trkpt lon="7.058027" lat="46.049137"><ele>1705.5</ele></trkpt>
   <trkpt lon="7.058215" lat="46.049373"><ele>1710.5</ele></trkpt>
   <trkpt lon="7.058414" lat="46.049694"><ele>1716.5</ele></trkpt>
   <trkpt lon="7.058412" lat="46.049786"><ele>1719.0</ele></trkpt>
   <trkpt lon="7.058247" lat="46.050089"><ele>1732.0</ele></trkpt>
   <trkpt lon="7.058110" lat="46.049940"><ele>1737.75</ele></trkpt>
   <trkpt lon="7.058046" lat="46.049883"><ele>1740.25</ele></trkpt>
   <trkpt lon="7.057998" lat="46.049819"><ele>1741.75</ele></trkpt>
   <trkpt lon="7.057895" lat="46.049753"><ele>1745.75</ele></trkpt>
   <trkpt lon="7.057747" lat="46.049692"><ele>1750.75</ele></trkpt>
   <trkpt lon="7.057607" lat="46.049618"><ele>1754.25</ele></trkpt>
   <trkpt lon="7.057546" lat="46.049571"><ele>1755.5</ele></trkpt>
   <trkpt lon="7.057392" lat="46.049420"><ele>1755.5</ele></trkpt>
   <trkpt lon="7.057327" lat="46.049395"><ele>1756.75</ele></trkpt>
   <trkpt lon="7.057229" lat="46.049368"><ele>1759.5</ele></trkpt>
   <trkpt lon="7.057126" lat="46.049312"><ele>1761.5</ele></trkpt>
   <trkpt lon="7.057090" lat="46.049253"><ele>1761.5</ele></trkpt>
   <trkpt lon="7.057039" lat="46.049197"><ele>1762.5</ele></trkpt>
   <trkpt lon="7.056967" lat="46.049146"><ele>1764.5</ele></trkpt>
   <trkpt lon="7.056927" lat="46.049178"><ele>1768.0</ele></trkpt>
   <trkpt lon="7.056889" lat="46.049231"><ele>1770.5</ele></trkpt>
   <trkpt lon="7.056838" lat="46.049335"><ele>1774.0</ele></trkpt>
   <trkpt lon="7.056831" lat="46.049392"><ele>1775.0</ele></trkpt>
   <trkpt lon="7.056803" lat="46.049408"><ele>1776.25</ele></trkpt>
   <trkpt lon="7.056779" lat="46.049440"><ele>1777.5</ele></trkpt>
   <trkpt lon="7.056813" lat="46.049506"><ele>1780.0</ele></trkpt>
   <trkpt lon="7.056732" lat="46.049509"><ele>1782.75</ele></trkpt>
   <trkpt lon="7.056657" lat="46.049492"><ele>1784.75</ele></trkpt>
   <trkpt lon="7.056635" lat="46.049457"><ele>1784.0</ele></trkpt>
   <trkpt lon="7.056626" lat="46.049406"><ele>1783.75</ele></trkpt>
   <trkpt lon="7.056556" lat="46.049529"><ele>1790.75</ele></trkpt>
   <trkpt lon="7.056575" lat="46.049569"><ele>1791.75</ele></trkpt>
   <trkpt lon="7.056637" lat="46.049611"><ele>1791.25</ele></trkpt>
   <trkpt lon="7.056533" lat="46.049620"><ele>1795.5</ele></trkpt>
   <trkpt lon="7.056460" lat="46.049611"><ele>1797.75</ele></trkpt>
   <trkpt lon="7.056366" lat="46.049577"><ele>1800.0</ele></trkpt>
   <trkpt lon="7.056300" lat="46.049498"><ele>1801.0</ele></trkpt>
   <trkpt lon="7.056257" lat="46.049416"><ele>1802.0</ele></trkpt>
   <trkpt lon="7.056227" lat="46.049333"><ele>1803.25</ele></trkpt>
   <trkpt lon="7.056200" lat="46.049288"><ele>1804.25</ele></trkpt>
   <trkpt lon="7.056140" lat="46.049225"><ele>1807.0</ele></trkpt>
   <trkpt lon="7.056083" lat="46.049338"><ele>1810.5</ele></trkpt>
   <trkpt lon="7.056037" lat="46.049410"><ele>1813.0</ele></trkpt>
   <trkpt lon="7.055895" lat="46.049554"><ele>1819.75</ele></trkpt>
   <trkpt lon="7.055857" lat="46.049608"><ele>1821.25</ele></trkpt>
   <trkpt lon="7.055773" lat="46.049668"><ele>1823.75</ele></trkpt>
   <trkpt lon="7.055757" lat="46.049672"><ele>1824.25</ele></trkpt>
   <trkpt lon="7.055642" lat="46.049516"><ele>1829.0</ele></trkpt>
   <trkpt lon="7.055581" lat="46.049513"><ele>1831.0</ele></trkpt>
   <trkpt lon="7.055512" lat="46.049544"><ele>1833.25</ele></trkpt>
   <trkpt lon="7.055461" lat="46.049602"><ele>1834.25</ele></trkpt>
   <trkpt lon="7.055378" lat="46.049739"><ele>1836.5</ele></trkpt>
   <trkpt lon="7.055389" lat="46.049810"><ele>1839.0</ele></trkpt>
   <trkpt lon="7.055418" lat="46.049906"><ele>1841.5</ele></trkpt>
   <trkpt lon="7.055538" lat="46.050176"><ele>1849.75</ele></trkpt>
   <trkpt lon="7.055678" lat="46.050529"><ele>1860.0</ele></trkpt>
   <trkpt lon="7.055720" lat="46.050668"><ele>1862.25</ele></trkpt>
   <trkpt lon="7.055755" lat="46.050860"><ele>1865.5</ele></trkpt>
   <trkpt lon="7.055771" lat="46.051006"><ele>1867.75</ele></trkpt>
   <trkpt lon="7.055763" lat="46.051164"><ele>1871.5</ele></trkpt>
   <trkpt lon="7.055867" lat="46.051558"><ele>1876.0</ele></trkpt>
   <trkpt lon="7.055905" lat="46.051750"><ele>1876.75</ele></trkpt>
   <trkpt lon="7.055891" lat="46.051899"><ele>1878.0</ele></trkpt>
   <trkpt lon="7.055906" lat="46.051994"><ele>1879.0</ele></trkpt>
   <trkpt lon="7.055975" lat="46.052087"><ele>1879.5</ele></trkpt>
   <trkpt lon="7.056099" lat="46.052223"><ele>1880.25</ele></trkpt>
   <trkpt lon="7.056171" lat="46.052352"><ele>1880.25</ele></trkpt>
   <trkpt lon="7.056184" lat="46.052442"><ele>1881.5</ele></trkpt>
   <trkpt lon="7.056176" lat="46.052603"><ele>1883.5</ele></trkpt>
   <trkpt lon="7.056139" lat="46.052878"><ele>1887.0</ele></trkpt>
   <trkpt lon="7.056072" lat="46.053208"><ele>1890.75</ele></trkpt>
   <trkpt lon="7.055989" lat="46.053370"><ele>1893.5</ele></trkpt>
   <trkpt lon="7.055884" lat="46.053526"><ele>1896.25</ele></trkpt>
   <trkpt lon="7.055690" lat="46.053874"><ele>1900.25</ele></trkpt>
   <trkpt lon="7.055613" lat="46.054051"><ele>1903.25</ele></trkpt>
   <trkpt lon="7.055576" lat="46.054159"><ele>1904.75</ele></trkpt>
   <trkpt lon="7.055502" lat="46.054464"><ele>1908.25</ele></trkpt>
   <trkpt lon="7.055490" lat="46.054582"><ele>1910.5</ele></trkpt>
   <trkpt lon="7.055499" lat="46.054688"><ele>1911.25</ele></trkpt>
   <trkpt lon="7.055534" lat="46.054807"><ele>1911.5</ele></trkpt>
   <trkpt lon="7.055553" lat="46.054873"><ele>1911.75</ele></trkpt>
   <trkpt lon="7.055533" lat="46.055135"><ele>1915.5</ele></trkpt>
   <trkpt lon="7.055433" lat="46.055413"><ele>1920.5</ele></trkpt>
   <trkpt lon="7.055407" lat="46.055466"><ele>1921.5</ele></trkpt>
   <trkpt lon="7.055321" lat="46.055749"><ele>1923.75</ele></trkpt>
   <trkpt lon="7.055267" lat="46.055849"><ele>1924.75</ele></trkpt>
   <trkpt lon="7.055164" lat="46.055930"><ele>1924.25</ele></trkpt>
   <trkpt lon="7.054970" lat="46.055946"><ele>1927.75</ele></trkpt>
   <trkpt lon="7.054661" lat="46.055952"><ele>1931.0</ele></trkpt>
   <trkpt lon="7.054469" lat="46.055929"><ele>1933.25</ele></trkpt>
   <trkpt lon="7.054038" lat="46.055893"><ele>1937.75</ele></trkpt>
   <trkpt lon="7.053856" lat="46.055901"><ele>1938.75</ele></trkpt>
   <trkpt lon="7.053174" lat="46.055867"><ele>1944.75</ele></trkpt>
   <trkpt lon="7.052847" lat="46.055815"><ele>1947.75</ele></trkpt>
   <trkpt lon="7.052584" lat="46.055759"><ele>1950.75</ele></trkpt>
   <trkpt lon="7.052343" lat="46.055748"><ele>1952.75</ele></trkpt>
   <trkpt lon="7.052065" lat="46.055749"><ele>1955.75</ele></trkpt>
   <trkpt lon="7.051785" lat="46.055774"><ele>1957.75</ele></trkpt>
   <trkpt lon="7.051614" lat="46.055778"><ele>1959.0</ele></trkpt>
   <trkpt lon="7.051437" lat="46.055767"><ele>1960.25</ele></trkpt>
   <trkpt lon="7.051292" lat="46.055688"><ele>1963.25</ele></trkpt>
   <trkpt lon="7.051152" lat="46.055659"><ele>1963.75</ele></trkpt>
   <trkpt lon="7.050884" lat="46.055659"><ele>1965.0</ele></trkpt>
   <trkpt lon="7.050681" lat="46.055585"><ele>1968.5</ele></trkpt>
   <trkpt lon="7.050487" lat="46.055539"><ele>1970.0</ele></trkpt>
   <trkpt lon="7.050380" lat="46.055544"><ele>1970.5</ele></trkpt>
   <trkpt lon="7.050217" lat="46.055536"><ele>1972.0</ele></trkpt>
   <trkpt lon="7.050169" lat="46.055520"><ele>1972.75</ele></trkpt>
   <trkpt lon="7.050051" lat="46.055456"><ele>1974.75</ele></trkpt>
   <trkpt lon="7.049896" lat="46.055404"><ele>1975.5</ele></trkpt>
   <trkpt lon="7.049661" lat="46.055365"><ele>1976.0</ele></trkpt>
   <trkpt lon="7.049554" lat="46.055360"><ele>1976.0</ele></trkpt>
   <trkpt lon="7.049523" lat="46.055349"><ele>1976.0</ele></trkpt>
   <trkpt lon="7.049484" lat="46.055315"><ele>1976.75</ele></trkpt>
   <trkpt lon="7.049439" lat="46.055293"><ele>1977.5</ele></trkpt>
   <trkpt lon="7.049389" lat="46.055278"><ele>1978.5</ele></trkpt>
   <trkpt lon="7.049346" lat="46.055280"><ele>1978.75</ele></trkpt>
   <trkpt lon="7.049308" lat="46.055294"><ele>1978.75</ele></trkpt>
   <trkpt lon="7.049284" lat="46.055296"><ele>1979.0</ele></trkpt>
   <trkpt lon="7.049211" lat="46.055278"><ele>1980.5</ele></trkpt>
   <trkpt lon="7.049169" lat="46.055279"><ele>1980.75</ele></trkpt>
   <trkpt lon="7.049122" lat="46.055290"><ele>1981.0</ele></trkpt>
   <trkpt lon="7.048970" lat="46.055288"><ele>1983.25</ele></trkpt>
   <trkpt lon="7.048783" lat="46.055315"><ele>1985.25</ele></trkpt>
   <trkpt lon="7.048748" lat="46.055333"><ele>1985.0</ele></trkpt>
   <trkpt lon="7.048707" lat="46.055390"><ele>1983.5</ele></trkpt>
   <trkpt lon="7.048659" lat="46.055405"><ele>1983.75</ele></trkpt>
   <trkpt lon="7.048415" lat="46.055421"><ele>1986.75</ele></trkpt>
   <trkpt lon="7.048315" lat="46.055412"><ele>1988.75</ele></trkpt>
   <trkpt lon="7.048244" lat="46.055420"><ele>1988.25</ele></trkpt>
   <trkpt lon="7.048201" lat="46.055404"><ele>1989.25</ele></trkpt>
   <trkpt lon="7.048141" lat="46.055391"><ele>1990.25</ele></trkpt>
   <trkpt lon="7.047925" lat="46.055351"><ele>1991.75</ele></trkpt>
   <trkpt lon="7.047868" lat="46.055330"><ele>1992.5</ele></trkpt>
   <trkpt lon="7.047782" lat="46.055310"><ele>1993.0</ele></trkpt>
   <trkpt lon="7.047724" lat="46.055286"><ele>1994.5</ele></trkpt>
   <trkpt lon="7.047617" lat="46.055271"><ele>1995.0</ele></trkpt>
   <trkpt lon="7.047528" lat="46.055248"><ele>1996.0</ele></trkpt>
   <trkpt lon="7.047489" lat="46.055256"><ele>1996.0</ele></trkpt>
   <trkpt lon="7.047335" lat="46.055311"><ele>1995.5</ele></trkpt>
   <trkpt lon="7.047251" lat="46.055323"><ele>1996.25</ele></trkpt>
   <trkpt lon="7.047108" lat="46.055319"><ele>1997.75</ele></trkpt>
   <trkpt lon="7.046874" lat="46.055338"><ele>1999.25</ele></trkpt>
   <trkpt lon="7.046780" lat="46.055361"><ele>1999.5</ele></trkpt>
   <trkpt lon="7.046691" lat="46.055378"><ele>1999.75</ele></trkpt>
   <trkpt lon="7.046647" lat="46.055380"><ele>2000.25</ele></trkpt>
   <trkpt lon="7.046526" lat="46.055424"><ele>2001.75</ele></trkpt>
   <trkpt lon="7.046479" lat="46.055435"><ele>2002.5</ele></trkpt>
   <trkpt lon="7.046428" lat="46.055455"><ele>2003.0</ele></trkpt>
   <trkpt lon="7.046309" lat="46.055542"><ele>2002.75</ele></trkpt>
   <trkpt lon="7.046279" lat="46.055574"><ele>2002.75</ele></trkpt>
   <trkpt lon="7.046229" lat="46.055675"><ele>2003.75</ele></trkpt>
   <trkpt lon="7.046227" lat="46.055812"><ele>2004.0</ele></trkpt>
   <trkpt lon="7.046245" lat="46.055858"><ele>2003.75</ele></trkpt>
   <trkpt lon="7.046299" lat="46.055934"><ele>2003.0</ele></trkpt>
   <trkpt lon="7.046312" lat="46.055967"><ele>2002.75</ele></trkpt>
   <trkpt lon="7.046277" lat="46.056021"><ele>2004.0</ele></trkpt>
   <trkpt lon="7.046202" lat="46.056080"><ele>2005.5</ele></trkpt>
   <trkpt lon="7.046097" lat="46.056138"><ele>2006.5</ele></trkpt>
   <trkpt lon="7.046029" lat="46.056194"><ele>2007.25</ele></trkpt>
   <trkpt lon="7.046017" lat="46.056220"><ele>2006.75</ele></trkpt>
   <trkpt lon="7.045930" lat="46.056316"><ele>2006.75</ele></trkpt>
   <trkpt lon="7.045788" lat="46.056429"><ele>2007.25</ele></trkpt>
   <trkpt lon="7.045715" lat="46.056463"><ele>2007.75</ele></trkpt>
   <trkpt lon="7.045614" lat="46.056475"><ele>2010.5</ele></trkpt>
   <trkpt lon="7.045557" lat="46.056524"><ele>2009.5</ele></trkpt>
   <trkpt lon="7.045444" lat="46.056578"><ele>2011.5</ele></trkpt>
   <trkpt lon="7.045381" lat="46.056641"><ele>2010.0</ele></trkpt>
   <trkpt lon="7.045323" lat="46.056674"><ele>2010.75</ele></trkpt>
   <trkpt lon="7.045287" lat="46.056710"><ele>2011.0</ele></trkpt>
   <trkpt lon="7.044982" lat="46.056880"><ele>2019.75</ele></trkpt>
   <trkpt lon="7.044931" lat="46.056916"><ele>2020.75</ele></trkpt>
   <trkpt lon="7.044869" lat="46.056983"><ele>2022.0</ele></trkpt>
   <trkpt lon="7.044795" lat="46.057036"><ele>2024.5</ele></trkpt>
   <trkpt lon="7.044636" lat="46.057194"><ele>2029.0</ele></trkpt>
   <trkpt lon="7.044610" lat="46.057237"><ele>2029.75</ele></trkpt>
   <trkpt lon="7.044554" lat="46.057431"><ele>2032.75</ele></trkpt>
   <trkpt lon="7.044526" lat="46.057487"><ele>2034.0</ele></trkpt>
   <trkpt lon="7.044503" lat="46.057577"><ele>2030.0</ele></trkpt>
   <trkpt lon="7.044472" lat="46.057579"><ele>2030.5</ele></trkpt>
   <trkpt lon="7.044458" lat="46.057566"><ele>2031.75</ele></trkpt>
   <trkpt lon="7.044434" lat="46.057514"><ele>2036.0</ele></trkpt>
   <trkpt lon="7.044381" lat="46.057452"><ele>2037.5</ele></trkpt>
   <trkpt lon="7.044353" lat="46.057437"><ele>2038.0</ele></trkpt>
   <trkpt lon="7.044334" lat="46.057397"><ele>2039.0</ele></trkpt>
   <trkpt lon="7.044275" lat="46.057378"><ele>2040.75</ele></trkpt>
   <trkpt lon="7.044195" lat="46.057313"><ele>2045.0</ele></trkpt>
   <trkpt lon="7.044163" lat="46.057311"><ele>2046.0</ele></trkpt>
   <trkpt lon="7.044056" lat="46.057307"><ele>2044.0</ele></trkpt>
   <trkpt lon="7.043982" lat="46.057276"><ele>2044.0</ele></trkpt>
   <trkpt lon="7.043787" lat="46.057226"><ele>2044.5</ele></trkpt>
   <trkpt lon="7.043661" lat="46.057237"><ele>2042.25</ele></trkpt>
   <trkpt lon="7.043473" lat="46.057279"><ele>2039.0</ele></trkpt>
   <trkpt lon="7.043392" lat="46.057307"><ele>2037.5</ele></trkpt>
   <trkpt lon="7.043273" lat="46.057359"><ele>2036.5</ele></trkpt>
   <trkpt lon="7.043187" lat="46.057415"><ele>2035.75</ele></trkpt>
   <trkpt lon="7.043133" lat="46.057483"><ele>2033.5</ele></trkpt>
   <trkpt lon="7.043089" lat="46.057520"><ele>2033.25</ele></trkpt>
   <trkpt lon="7.042993" lat="46.057563"><ele>2030.75</ele></trkpt>
   <trkpt lon="7.042946" lat="46.057560"><ele>2030.0</ele></trkpt>
   <trkpt lon="7.042875" lat="46.057526"><ele>2030.5</ele></trkpt>
   <trkpt lon="7.042505" lat="46.057530"><ele>2024.25</ele></trkpt>
   <trkpt lon="7.042428" lat="46.057538"><ele>2025.5</ele></trkpt>
   <trkpt lon="7.042311" lat="46.057576"><ele>2025.5</ele></trkpt>
   <trkpt lon="7.042187" lat="46.057630"><ele>2024.5</ele></trkpt>
   <trkpt lon="7.042102" lat="46.057653"><ele>2026.5</ele></trkpt>
   <trkpt lon="7.042075" lat="46.057669"><ele>2026.5</ele></trkpt>
   <trkpt lon="7.042045" lat="46.057722"><ele>2023.0</ele></trkpt>
   <trkpt lon="7.041962" lat="46.057775"><ele>2022.25</ele></trkpt>
   <trkpt lon="7.041830" lat="46.057828"><ele>2018.25</ele></trkpt>
   <trkpt lon="7.041706" lat="46.057852"><ele>2017.75</ele></trkpt>
   <trkpt lon="7.041583" lat="46.057858"><ele>2018.25</ele></trkpt>
   <trkpt lon="7.040728" lat="46.057861"><ele>2018.75</ele></trkpt>
   <trkpt lon="7.040609" lat="46.057824"><ele>2018.0</ele></trkpt>
   <trkpt lon="7.040502" lat="46.057737"><ele>2019.5</ele></trkpt>
   <trkpt lon="7.040373" lat="46.057665"><ele>2017.5</ele></trkpt>
   <trkpt lon="7.040215" lat="46.057587"><ele>2014.75</ele></trkpt>
   <trkpt lon="7.040012" lat="46.057502"><ele>2011.25</ele></trkpt>
   <trkpt lon="7.039895" lat="46.057482"><ele>2008.75</ele></trkpt>
   <trkpt lon="7.039778" lat="46.057449"><ele>2007.5</ele></trkpt>
   <trkpt lon="7.039690" lat="46.057438"><ele>2006.5</ele></trkpt>
   <trkpt lon="7.039588" lat="46.057439"><ele>2005.25</ele></trkpt>
   <trkpt lon="7.039299" lat="46.057494"><ele>1998.75</ele></trkpt>
   <trkpt lon="7.039150" lat="46.057535"><ele>1994.75</ele></trkpt>
   <trkpt lon="7.039036" lat="46.057536"><ele>1993.75</ele></trkpt>
   <trkpt lon="7.038954" lat="46.057557"><ele>1991.25</ele></trkpt>
   <trkpt lon="7.038901" lat="46.057564"><ele>1990.25</ele></trkpt>
   <trkpt lon="7.038519" lat="46.057569"><ele>1986.25</ele></trkpt>
   <trkpt lon="7.038225" lat="46.057614"><ele>1978.25</ele></trkpt>
   <trkpt lon="7.037938" lat="46.057611"><ele>1974.5</ele></trkpt>
   <trkpt lon="7.037531" lat="46.057632"><ele>1966.0</ele></trkpt>
   <trkpt lon="7.037098" lat="46.057621"><ele>1961.5</ele></trkpt>
   <trkpt lon="7.036924" lat="46.057647"><ele>1957.25</ele></trkpt>
   <trkpt lon="7.036765" lat="46.057639"><ele>1955.25</ele></trkpt>
   <trkpt lon="7.036659" lat="46.057662"><ele>1951.5</ele></trkpt>
   <trkpt lon="7.036547" lat="46.057674"><ele>1948.5</ele></trkpt>
   <trkpt lon="7.036271" lat="46.057675"><ele>1942.25</ele></trkpt>
   <trkpt lon="7.036155" lat="46.057652"><ele>1940.75</ele></trkpt>
   <trkpt lon="7.035992" lat="46.057608"><ele>1938.5</ele></trkpt>
   <trkpt lon="7.035841" lat="46.057553"><ele>1936.25</ele></trkpt>
   <trkpt lon="7.035763" lat="46.057514"><ele>1935.0</ele></trkpt>
   <trkpt lon="7.035695" lat="46.057457"><ele>1933.0</ele></trkpt>
   <trkpt lon="7.035575" lat="46.057302"><ele>1927.25</ele></trkpt>
   <trkpt lon="7.035546" lat="46.057250"><ele>1925.5</ele></trkpt>
   <trkpt lon="7.035374" lat="46.056652"><ele>1911.25</ele></trkpt>
   <trkpt lon="7.035355" lat="46.056626"><ele>1910.25</ele></trkpt>
   <trkpt lon="7.035346" lat="46.056584"><ele>1909.5</ele></trkpt>
   <trkpt lon="7.035285" lat="46.056433"><ele>1905.5</ele></trkpt>
   <trkpt lon="7.035228" lat="46.056359"><ele>1902.75</ele></trkpt>
   <trkpt lon="7.035140" lat="46.056283"><ele>1899.5</ele></trkpt>
   <trkpt lon="7.035119" lat="46.056252"><ele>1898.75</ele></trkpt>
   <trkpt lon="7.035055" lat="46.056205"><ele>1896.25</ele></trkpt>
   <trkpt lon="7.035037" lat="46.056162"><ele>1896.0</ele></trkpt>
   <trkpt lon="7.035001" lat="46.056132"><ele>1894.75</ele></trkpt>
   <trkpt lon="7.034910" lat="46.056083"><ele>1892.25</ele></trkpt>
   <trkpt lon="7.034748" lat="46.055973"><ele>1888.25</ele></trkpt>
   <trkpt lon="7.034730" lat="46.055942"><ele>1888.0</ele></trkpt>
   <trkpt lon="7.034625" lat="46.055889"><ele>1886.5</ele></trkpt>
   <trkpt lon="7.034503" lat="46.055855"><ele>1884.75</ele></trkpt>
   <trkpt lon="7.034301" lat="46.055834"><ele>1882.75</ele></trkpt>
   <trkpt lon="7.034168" lat="46.055801"><ele>1882.0</ele></trkpt>
   <trkpt lon="7.034052" lat="46.055784"><ele>1880.75</ele></trkpt>
   <trkpt lon="7.033935" lat="46.055798"><ele>1879.25</ele></trkpt>
   <trkpt lon="7.033759" lat="46.055878"><ele>1877.0</ele></trkpt>
   <trkpt lon="7.033680" lat="46.055899"><ele>1876.25</ele></trkpt>
   <trkpt lon="7.033517" lat="46.055931"><ele>1875.75</ele></trkpt>
   <trkpt lon="7.033273" lat="46.056001"><ele>1876.75</ele></trkpt>
   <trkpt lon="7.033040" lat="46.056149"><ele>1876.0</ele></trkpt>
   <trkpt lon="7.032954" lat="46.056186"><ele>1875.25</ele></trkpt>
   <trkpt lon="7.032911" lat="46.056192"><ele>1875.0</ele></trkpt>
   <trkpt lon="7.032803" lat="46.056185"><ele>1875.0</ele></trkpt>
   <trkpt lon="7.032687" lat="46.056199"><ele>1874.0</ele></trkpt>
   <trkpt lon="7.032645" lat="46.056216"><ele>1873.5</ele></trkpt>
   <trkpt lon="7.032526" lat="46.056222"><ele>1872.75</ele></trkpt>
   <trkpt lon="7.032350" lat="46.056241"><ele>1871.75</ele></trkpt>
   <trkpt lon="7.032276" lat="46.056240"><ele>1871.5</ele></trkpt>
   <trkpt lon="7.032176" lat="46.056224"><ele>1870.25</ele></trkpt>
   <trkpt lon="7.032142" lat="46.056210"><ele>1869.25</ele></trkpt>
   <trkpt lon="7.032108" lat="46.056210"><ele>1868.5</ele></trkpt>
   <trkpt lon="7.032054" lat="46.056233"><ele>1867.0</ele></trkpt>
   <trkpt lon="7.032005" lat="46.056236"><ele>1865.75</ele></trkpt>
   <trkpt lon="7.031930" lat="46.056251"><ele>1864.0</ele></trkpt>
   <trkpt lon="7.031843" lat="46.056285"><ele>1862.5</ele></trkpt>
   <trkpt lon="7.031780" lat="46.056327"><ele>1861.5</ele></trkpt>
   <trkpt lon="7.031677" lat="46.056358"><ele>1859.75</ele></trkpt>
   <trkpt lon="7.031569" lat="46.056376"><ele>1859.25</ele></trkpt>
   <trkpt lon="7.031327" lat="46.056538"><ele>1854.5</ele></trkpt>
   <trkpt lon="7.031226" lat="46.056538"><ele>1853.75</ele></trkpt>
   <trkpt lon="7.031146" lat="46.056526"><ele>1853.25</ele></trkpt>
   <trkpt lon="7.030995" lat="46.056565"><ele>1852.5</ele></trkpt>
   <trkpt lon="7.030907" lat="46.056608"><ele>1852.25</ele></trkpt>
   <trkpt lon="7.030757" lat="46.056641"><ele>1851.75</ele></trkpt>
   <trkpt lon="7.030603" lat="46.056710"><ele>1851.25</ele></trkpt>
   <trkpt lon="7.030571" lat="46.056738"><ele>1851.25</ele></trkpt>
   <trkpt lon="7.030518" lat="46.056743"><ele>1851.0</ele></trkpt>
   <trkpt lon="7.030322" lat="46.056869"><ele>1849.5</ele></trkpt>
   <trkpt lon="7.030286" lat="46.056879"><ele>1849.25</ele></trkpt>
   <trkpt lon="7.030204" lat="46.056921"><ele>1848.75</ele></trkpt>
   <trkpt lon="7.030048" lat="46.057042"><ele>1847.75</ele></trkpt>
   <trkpt lon="7.029972" lat="46.057114"><ele>1847.0</ele></trkpt>
   <trkpt lon="7.029922" lat="46.057214"><ele>1845.75</ele></trkpt>
   <trkpt lon="7.029887" lat="46.057258"><ele>1845.25</ele></trkpt>
   <trkpt lon="7.029695" lat="46.057390"><ele>1841.75</ele></trkpt>
   <trkpt lon="7.029671" lat="46.057421"><ele>1841.5</ele></trkpt>
   <trkpt lon="7.029665" lat="46.057458"><ele>1841.25</ele></trkpt>
   <trkpt lon="7.029631" lat="46.057518"><ele>1840.75</ele></trkpt>
   <trkpt lon="7.029499" lat="46.057711"><ele>1837.5</ele></trkpt>
   <trkpt lon="7.029502" lat="46.057765"><ele>1836.75</ele></trkpt>
   <trkpt lon="7.029475" lat="46.057780"><ele>1836.25</ele></trkpt>
   <trkpt lon="7.029434" lat="46.057786"><ele>1836.0</ele></trkpt>
   <trkpt lon="7.029384" lat="46.057823"><ele>1836.25</ele></trkpt>
   <trkpt lon="7.029354" lat="46.057863"><ele>1836.5</ele></trkpt>
   <trkpt lon="7.029301" lat="46.058061"><ele>1834.75</ele></trkpt>
   <trkpt lon="7.029272" lat="46.058123"><ele>1833.5</ele></trkpt>
   <trkpt lon="7.029235" lat="46.058158"><ele>1833.25</ele></trkpt>
   <trkpt lon="7.029193" lat="46.058182"><ele>1833.5</ele></trkpt>
   <trkpt lon="7.029140" lat="46.058198"><ele>1834.0</ele></trkpt>
   <trkpt lon="7.028661" lat="46.058295"><ele>1833.5</ele></trkpt>
   <trkpt lon="7.028430" lat="46.058349"><ele>1832.25</ele></trkpt>
   <trkpt lon="7.028246" lat="46.058403"><ele>1829.5</ele></trkpt>
   <trkpt lon="7.028056" lat="46.058449"><ele>1827.5</ele></trkpt>
   <trkpt lon="7.027916" lat="46.058460"><ele>1825.0</ele></trkpt>
   <trkpt lon="7.027818" lat="46.058451"><ele>1824.0</ele></trkpt>
   <trkpt lon="7.027021" lat="46.058471"><ele>1811.0</ele></trkpt>
   <trkpt lon="7.026896" lat="46.058457"><ele>1808.25</ele></trkpt>
   <trkpt lon="7.026808" lat="46.058430"><ele>1806.0</ele></trkpt>
   <trkpt lon="7.026723" lat="46.058376"><ele>1805.0</ele></trkpt>
   <trkpt lon="7.026392" lat="46.058191"><ele>1797.25</ele></trkpt>
   <trkpt lon="7.026220" lat="46.058127"><ele>1792.25</ele></trkpt>
   <trkpt lon="7.026026" lat="46.058012"><ele>1789.5</ele></trkpt>
   <trkpt lon="7.025555" lat="46.057861"><ele>1776.5</ele></trkpt>
   <trkpt lon="7.025495" lat="46.057823"><ele>1775.0</ele></trkpt>
   <trkpt lon="7.025446" lat="46.057771"><ele>1774.25</ele></trkpt>
   <trkpt lon="7.025350" lat="46.057576"><ele>1768.0</ele></trkpt>
   <trkpt lon="7.025196" lat="46.057374"><ele>1758.5</ele></trkpt>
   <trkpt lon="7.025140" lat="46.057248"><ele>1755.75</ele></trkpt>
   <trkpt lon="7.025050" lat="46.057165"><ele>1751.0</ele></trkpt>
   <trkpt lon="7.024889" lat="46.056890"><ele>1742.75</ele></trkpt>
   <trkpt lon="7.024873" lat="46.056782"><ele>1742.0</ele></trkpt>
   <trkpt lon="7.024814" lat="46.056648"><ele>1739.25</ele></trkpt>
   <trkpt lon="7.024776" lat="46.056426"><ele>1735.25</ele></trkpt>
   <trkpt lon="7.024736" lat="46.056267"><ele>1734.25</ele></trkpt>
   <trkpt lon="7.024699" lat="46.056209"><ele>1733.5</ele></trkpt>
   <trkpt lon="7.024499" lat="46.056022"><ele>1729.75</ele></trkpt>
   <trkpt lon="7.024389" lat="46.055943"><ele>1728.75</ele></trkpt>
   <trkpt lon="7.024274" lat="46.055876"><ele>1728.0</ele></trkpt>
   <trkpt lon="7.024072" lat="46.055828"><ele>1725.75</ele></trkpt>
   <trkpt lon="7.023855" lat="46.055815"><ele>1723.25</ele></trkpt>
   <trkpt lon="7.023716" lat="46.055776"><ele>1723.25</ele></trkpt>
   <trkpt lon="7.023590" lat="46.055755"><ele>1723.0</ele></trkpt>
   <trkpt lon="7.023406" lat="46.055781"><ele>1719.75</ele></trkpt>
   <trkpt lon="7.023080" lat="46.055745"><ele>1718.25</ele></trkpt>
   <trkpt lon="7.022926" lat="46.055770"><ele>1717.25</ele></trkpt>
   <trkpt lon="7.022639" lat="46.055831"><ele>1714.5</ele></trkpt>
   <trkpt lon="7.022299" lat="46.055808"><ele>1714.25</ele></trkpt>
   <trkpt lon="7.022081" lat="46.055838"><ele>1712.75</ele></trkpt>
   <trkpt lon="7.021836" lat="46.055884"><ele>1711.5</ele></trkpt>
   <trkpt lon="7.021691" lat="46.055935"><ele>1710.5</ele></trkpt>
   <trkpt lon="7.021553" lat="46.056007"><ele>1708.25</ele></trkpt>
   <trkpt lon="7.021322" lat="46.056097"><ele>1706.0</ele></trkpt>
   <trkpt lon="7.021290" lat="46.056104"><ele>1706.0</ele></trkpt>
   <trkpt lon="7.021236" lat="46.056143"><ele>1704.5</ele></trkpt>
   <trkpt lon="7.021189" lat="46.056160"><ele>1704.25</ele></trkpt>
   <trkpt lon="7.021111" lat="46.056203"><ele>1703.0</ele></trkpt>
   <trkpt lon="7.021040" lat="46.056216"><ele>1704.0</ele></trkpt>
   <trkpt lon="7.020891" lat="46.056331"><ele>1701.5</ele></trkpt>
   <trkpt lon="7.020835" lat="46.056336"><ele>1702.75</ele></trkpt>
   <trkpt lon="7.020772" lat="46.056372"><ele>1703.0</ele></trkpt>
   <trkpt lon="7.020673" lat="46.056446"><ele>1702.5</ele></trkpt>
   <trkpt lon="7.020573" lat="46.056543"><ele>1701.0</ele></trkpt>
   <trkpt lon="7.020414" lat="46.056644"><ele>1698.75</ele></trkpt>
   <trkpt lon="7.020351" lat="46.056659"><ele>1699.0</ele></trkpt>
   <trkpt lon="7.020279" lat="46.056705"><ele>1697.25</ele></trkpt>
   <trkpt lon="7.019980" lat="46.056758"><ele>1690.25</ele></trkpt>
   <trkpt lon="7.019680" lat="46.056610"><ele>1690.25</ele></trkpt>
   <trkpt lon="7.019546" lat="46.056743"><ele>1681.5</ele></trkpt>
   <trkpt lon="7.019403" lat="46.056742"><ele>1682.75</ele></trkpt>
   <trkpt lon="7.019384" lat="46.056765"><ele>1681.0</ele></trkpt>
   <trkpt lon="7.019330" lat="46.056766"><ele>1682.0</ele></trkpt>
   <trkpt lon="7.019223" lat="46.056807"><ele>1680.25</ele></trkpt>
   <trkpt lon="7.019135" lat="46.056865"><ele>1677.75</ele></trkpt>
   <trkpt lon="7.019016" lat="46.056904"><ele>1680.0</ele></trkpt>
   <trkpt lon="7.018955" lat="46.056962"><ele>1678.75</ele></trkpt>
   <trkpt lon="7.018939" lat="46.057014"><ele>1676.25</ele></trkpt>
   <trkpt lon="7.018743" lat="46.057191"><ele>1672.75</ele></trkpt>
   <trkpt lon="7.018557" lat="46.057275"><ele>1670.75</ele></trkpt>
   <trkpt lon="7.018380" lat="46.057305"><ele>1667.5</ele></trkpt>
   <trkpt lon="7.018006" lat="46.057326"><ele>1661.75</ele></trkpt>
   <trkpt lon="7.017601" lat="46.057296"><ele>1659.75</ele></trkpt>
   <trkpt lon="7.017494" lat="46.057310"><ele>1656.75</ele></trkpt>
   <trkpt lon="7.017371" lat="46.057310"><ele>1655.5</ele></trkpt>
   <trkpt lon="7.017192" lat="46.057296"><ele>1654.75</ele></trkpt>
   <trkpt lon="7.016792" lat="46.057345"><ele>1647.5</ele></trkpt>
   <trkpt lon="7.016510" lat="46.057351"><ele>1645.75</ele></trkpt>
   <trkpt lon="7.016284" lat="46.057346"><ele>1645.0</ele></trkpt>
   <trkpt lon="7.016092" lat="46.057328"><ele>1645.0</ele></trkpt>
   <trkpt lon="7.015918" lat="46.057309"><ele>1645.0</ele></trkpt>
   <trkpt lon="7.015670" lat="46.057260"><ele>1639.25</ele></trkpt>
   <trkpt lon="7.015268" lat="46.057105"><ele>1634.0</ele></trkpt>
   <trkpt lon="7.015039" lat="46.057129"><ele>1632.75</ele></trkpt>
   <trkpt lon="7.014806" lat="46.057111"><ele>1630.25</ele></trkpt>
   <trkpt lon="7.014642" lat="46.057062"><ele>1629.75</ele></trkpt>
   <trkpt lon="7.014498" lat="46.056952"><ele>1632.75</ele></trkpt>
   <trkpt lon="7.014388" lat="46.056918"><ele>1635.75</ele></trkpt>
   <trkpt lon="7.014337" lat="46.056973"><ele>1633.0</ele></trkpt>
   <trkpt lon="7.014345" lat="46.057052"><ele>1627.0</ele></trkpt>
   <trkpt lon="7.014340" lat="46.057104"><ele>1623.5</ele></trkpt>
   <trkpt lon="7.014257" lat="46.057166"><ele>1622.25</ele></trkpt>
   <trkpt lon="7.013991" lat="46.057313"><ele>1622.75</ele></trkpt>
   <trkpt lon="7.013766" lat="46.057400"><ele>1622.5</ele></trkpt>
   <trkpt lon="7.013519" lat="46.057380"><ele>1625.75</ele></trkpt>
   <trkpt lon="7.013186" lat="46.057378"><ele>1627.0</ele></trkpt>
   <trkpt lon="7.013048" lat="46.057391"><ele>1628.75</ele></trkpt>
   <trkpt lon="7.012841" lat="46.057370"><ele>1628.0</ele></trkpt>
   <trkpt lon="7.012734" lat="46.057368"><ele>1626.5</ele></trkpt>
   <trkpt lon="7.012599" lat="46.057355"><ele>1624.75</ele></trkpt>
   <trkpt lon="7.012407" lat="46.057323"><ele>1622.75</ele></trkpt>
   <trkpt lon="7.012201" lat="46.057271"><ele>1619.25</ele></trkpt>
   <trkpt lon="7.012089" lat="46.057216"><ele>1619.0</ele></trkpt>
   <trkpt lon="7.011820" lat="46.057218"><ele>1611.0</ele></trkpt>
   <trkpt lon="7.011634" lat="46.057154"><ele>1611.5</ele></trkpt>
   <trkpt lon="7.011544" lat="46.057237"><ele>1602.0</ele></trkpt>
   <trkpt lon="7.011410" lat="46.057234"><ele>1598.5</ele></trkpt>
   <trkpt lon="7.011328" lat="46.057242"><ele>1595.5</ele></trkpt>
   <trkpt lon="7.011202" lat="46.057208"><ele>1594.75</ele></trkpt>
   <trkpt lon="7.011121" lat="46.057219"><ele>1591.5</ele></trkpt>
   <trkpt lon="7.011042" lat="46.057258"><ele>1587.75</ele></trkpt>
   <trkpt lon="7.010856" lat="46.057252"><ele>1586.5</ele></trkpt>
   <trkpt lon="7.010716" lat="46.057270"><ele>1585.5</ele></trkpt>
   <trkpt lon="7.010629" lat="46.057303"><ele>1584.25</ele></trkpt>
   <trkpt lon="7.010324" lat="46.057555"><ele>1578.0</ele></trkpt>
   <trkpt lon="7.010153" lat="46.057598"><ele>1578.25</ele></trkpt>
   <trkpt lon="7.009827" lat="46.057770"><ele>1574.5</ele></trkpt>
   <trkpt lon="7.009717" lat="46.057782"><ele>1574.5</ele></trkpt>
   <trkpt lon="7.009433" lat="46.057768"><ele>1574.25</ele></trkpt>
   <trkpt lon="7.009147" lat="46.057806"><ele>1572.0</ele></trkpt>
   <trkpt lon="7.009023" lat="46.057799"><ele>1571.5</ele></trkpt>
   <trkpt lon="7.008825" lat="46.057801"><ele>1569.25</ele></trkpt>
   <trkpt lon="7.008518" lat="46.057754"><ele>1566.0</ele></trkpt>
   <trkpt lon="7.008399" lat="46.057755"><ele>1563.5</ele></trkpt>
   <trkpt lon="7.008275" lat="46.057724"><ele>1563.0</ele></trkpt>
   <trkpt lon="7.008161" lat="46.057731"><ele>1560.25</ele></trkpt>
   <trkpt lon="7.007865" lat="46.057822"><ele>1549.75</ele></trkpt>
   <trkpt lon="7.007690" lat="46.057816"><ele>1547.25</ele></trkpt>
   <trkpt lon="7.007617" lat="46.057833"><ele>1544.75</ele></trkpt>
   <trkpt lon="7.007396" lat="46.057810"><ele>1541.25</ele></trkpt>
   <trkpt lon="7.007250" lat="46.057764"><ele>1540.5</ele></trkpt>
   <trkpt lon="7.007150" lat="46.057753"><ele>1539.5</ele></trkpt>
   <trkpt lon="7.006962" lat="46.057752"><ele>1536.75</ele></trkpt>
   <trkpt lon="7.006870" lat="46.057727"><ele>1536.75</ele></trkpt>
   <trkpt lon="7.006750" lat="46.057707"><ele>1536.0</ele></trkpt>
   <trkpt lon="7.006339" lat="46.057663"><ele>1530.5</ele></trkpt>
   <trkpt lon="7.006248" lat="46.057645"><ele>1529.75</ele></trkpt>
   <trkpt lon="7.006105" lat="46.057602"><ele>1529.25</ele></trkpt>
   <trkpt lon="7.006016" lat="46.057546"><ele>1530.0</ele></trkpt>
   <trkpt lon="7.005891" lat="46.057512"><ele>1528.75</ele></trkpt>
   <trkpt lon="7.005616" lat="46.057544"><ele>1522.75</ele></trkpt>
   <trkpt lon="7.005570" lat="46.057544"><ele>1522.25</ele></trkpt>
   <trkpt lon="7.005454" lat="46.057516"><ele>1522.25</ele></trkpt>
   <trkpt lon="7.005037" lat="46.057475"><ele>1519.5</ele></trkpt>
   <trkpt lon="7.004799" lat="46.057485"><ele>1516.5</ele></trkpt>
   <trkpt lon="7.004680" lat="46.057508"><ele>1513.75</ele></trkpt>
   <trkpt lon="7.004512" lat="46.057468"><ele>1514.25</ele></trkpt>
   <trkpt lon="7.004425" lat="46.057440"><ele>1515.0</ele></trkpt>
   <trkpt lon="7.004244" lat="46.057407"><ele>1513.75</ele></trkpt>
   <trkpt lon="7.004042" lat="46.057425"><ele>1510.0</ele></trkpt>
   <trkpt lon="7.003891" lat="46.057417"><ele>1509.5</ele></trkpt>
   <trkpt lon="7.003608" lat="46.057339"><ele>1514.25</ele></trkpt>
   <trkpt lon="7.003528" lat="46.057331"><ele>1515.5</ele></trkpt>
   <trkpt lon="7.003390" lat="46.057335"><ele>1516.5</ele></trkpt>
   <trkpt lon="7.003247" lat="46.057361"><ele>1517.75</ele></trkpt>
   <trkpt lon="7.003177" lat="46.057412"><ele>1518.0</ele></trkpt>
   <trkpt lon="7.003117" lat="46.057511"><ele>1518.0</ele></trkpt>
   <trkpt lon="7.002990" lat="46.057596"><ele>1519.25</ele></trkpt>
   <trkpt lon="7.002860" lat="46.057640"><ele>1520.5</ele></trkpt>
   <trkpt lon="7.002646" lat="46.057657"><ele>1523.0</ele></trkpt>
   <trkpt lon="7.002452" lat="46.057652"><ele>1525.5</ele></trkpt>
   <trkpt lon="7.002257" lat="46.057636"><ele>1527.75</ele></trkpt>
   <trkpt lon="7.002130" lat="46.057649"><ele>1527.75</ele></trkpt>
   <trkpt lon="7.002041" lat="46.057618"><ele>1528.25</ele></trkpt>
   <trkpt lon="7.001945" lat="46.057600"><ele>1528.5</ele></trkpt>
   <trkpt lon="7.001863" lat="46.057596"><ele>1528.5</ele></trkpt>
   <trkpt lon="7.001709" lat="46.057643"><ele>1528.25</ele></trkpt>
   <trkpt lon="7.001663" lat="46.057529"><ele>1529.5</ele></trkpt>
   <trkpt lon="7.001633" lat="46.057416"><ele>1531.75</ele></trkpt>
   <trkpt lon="7.001641" lat="46.057181"><ele>1536.25</ele></trkpt>
   <trkpt lon="7.001596" lat="46.057110"><ele>1536.5</ele></trkpt>
   <trkpt lon="7.001552" lat="46.057066"><ele>1536.25</ele></trkpt>
   <trkpt lon="7.001598" lat="46.057053"><ele>1536.75</ele></trkpt>
   <trkpt lon="7.001616" lat="46.057032"><ele>1537.25</ele></trkpt>
   <trkpt lon="7.001644" lat="46.056944"><ele>1539.0</ele></trkpt>
   <trkpt lon="7.001616" lat="46.057032"><ele>1537.25</ele></trkpt>
   <trkpt lon="7.001598" lat="46.057053"><ele>1536.75</ele></trkpt>
   <trkpt lon="7.001552" lat="46.057066"><ele>1536.25</ele></trkpt>
   <trkpt lon="7.001517" lat="46.057063"><ele>1535.75</ele></trkpt>
   <trkpt lon="7.001386" lat="46.057013"><ele>1534.0</ele></trkpt>
   <trkpt lon="7.001332" lat="46.056999"><ele>1533.5</ele></trkpt>
   <trkpt lon="7.001283" lat="46.056996"><ele>1532.75</ele></trkpt>
   <trkpt lon="7.001228" lat="46.057009"><ele>1532.0</ele></trkpt>
   <trkpt lon="7.001116" lat="46.057063"><ele>1530.5</ele></trkpt>
   <trkpt lon="7.001031" lat="46.057130"><ele>1528.75</ele></trkpt>
   <trkpt lon="7.001015" lat="46.057155"><ele>1528.0</ele></trkpt>
   <trkpt lon="7.001009" lat="46.057198"><ele>1527.5</ele></trkpt>
   <trkpt lon="7.000906" lat="46.057090"><ele>1527.0</ele></trkpt>
   <trkpt lon="7.000767" lat="46.057011"><ele>1526.5</ele></trkpt>
   <trkpt lon="7.000731" lat="46.056966"><ele>1527.0</ele></trkpt>
   <trkpt lon="7.000714" lat="46.056900"><ele>1526.75</ele></trkpt>
   <trkpt lon="7.000731" lat="46.056805"><ele>1526.25</ele></trkpt>
   <trkpt lon="7.000780" lat="46.056726"><ele>1526.75</ele></trkpt>
   <trkpt lon="7.000878" lat="46.056627"><ele>1528.0</ele></trkpt>
   <trkpt lon="7.000905" lat="46.056567"><ele>1528.25</ele></trkpt>
   <trkpt lon="7.000898" lat="46.056497"><ele>1528.0</ele></trkpt>
   <trkpt lon="7.000832" lat="46.056407"><ele>1527.0</ele></trkpt>
   <trkpt lon="7.000744" lat="46.056318"><ele>1526.0</ele></trkpt>
   <trkpt lon="7.000652" lat="46.056105"><ele>1527.5</ele></trkpt>
   <trkpt lon="7.000356" lat="46.055820"><ele>1526.75</ele></trkpt>
   <trkpt lon="7.000273" lat="46.055717"><ele>1526.5</ele></trkpt>
   <trkpt lon="7.000222" lat="46.055552"><ele>1525.25</ele></trkpt>
   <trkpt lon="7.000213" lat="46.055527"><ele>1525.25</ele></trkpt>
   <trkpt lon="7.000206" lat="46.055505"><ele>1525.25</ele></trkpt>
   <trkpt lon="7.000221" lat="46.055483"><ele>1525.25</ele></trkpt>
   <trkpt lon="7.000201" lat="46.055353"><ele>1525.5</ele></trkpt>
   <trkpt lon="7.000203" lat="46.055292"><ele>1526.25</ele></trkpt>
   <trkpt lon="7.000213" lat="46.055237"><ele>1525.5</ele></trkpt>
   <trkpt lon="7.000227" lat="46.055195"><ele>1525.0</ele></trkpt>
   <trkpt lon="7.000294" lat="46.055124"><ele>1527.0</ele></trkpt>
   <trkpt lon="7.000308" lat="46.055117"><ele>1527.25</ele></trkpt>
   <trkpt lon="7.000312" lat="46.055111"><ele>1527.0</ele></trkpt>
   <trkpt lon="7.000325" lat="46.055098"><ele>1527.0</ele></trkpt>
   <trkpt lon="7.000544" lat="46.054902"><ele>1529.5</ele></trkpt>
   <trkpt lon="7.000589" lat="46.054813"><ele>1529.25</ele></trkpt>
   <trkpt lon="7.000618" lat="46.054713"><ele>1528.5</ele></trkpt>
   <trkpt lon="7.000631" lat="46.054600"><ele>1529.75</ele></trkpt>
   <trkpt lon="7.000580" lat="46.054492"><ele>1526.5</ele></trkpt>
   <trkpt lon="7.000584" lat="46.054341"><ele>1527.25</ele></trkpt>
   <trkpt lon="7.000568" lat="46.054237"><ele>1526.5</ele></trkpt>
   <trkpt lon="7.000622" lat="46.053982"><ele>1529.0</ele></trkpt>
   <trkpt lon="7.000608" lat="46.053852"><ele>1527.5</ele></trkpt>
   <trkpt lon="7.000639" lat="46.053557"><ele>1530.5</ele></trkpt>
   <trkpt lon="7.000618" lat="46.053305"><ele>1527.5</ele></trkpt>
   <trkpt lon="7.000741" lat="46.052982"><ele>1528.0</ele></trkpt>
   <trkpt lon="7.000843" lat="46.052808"><ele>1528.5</ele></trkpt>
   <trkpt lon="7.000458" lat="46.052965"><ele>1511.25</ele></trkpt>
   <trkpt lon="7.000309" lat="46.052914"><ele>1502.0</ele></trkpt>
   <trkpt lon="7.000258" lat="46.052711"><ele>1496.0</ele></trkpt>
   <trkpt lon="7.000184" lat="46.052783"><ele>1492.5</ele></trkpt>
   <trkpt lon="7.000050" lat="46.052653"><ele>1483.5</ele></trkpt>
   <trkpt lon="6.999996" lat="46.052817"><ele>1482.75</ele></trkpt>
   <trkpt lon="6.999984" lat="46.052839"><ele>1482.5</ele></trkpt>
   <trkpt lon="6.999962" lat="46.052851"><ele>1481.75</ele></trkpt>
   <trkpt lon="6.999930" lat="46.052849"><ele>1480.25</ele></trkpt>
   <trkpt lon="6.999908" lat="46.052833"><ele>1478.75</ele></trkpt>
   <trkpt lon="6.999822" lat="46.052762"><ele>1473.25</ele></trkpt>
   <trkpt lon="6.999807" lat="46.052669"><ele>1471.75</ele></trkpt>
   <trkpt lon="6.999602" lat="46.052667"><ele>1464.25</ele></trkpt>
   <trkpt lon="6.999604" lat="46.052630"><ele>1463.75</ele></trkpt>
   <trkpt lon="6.999628" lat="46.052629"><ele>1464.5</ele></trkpt>
   <trkpt lon="6.999626" lat="46.052683"><ele>1465.0</ele></trkpt>
   <trkpt lon="6.999570" lat="46.052839"><ele>1465.0</ele></trkpt>
   <trkpt lon="6.999519" lat="46.052921"><ele>1463.75</ele></trkpt>
   <trkpt lon="6.999492" lat="46.052986"><ele>1463.25</ele></trkpt>
   <trkpt lon="6.999413" lat="46.053093"><ele>1460.75</ele></trkpt>
   <trkpt lon="6.999261" lat="46.053189"><ele>1453.25</ele></trkpt>
   <trkpt lon="6.999134" lat="46.053026"><ele>1446.75</ele></trkpt>
   <trkpt lon="6.998998" lat="46.053040"><ele>1440.75</ele></trkpt>
   <trkpt lon="6.998766" lat="46.052944"><ele>1427.5</ele></trkpt>
   <trkpt lon="6.998641" lat="46.052827"><ele>1419.75</ele></trkpt>
   <trkpt lon="6.998465" lat="46.052870"><ele>1411.0</ele></trkpt>
   <trkpt lon="6.998276" lat="46.052717"><ele>1402.0</ele></trkpt>
   <trkpt lon="6.998072" lat="46.052813"><ele>1391.5</ele></trkpt>
   <trkpt lon="6.997916" lat="46.052635"><ele>1388.5</ele></trkpt>
   <trkpt lon="6.997788" lat="46.052692"><ele>1382.5</ele></trkpt>
   <trkpt lon="6.997682" lat="46.052624"><ele>1379.75</ele></trkpt>
   <trkpt lon="6.997639" lat="46.052755"><ele>1376.75</ele></trkpt>
   <trkpt lon="6.997519" lat="46.052643"><ele>1374.0</ele></trkpt>
   <trkpt lon="6.997250" lat="46.052637"><ele>1364.75</ele></trkpt>
   <trkpt lon="6.997235" lat="46.052713"><ele>1363.75</ele></trkpt>
   <trkpt lon="6.997179" lat="46.052820"><ele>1360.0</ele></trkpt>
   <trkpt lon="6.997162" lat="46.052871"><ele>1358.0</ele></trkpt>
   <trkpt lon="6.997170" lat="46.052925"><ele>1356.5</ele></trkpt>
   <trkpt lon="6.997259" lat="46.052976"><ele>1357.5</ele></trkpt>
   <trkpt lon="6.997330" lat="46.053049"><ele>1356.75</ele></trkpt>
   <trkpt lon="6.997383" lat="46.053120"><ele>1356.5</ele></trkpt>
   <trkpt lon="6.997401" lat="46.053207"><ele>1355.0</ele></trkpt>
   <trkpt lon="6.997386" lat="46.053398"><ele>1351.0</ele></trkpt>
   <trkpt lon="6.997370" lat="46.053548"><ele>1349.0</ele></trkpt>
   <trkpt lon="6.997317" lat="46.053794"><ele>1344.25</ele></trkpt>
   <trkpt lon="6.997266" lat="46.054207"><ele>1336.75</ele></trkpt>
   <trkpt lon="6.997195" lat="46.054453"><ele>1331.75</ele></trkpt>
   <trkpt lon="6.997096" lat="46.054671"><ele>1327.5</ele></trkpt>
   <trkpt lon="6.997080" lat="46.054729"><ele>1326.5</ele></trkpt>
   <trkpt lon="6.997120" lat="46.055048"><ele>1322.0</ele></trkpt>
   <trkpt lon="6.997104" lat="46.055063"><ele>1321.5</ele></trkpt>
   <trkpt lon="6.997061" lat="46.055076"><ele>1320.25</ele></trkpt>
   <trkpt lon="6.997035" lat="46.055076"><ele>1319.75</ele></trkpt>
   <trkpt lon="6.997012" lat="46.055069"><ele>1319.25</ele></trkpt>
   <trkpt lon="6.996923" lat="46.055361"><ele>1314.25</ele></trkpt>
   <trkpt lon="6.996726" lat="46.055861"><ele>1302.25</ele></trkpt>
   <trkpt lon="6.996668" lat="46.056167"><ele>1294.0</ele></trkpt>
   <trkpt lon="6.996572" lat="46.056454"><ele>1290.25</ele></trkpt>
   <trkpt lon="6.996431" lat="46.056764"><ele>1285.75</ele></trkpt>
   <trkpt lon="6.996335" lat="46.056883"><ele>1284.75</ele></trkpt>
   <trkpt lon="6.996206" lat="46.056952"><ele>1284.5</ele></trkpt>
   <trkpt lon="6.996061" lat="46.056967"><ele>1285.25</ele></trkpt>
   <trkpt lon="6.995837" lat="46.056906"><ele>1289.25</ele></trkpt>
   <trkpt lon="6.995970" lat="46.056757"><ele>1290.25</ele></trkpt>
   <trkpt lon="6.996020" lat="46.056679"><ele>1291.5</ele></trkpt>
   <trkpt lon="6.996056" lat="46.056592"><ele>1292.75</ele></trkpt>
   <trkpt lon="6.995855" lat="46.056558"><ele>1293.5</ele></trkpt>
   <trkpt lon="6.995529" lat="46.056461"><ele>1292.75</ele></trkpt>
   <trkpt lon="6.995294" lat="46.056251"><ele>1295.75</ele></trkpt>
   <trkpt lon="6.995190" lat="46.056321"><ele>1293.75</ele></trkpt>
   <trkpt lon="6.994648" lat="46.056554"><ele>1287.5</ele></trkpt>
   <trkpt lon="6.994791" lat="46.056712"><ele>1285.0</ele></trkpt>
   <trkpt lon="6.994810" lat="46.056770"><ele>1285.0</ele></trkpt>
   <trkpt lon="6.994807" lat="46.056817"><ele>1285.0</ele></trkpt>
   <trkpt lon="6.994788" lat="46.056863"><ele>1284.75</ele></trkpt>
   <trkpt lon="6.994756" lat="46.056886"><ele>1284.5</ele></trkpt>
   <trkpt lon="6.994716" lat="46.056904"><ele>1284.0</ele></trkpt>
   <trkpt lon="6.994658" lat="46.056918"><ele>1283.0</ele></trkpt>
   <trkpt lon="6.994125" lat="46.057008"><ele>1277.5</ele></trkpt>
   <trkpt lon="6.994143" lat="46.057064"><ele>1277.0</ele></trkpt>
   <trkpt lon="6.994137" lat="46.057185"><ele>1276.0</ele></trkpt>
   <trkpt lon="6.994095" lat="46.057340"><ele>1275.5</ele></trkpt>
   <trkpt lon="6.993893" lat="46.057740"><ele>1275.0</ele></trkpt>
   <trkpt lon="6.993865" lat="46.057853"><ele>1274.25</ele></trkpt>
   <trkpt lon="6.993854" lat="46.058004"><ele>1273.0</ele></trkpt>
  </trkseg>
  </trk>
</gpx>
